{"type": "FeatureCollection", "features": [{"type": "Feature", "geometry": {"type": "Point", "coordinates": [10.73217211156729, 59.913076000000004]}, "properties": {"id": 14165721, "feat_type": "relation", "quality_categories": "improper_geometries, missing_tags", "issue_ids": "[0, 1]", "osm_url": "https://www.openstreetmap.org/relation/14165721", "josm_url": "http://127.0.0.1:8111/load_object?new_layer=false&objects=r14165721", "id_url": "https://www.openstreetmap.org/edit?editor=id&relation=14165721#map=20/59.913076000000004/10.73217211156729"}}, {"type": "Feature", "geometry": {"type": "Point", "coordinates": [10.733535724119358, 59.91371565]}, "properties": {"id": 1062352496, "feat_type": "way", "quality_categories": "improper_geometries, missing_tags", "issue_ids": "[0, 1]", "osm_url": "https://www.openstreetmap.org/way/1062352496", "josm_url": "http://127.0.0.1:8111/load_object?new_layer=false&objects=w1062352496", "id_url": "https://www.openstreetmap.org/edit?editor=id&way=1062352496#map=20/59.91371565/10.733535724119358"}}, {"type": "Feature", "geometry": {"type": "Point", "coordinates": [10.731400477745217, 59.914352199999996]}, "properties": {"id": 1062360195, "feat_type": "way", "quality_categories": "improper_geometries, missing_tags", "issue_ids": "[0, 1]", "osm_url": "https://www.openstreetmap.org/way/1062360195", "josm_url": "http://127.0.0.1:8111/load_object?new_layer=false&objects=w1062360195", "id_url": "https://www.openstreetmap.org/edit?editor=id&way=1062360195#map=20/59.914352199999996/10.731400477745217"}}, {"type": "Feature", "geometry": {"type": "Point", "coordinates": [10.730537621717662, 59.914529599999995]}, "properties": {"id": 1062360200, "feat_type": "way", "quality_categories": "improper_geometries, missing_tags", "issue_ids": "[0, 1]", "osm_url": "https://www.openstreetmap.org/way/1062360200", "josm_url": "http://127.0.0.1:8111/load_object?new_layer=false&objects=w1062360200", "id_url": "https://www.openstreetmap.org/edit?editor=id&way=1062360200#map=20/59.914529599999995/10.730537621717662"}}, {"type": "Feature", "geometry": {"type": "Point", "coordinates": [10.736383389120965, 59.913124550000006]}, "properties": {"id": 1062638224, "feat_type": "way", "quality_categories": "improper_geometries, missing_tags", "issue_ids": "[0, 1]", "osm_url": "https://www.openstreetmap.org/way/1062638224", "josm_url": "http://127.0.0.1:8111/load_object?new_layer=false&objects=w1062638224", "id_url": "https://www.openstreetmap.org/edit?editor=id&way=1062638224#map=20/59.913124550000006/10.736383389120965"}}, {"type": "Feature", "geometry": {"type": "Point", "coordinates": [10.736186129972811, 59.913534049999996]}, "properties": {"id": 1149899085, "feat_type": "way", "quality_categories": "improper_geometries, missing_tags", "issue_ids": "[0, 1]", "osm_url": "https://www.openstreetmap.org/way/1149899085", "josm_url": "http://127.0.0.1:8111/load_object?new_layer=false&objects=w1149899085", "id_url": "https://www.openstreetmap.org/edit?editor=id&way=1149899085#map=20/59.913534049999996/10.736186129972811"}}, {"type": "Feature", "geometry": {"type": "Point", "coordinates": [10.732009291666662, 59.9148335]}, "properties": {"id": 1149900071, "feat_type": "way", "quality_categories": "improper_geometries, missing_tags", "issue_ids": "[0, 1]", "osm_url": "https://www.openstreetmap.org/way/1149900071", "josm_url": "http://127.0.0.1:8111/load_object?new_layer=false&objects=w1149900071", "id_url": "https://www.openstreetmap.org/edit?editor=id&way=1149900071#map=20/59.9148335/10.732009291666662"}}, {"type": "Feature", "geometry": {"type": "Point", "coordinates": [10.727271268256859, 59.9121763]}, "properties": {"id": 1149908251, "feat_type": "way", "quality_categories": "improper_geometries, missing_tags", "issue_ids": "[0, 1]", "osm_url": "https://www.openstreetmap.org/way/1149908251", "josm_url": "http://127.0.0.1:8111/load_object?new_layer=false&objects=w1149908251", "id_url": "https://www.openstreetmap.org/edit?editor=id&way=1149908251#map=20/59.9121763/10.727271268256859"}}, {"type": "Feature", "geometry": {"type": "Point", "coordinates": [10.73297363473684, 59.9155058]}, "properties": {"id": 1150161345, "feat_type": "way", "quality_categories": "improper_geometries, missing_tags", "issue_ids": "[0, 1]", "osm_url": "https://www.openstreetmap.org/way/1150161345", "josm_url": "http://127.0.0.1:8111/load_object?new_layer=false&objects=w1150161345", "id_url": "https://www.openstreetmap.org/edit?editor=id&way=1150161345#map=20/59.9155058/10.73297363473684"}}, {"type": "Feature", "geometry": {"type": "Point", "coordinates": [10.734389381298957, 59.91175225]}, "properties": {"id": 14169272, "feat_type": "relation", "quality_categories": "improper_geometries", "issue_ids": "[1]", "osm_url": "https://www.openstreetmap.org/relation/14169272", "josm_url": "http://127.0.0.1:8111/load_object?new_layer=false&objects=r14169272", "id_url": "https://www.openstreetmap.org/edit?editor=id&relation=14169272#map=20/59.91175225/10.734389381298957"}}, {"type": "Feature", "geometry": {"type": "Point", "coordinates": [10.74812400443151, 59.915013]}, "properties": {"id": 949171985, "feat_type": "way", "quality_categories": "improper_geometries", "issue_ids": "[1]", "osm_url": "https://www.openstreetmap.org/way/949171985", "josm_url": "http://127.0.0.1:8111/load_object?new_layer=false&objects=w949171985", "id_url": "https://www.openstreetmap.org/edit?editor=id&way=949171985#map=20/59.915013/10.74812400443151"}}, {"type": "Feature", "geometry": {"type": "Point", "coordinates": [10.74782561222645, 59.91189465]}, "properties": {"id": 949865939, "feat_type": "way", "quality_categories": "improper_geometries", "issue_ids": "[1]", "osm_url": "https://www.openstreetmap.org/way/949865939", "josm_url": "http://127.0.0.1:8111/load_object?new_layer=false&objects=w949865939", "id_url": "https://www.openstreetmap.org/edit?editor=id&way=949865939#map=20/59.91189465/10.74782561222645"}}, {"type": "Feature", "geometry": {"type": "Point", "coordinates": [10.748010799168974, 59.9122961]}, "properties": {"id": 949865940, "feat_type": "way", "quality_categories": "improper_geometries", "issue_ids": "[1]", "osm_url": "https://www.openstreetmap.org/way/949865940", "josm_url": "http://127.0.0.1:8111/load_object?new_layer=false&objects=w949865940", "id_url": "https://www.openstreetmap.org/edit?editor=id&way=949865940#map=20/59.9122961/10.748010799168974"}}, {"type": "Feature", "geometry": {"type": "Point", "coordinates": [10.745445020679618, 59.9124244]}, "properties": {"id": 949865945, "feat_type": "way", "quality_categories": "improper_geometries", "issue_ids": "[1]", "osm_url": "https://www.openstreetmap.org/way/949865945", "josm_url": "http://127.0.0.1:8111/load_object?new_layer=false&objects=w949865945", "id_url": "https://www.openstreetmap.org/edit?editor=id&way=949865945#map=20/59.9124244/10.745445020679618"}}, {"type": "Feature", "geometry": {"type": "Point", "coordinates": [10.73395581771047, 59.9116083]}, "properties": {"id": 950092207, "feat_type": "way", "quality_categories": "improper_geometries", "issue_ids": "[1]", "osm_url": "https://www.openstreetmap.org/way/950092207", "josm_url": "http://127.0.0.1:8111/load_object?new_layer=false&objects=w950092207", "id_url": "https://www.openstreetmap.org/edit?editor=id&way=950092207#map=20/59.9116083/10.73395581771047"}}, {"type": "Feature", "geometry": {"type": "Point", "coordinates": [10.745374956992709, 59.91309905]}, "properties": {"id": 950163162, "feat_type": "way", "quality_categories": "improper_geometries", "issue_ids": "[1]", "osm_url": "https://www.openstreetmap.org/way/950163162", "josm_url": "http://127.0.0.1:8111/load_object?new_layer=false&objects=w950163162", "id_url": "https://www.openstreetmap.org/edit?editor=id&way=950163162#map=20/59.91309905/10.745374956992709"}}, {"type": "Feature", "geometry": {"type": "Point", "coordinates": [10.747139476954091, 59.91301115]}, "properties": {"id": 950163163, "feat_type": "way", "quality_categories": "improper_geometries", "issue_ids": "[1]", "osm_url": "https://www.openstreetmap.org/way/950163163", "josm_url": "http://127.0.0.1:8111/load_object?new_layer=false&objects=w950163163", "id_url": "https://www.openstreetmap.org/edit?editor=id&way=950163163#map=20/59.91301115/10.747139476954091"}}, {"type": "Feature", "geometry": {"type": "Point", "coordinates": [10.744490122317742, 59.91295125]}, "properties": {"id": 969644821, "feat_type": "way", "quality_categories": "improper_geometries", "issue_ids": "[1]", "osm_url": "https://www.openstreetmap.org/way/969644821", "josm_url": "http://127.0.0.1:8111/load_object?new_layer=false&objects=w969644821", "id_url": "https://www.openstreetmap.org/edit?editor=id&way=969644821#map=20/59.91295125/10.744490122317742"}}, {"type": "Feature", "geometry": {"type": "Point", "coordinates": [10.743603736880381, 59.9136509]}, "properties": {"id": 969644822, "feat_type": "way", "quality_categories": "improper_geometries", "issue_ids": "[1]", "osm_url": "https://www.openstreetmap.org/way/969644822", "josm_url": "http://127.0.0.1:8111/load_object?new_layer=false&objects=w969644822", "id_url": "https://www.openstreetmap.org/edit?editor=id&way=969644822#map=20/59.9136509/10.743603736880381"}}, {"type": "Feature", "geometry": {"type": "Point", "coordinates": [10.7429093732893, 59.91388395]}, "properties": {"id": 969644823, "feat_type": "way", "quality_categories": "improper_geometries", "issue_ids": "[1]", "osm_url": "https://www.openstreetmap.org/way/969644823", "josm_url": "http://127.0.0.1:8111/load_object?new_layer=false&objects=w969644823", "id_url": "https://www.openstreetmap.org/edit?editor=id&way=969644823#map=20/59.91388395/10.7429093732893"}}, {"type": "Feature", "geometry": {"type": "Point", "coordinates": [10.74193160122141, 59.91418495]}, "properties": {"id": 969644824, "feat_type": "way", "quality_categories": "improper_geometries", "issue_ids": "[1]", "osm_url": "https://www.openstreetmap.org/way/969644824", "josm_url": "http://127.0.0.1:8111/load_object?new_layer=false&objects=w969644824", "id_url": "https://www.openstreetmap.org/edit?editor=id&way=969644824#map=20/59.91418495/10.74193160122141"}}, {"type": "Feature", "geometry": {"type": "Point", "coordinates": [10.750619098939797, 59.913285450000004]}, "properties": {"id": 971954104, "feat_type": "way", "quality_categories": "improper_geometries", "issue_ids": "[1]", "osm_url": "https://www.openstreetmap.org/way/971954104", "josm_url": "http://127.0.0.1:8111/load_object?new_layer=false&objects=w971954104", "id_url": "https://www.openstreetmap.org/edit?editor=id&way=971954104#map=20/59.913285450000004/10.750619098939797"}}, {"type": "Feature", "geometry": {"type": "Point", "coordinates": [10.740020746488407, 59.91337815]}, "properties": {"id": 976774127, "feat_type": "way", "quality_categories": "improper_geometries", "issue_ids": "[1]", "osm_url": "https://www.openstreetmap.org/way/976774127", "josm_url": "http://127.0.0.1:8111/load_object?new_layer=false&objects=w976774127", "id_url": "https://www.openstreetmap.org/edit?editor=id&way=976774127#map=20/59.91337815/10.740020746488407"}}, {"type": "Feature", "geometry": {"type": "Point", "coordinates": [10.733925630489725, 59.916256399999995]}, "properties": {"id": 1061770446, "feat_type": "way", "quality_categories": "improper_geometries", "issue_ids": "[1]", "osm_url": "https://www.openstreetmap.org/way/1061770446", "josm_url": "http://127.0.0.1:8111/load_object?new_layer=false&objects=w1061770446", "id_url": "https://www.openstreetmap.org/edit?editor=id&way=1061770446#map=20/59.916256399999995/10.733925630489725"}}, {"type": "Feature", "geometry": {"type": "Point", "coordinates": [10.732823299897426, 59.91698815]}, "properties": {"id": 1061770447, "feat_type": "way", "quality_categories": "improper_geometries", "issue_ids": "[1]", "osm_url": "https://www.openstreetmap.org/way/1061770447", "josm_url": "http://127.0.0.1:8111/load_object?new_layer=false&objects=w1061770447", "id_url": "https://www.openstreetmap.org/edit?editor=id&way=1061770447#map=20/59.91698815/10.732823299897426"}}, {"type": "Feature", "geometry": {"type": "Point", "coordinates": [10.731838232229286, 59.91764235]}, "properties": {"id": 1061770448, "feat_type": "way", "quality_categories": "improper_geometries", "issue_ids": "[1]", "osm_url": "https://www.openstreetmap.org/way/1061770448", "josm_url": "http://127.0.0.1:8111/load_object?new_layer=false&objects=w1061770448", "id_url": "https://www.openstreetmap.org/edit?editor=id&way=1061770448#map=20/59.91764235/10.731838232229286"}}, {"type": "Feature", "geometry": {"type": "Point", "coordinates": [10.731545175778127, 59.918536700000004]}, "properties": {"id": 1061773563, "feat_type": "way", "quality_categories": "improper_geometries", "issue_ids": "[1]", "osm_url": "https://www.openstreetmap.org/way/1061773563", "josm_url": "http://127.0.0.1:8111/load_object?new_layer=false&objects=w1061773563", "id_url": "https://www.openstreetmap.org/edit?editor=id&way=1061773563#map=20/59.918536700000004/10.731545175778127"}}, {"type": "Feature", "geometry": {"type": "Point", "coordinates": [10.725790193970134, 59.918833649999996]}, "properties": {"id": 1061773565, "feat_type": "way", "quality_categories": "improper_geometries", "issue_ids": "[1]", "osm_url": "https://www.openstreetmap.org/way/1061773565", "josm_url": "http://127.0.0.1:8111/load_object?new_layer=false&objects=w1061773565", "id_url": "https://www.openstreetmap.org/edit?editor=id&way=1061773565#map=20/59.918833649999996/10.725790193970134"}}, {"type": "Feature", "geometry": {"type": "Point", "coordinates": [10.722988115217397, 59.91675975]}, "properties": {"id": 1061775709, "feat_type": "way", "quality_categories": "improper_geometries", "issue_ids": "[1]", "osm_url": "https://www.openstreetmap.org/way/1061775709", "josm_url": "http://127.0.0.1:8111/load_object?new_layer=false&objects=w1061775709", "id_url": "https://www.openstreetmap.org/edit?editor=id&way=1061775709#map=20/59.91675975/10.722988115217397"}}, {"type": "Feature", "geometry": {"type": "Point", "coordinates": [10.727392692878752, 59.9153797]}, "properties": {"id": 1061779745, "feat_type": "way", "quality_categories": "improper_geometries", "issue_ids": "[1]", "osm_url": "https://www.openstreetmap.org/way/1061779745", "josm_url": "http://127.0.0.1:8111/load_object?new_layer=false&objects=w1061779745", "id_url": "https://www.openstreetmap.org/edit?editor=id&way=1061779745#map=20/59.9153797/10.727392692878752"}}, {"type": "Feature", "geometry": {"type": "Point", "coordinates": [10.732676526245097, 59.91532385]}, "properties": {"id": 1061779747, "feat_type": "way", "quality_categories": "improper_geometries", "issue_ids": "[1]", "osm_url": "https://www.openstreetmap.org/way/1061779747", "josm_url": "http://127.0.0.1:8111/load_object?new_layer=false&objects=w1061779747", "id_url": "https://www.openstreetmap.org/edit?editor=id&way=1061779747#map=20/59.91532385/10.732676526245097"}}, {"type": "Feature", "geometry": {"type": "Point", "coordinates": [10.727648612331947, 59.91137475]}, "properties": {"id": 1062011067, "feat_type": "way", "quality_categories": "improper_geometries", "issue_ids": "[1]", "osm_url": "https://www.openstreetmap.org/way/1062011067", "josm_url": "http://127.0.0.1:8111/load_object?new_layer=false&objects=w1062011067", "id_url": "https://www.openstreetmap.org/edit?editor=id&way=1062011067#map=20/59.91137475/10.727648612331947"}}, {"type": "Feature", "geometry": {"type": "Point", "coordinates": [10.733223995631501, 59.91254155]}, "properties": {"id": 1062165579, "feat_type": "way", "quality_categories": "improper_geometries", "issue_ids": "[1]", "osm_url": "https://www.openstreetmap.org/way/1062165579", "josm_url": "http://127.0.0.1:8111/load_object?new_layer=false&objects=w1062165579", "id_url": "https://www.openstreetmap.org/edit?editor=id&way=1062165579#map=20/59.91254155/10.733223995631501"}}, {"type": "Feature", "geometry": {"type": "Point", "coordinates": [10.733253111024773, 59.9147259]}, "properties": {"id": 1062188668, "feat_type": "way", "quality_categories": "improper_geometries", "issue_ids": "[1]", "osm_url": "https://www.openstreetmap.org/way/1062188668", "josm_url": "http://127.0.0.1:8111/load_object?new_layer=false&objects=w1062188668", "id_url": "https://www.openstreetmap.org/edit?editor=id&way=1062188668#map=20/59.9147259/10.733253111024773"}}, {"type": "Feature", "geometry": {"type": "Point", "coordinates": [10.732578257411934, 59.9131515]}, "properties": {"id": 1062304490, "feat_type": "way", "quality_categories": "improper_geometries", "issue_ids": "[1]", "osm_url": "https://www.openstreetmap.org/way/1062304490", "josm_url": "http://127.0.0.1:8111/load_object?new_layer=false&objects=w1062304490", "id_url": "https://www.openstreetmap.org/edit?editor=id&way=1062304490#map=20/59.9131515/10.732578257411934"}}, {"type": "Feature", "geometry": {"type": "Point", "coordinates": [10.734159613036564, 59.914028]}, "properties": {"id": 1062352495, "feat_type": "way", "quality_categories": "improper_geometries", "issue_ids": "[1]", "osm_url": "https://www.openstreetmap.org/way/1062352495", "josm_url": "http://127.0.0.1:8111/load_object?new_layer=false&objects=w1062352495", "id_url": "https://www.openstreetmap.org/edit?editor=id&way=1062352495#map=20/59.914028/10.734159613036564"}}, {"type": "Feature", "geometry": {"type": "Point", "coordinates": [10.731040653421058, 59.914028]}, "properties": {"id": 1062352497, "feat_type": "way", "quality_categories": "improper_geometries", "issue_ids": "[1]", "osm_url": "https://www.openstreetmap.org/way/1062352497", "josm_url": "http://127.0.0.1:8111/load_object?new_layer=false&objects=w1062352497", "id_url": "https://www.openstreetmap.org/edit?editor=id&way=1062352497#map=20/59.914028/10.731040653421058"}}, {"type": "Feature", "geometry": {"type": "Point", "coordinates": [10.731133246019366, 59.912972499999995]}, "properties": {"id": 1062365617, "feat_type": "way", "quality_categories": "improper_geometries", "issue_ids": "[1]", "osm_url": "https://www.openstreetmap.org/way/1062365617", "josm_url": "http://127.0.0.1:8111/load_object?new_layer=false&objects=w1062365617", "id_url": "https://www.openstreetmap.org/edit?editor=id&way=1062365617#map=20/59.912972499999995/10.731133246019366"}}, {"type": "Feature", "geometry": {"type": "Point", "coordinates": [10.730051740716165, 59.91244075]}, "properties": {"id": 1062365620, "feat_type": "way", "quality_categories": "improper_geometries", "issue_ids": "[1]", "osm_url": "https://www.openstreetmap.org/way/1062365620", "josm_url": "http://127.0.0.1:8111/load_object?new_layer=false&objects=w1062365620", "id_url": "https://www.openstreetmap.org/edit?editor=id&way=1062365620#map=20/59.91244075/10.730051740716165"}}, {"type": "Feature", "geometry": {"type": "Point", "coordinates": [10.73557274542645, 59.912352]}, "properties": {"id": 1062636145, "feat_type": "way", "quality_categories": "improper_geometries", "issue_ids": "[1]", "osm_url": "https://www.openstreetmap.org/way/1062636145", "josm_url": "http://127.0.0.1:8111/load_object?new_layer=false&objects=w1062636145", "id_url": "https://www.openstreetmap.org/edit?editor=id&way=1062636145#map=20/59.912352/10.73557274542645"}}, {"type": "Feature", "geometry": {"type": "Point", "coordinates": [10.738529139802843, 59.913445749999994]}, "properties": {"id": 1149892690, "feat_type": "way", "quality_categories": "improper_geometries", "issue_ids": "[1]", "osm_url": "https://www.openstreetmap.org/way/1149892690", "josm_url": "http://127.0.0.1:8111/load_object?new_layer=false&objects=w1149892690", "id_url": "https://www.openstreetmap.org/edit?editor=id&way=1149892690#map=20/59.913445749999994/10.738529139802843"}}, {"type": "Feature", "geometry": {"type": "Point", "coordinates": [10.73830169457337, 59.913199750000004]}, "properties": {"id": 1149892695, "feat_type": "way", "quality_categories": "improper_geometries", "issue_ids": "[1]", "osm_url": "https://www.openstreetmap.org/way/1149892695", "josm_url": "http://127.0.0.1:8111/load_object?new_layer=false&objects=w1149892695", "id_url": "https://www.openstreetmap.org/edit?editor=id&way=1149892695#map=20/59.913199750000004/10.73830169457337"}}, {"type": "Feature", "geometry": {"type": "Point", "coordinates": [10.727878945520246, 59.9118854]}, "properties": {"id": 1149908248, "feat_type": "way", "quality_categories": "improper_geometries", "issue_ids": "[1]", "osm_url": "https://www.openstreetmap.org/way/1149908248", "josm_url": "http://127.0.0.1:8111/load_object?new_layer=false&objects=w1149908248", "id_url": "https://www.openstreetmap.org/edit?editor=id&way=1149908248#map=20/59.9118854/10.727878945520246"}}, {"type": "Feature", "geometry": {"type": "Point", "coordinates": [10.726464326025496, 59.911667699999995]}, "properties": {"id": 1149918342, "feat_type": "way", "quality_categories": "improper_geometries", "issue_ids": "[1]", "osm_url": "https://www.openstreetmap.org/way/1149918342", "josm_url": "http://127.0.0.1:8111/load_object?new_layer=false&objects=w1149918342", "id_url": "https://www.openstreetmap.org/edit?editor=id&way=1149918342#map=20/59.911667699999995/10.726464326025496"}}, {"type": "Feature", "geometry": {"type": "Point", "coordinates": [10.727892304138443, 59.91107195]}, "properties": {"id": 1149918349, "feat_type": "way", "quality_categories": "improper_geometries", "issue_ids": "[1]", "osm_url": "https://www.openstreetmap.org/way/1149918349", "josm_url": "http://127.0.0.1:8111/load_object?new_layer=false&objects=w1149918349", "id_url": "https://www.openstreetmap.org/edit?editor=id&way=1149918349#map=20/59.91107195/10.727892304138443"}}, {"type": "Feature", "geometry": {"type": "Point", "coordinates": [10.72723436902147, 59.9113739]}, "properties": {"id": 1149918352, "feat_type": "way", "quality_categories": "improper_geometries", "issue_ids": "[1]", "osm_url": "https://www.openstreetmap.org/way/1149918352", "josm_url": "http://127.0.0.1:8111/load_object?new_layer=false&objects=w1149918352", "id_url": "https://www.openstreetmap.org/edit?editor=id&way=1149918352#map=20/59.9113739/10.72723436902147"}}, {"type": "Feature", "geometry": {"type": "Point", "coordinates": [10.738911892320337, 59.91032505]}, "properties": {"id": 1149925873, "feat_type": "way", "quality_categories": "improper_geometries", "issue_ids": "[1]", "osm_url": "https://www.openstreetmap.org/way/1149925873", "josm_url": "http://127.0.0.1:8111/load_object?new_layer=false&objects=w1149925873", "id_url": "https://www.openstreetmap.org/edit?editor=id&way=1149925873#map=20/59.91032505/10.738911892320337"}}, {"type": "Feature", "geometry": {"type": "Point", "coordinates": [10.734146902615915, 59.9118392]}, "properties": {"id": 1149948881, "feat_type": "way", "quality_categories": "improper_geometries", "issue_ids": "[1]", "osm_url": "https://www.openstreetmap.org/way/1149948881", "josm_url": "http://127.0.0.1:8111/load_object?new_layer=false&objects=w1149948881", "id_url": "https://www.openstreetmap.org/edit?editor=id&way=1149948881#map=20/59.9118392/10.734146902615915"}}, {"type": "Feature", "geometry": {"type": "Point", "coordinates": [10.732211093671237, 59.91228045]}, "properties": {"id": 1149948882, "feat_type": "way", "quality_categories": "improper_geometries", "issue_ids": "[1]", "osm_url": "https://www.openstreetmap.org/way/1149948882", "josm_url": "http://127.0.0.1:8111/load_object?new_layer=false&objects=w1149948882", "id_url": "https://www.openstreetmap.org/edit?editor=id&way=1149948882#map=20/59.91228045/10.732211093671237"}}, {"type": "Feature", "geometry": {"type": "Point", "coordinates": [10.731917037489112, 59.91225455]}, "properties": {"id": 1149948883, "feat_type": "way", "quality_categories": "improper_geometries", "issue_ids": "[1]", "osm_url": "https://www.openstreetmap.org/way/1149948883", "josm_url": "http://127.0.0.1:8111/load_object?new_layer=false&objects=w1149948883", "id_url": "https://www.openstreetmap.org/edit?editor=id&way=1149948883#map=20/59.91225455/10.731917037489112"}}, {"type": "Feature", "geometry": {"type": "Point", "coordinates": [10.73169165978284, 59.9123552]}, "properties": {"id": 1149948884, "feat_type": "way", "quality_categories": "improper_geometries", "issue_ids": "[1]", "osm_url": "https://www.openstreetmap.org/way/1149948884", "josm_url": "http://127.0.0.1:8111/load_object?new_layer=false&objects=w1149948884", "id_url": "https://www.openstreetmap.org/edit?editor=id&way=1149948884#map=20/59.9123552/10.73169165978284"}}, {"type": "Feature", "geometry": {"type": "Point", "coordinates": [10.73295320465759, 59.9126883]}, "properties": {"id": 1149948885, "feat_type": "way", "quality_categories": "improper_geometries", "issue_ids": "[1]", "osm_url": "https://www.openstreetmap.org/way/1149948885", "josm_url": "http://127.0.0.1:8111/load_object?new_layer=false&objects=w1149948885", "id_url": "https://www.openstreetmap.org/edit?editor=id&way=1149948885#map=20/59.9126883/10.73295320465759"}}, {"type": "Feature", "geometry": {"type": "Point", "coordinates": [10.73162090244878, 59.91241245]}, "properties": {"id": 1149948887, "feat_type": "way", "quality_categories": "improper_geometries", "issue_ids": "[1]", "osm_url": "https://www.openstreetmap.org/way/1149948887", "josm_url": "http://127.0.0.1:8111/load_object?new_layer=false&objects=w1149948887", "id_url": "https://www.openstreetmap.org/edit?editor=id&way=1149948887#map=20/59.91241245/10.73162090244878"}}, {"type": "Feature", "geometry": {"type": "Point", "coordinates": [10.732515487221228, 59.9146328]}, "properties": {"id": 1150009047, "feat_type": "way", "quality_categories": "improper_geometries", "issue_ids": "[1]", "osm_url": "https://www.openstreetmap.org/way/1150009047", "josm_url": "http://127.0.0.1:8111/load_object?new_layer=false&objects=w1150009047", "id_url": "https://www.openstreetmap.org/edit?editor=id&way=1150009047#map=20/59.9146328/10.732515487221228"}}, {"type": "Feature", "geometry": {"type": "Point", "coordinates": [10.722829857755478, 59.91542955]}, "properties": {"id": 1150161338, "feat_type": "way", "quality_categories": "improper_geometries", "issue_ids": "[1]", "osm_url": "https://www.openstreetmap.org/way/1150161338", "josm_url": "http://127.0.0.1:8111/load_object?new_layer=false&objects=w1150161338", "id_url": "https://www.openstreetmap.org/edit?editor=id&way=1150161338#map=20/59.91542955/10.722829857755478"}}, {"type": "Feature", "geometry": {"type": "Point", "coordinates": [10.735701052948032, 59.9138543]}, "properties": {"id": 1150195636, "feat_type": "way", "quality_categories": "improper_geometries", "issue_ids": "[1]", "osm_url": "https://www.openstreetmap.org/way/1150195636", "josm_url": "http://127.0.0.1:8111/load_object?new_layer=false&objects=w1150195636", "id_url": "https://www.openstreetmap.org/edit?editor=id&way=1150195636#map=20/59.9138543/10.735701052948032"}}, {"type": "Feature", "geometry": {"type": "Point", "coordinates": [10.736811577653643, 59.9135122]}, "properties": {"id": 1150195637, "feat_type": "way", "quality_categories": "improper_geometries", "issue_ids": "[1]", "osm_url": "https://www.openstreetmap.org/way/1150195637", "josm_url": "http://127.0.0.1:8111/load_object?new_layer=false&objects=w1150195637", "id_url": "https://www.openstreetmap.org/edit?editor=id&way=1150195637#map=20/59.9135122/10.736811577653643"}}]}