{"type": "FeatureCollection", "features": [{"type": "Feature", "geometry": {"type": "Point", "coordinates": [10.7674402, 59.9021045]}, "properties": {"id": 108257206, "feat_type": "way", "quality_categories": "older_than_five_years, uncanny_keys", "issue_ids": "[0, 1]", "osm_url": "https://www.openstreetmap.org/way/108257206", "josm_url": "http://127.0.0.1:8111/load_object?new_layer=false&objects=w108257206", "id_url": "https://www.openstreetmap.org/edit?editor=id&way=108257206#map=20/59.9021045/10.7674402"}}, {"type": "Feature", "geometry": {"type": "Point", "coordinates": [10.7793142, 59.9457054]}, "properties": {"id": 311606471, "feat_type": "way", "quality_categories": "uncanny_keys", "issue_ids": "[2]", "osm_url": "https://www.openstreetmap.org/way/311606471", "josm_url": "http://127.0.0.1:8111/load_object?new_layer=false&objects=w311606471", "id_url": "https://www.openstreetmap.org/edit?editor=id&way=311606471#map=20/59.9457054/10.7793142"}}, {"type": "Feature", "geometry": {"type": "Point", "coordinates": [10.6367888, 59.9183439]}, "properties": {"id": 312668119, "feat_type": "way", "quality_categories": "uncanny_keys", "issue_ids": "[3]", "osm_url": "https://www.openstreetmap.org/way/312668119", "josm_url": "http://127.0.0.1:8111/load_object?new_layer=false&objects=w312668119", "id_url": "https://www.openstreetmap.org/edit?editor=id&way=312668119#map=20/59.9183439/10.6367888"}}, {"type": "Feature", "geometry": {"type": "Point", "coordinates": [10.6404821, 59.9143934]}, "properties": {"id": 312808877, "feat_type": "way", "quality_categories": "uncanny_keys", "issue_ids": "[4]", "osm_url": "https://www.openstreetmap.org/way/312808877", "josm_url": "http://127.0.0.1:8111/load_object?new_layer=false&objects=w312808877", "id_url": "https://www.openstreetmap.org/edit?editor=id&way=312808877#map=20/59.9143934/10.6404821"}}, {"type": "Feature", "geometry": {"type": "Point", "coordinates": [10.9278534, 59.9754066]}, "properties": {"id": 376882433, "feat_type": "way", "quality_categories": "uncanny_keys", "issue_ids": "[5]", "osm_url": "https://www.openstreetmap.org/way/376882433", "josm_url": "http://127.0.0.1:8111/load_object?new_layer=false&objects=w376882433", "id_url": "https://www.openstreetmap.org/edit?editor=id&way=376882433#map=20/59.9754066/10.9278534"}}, {"type": "Feature", "geometry": {"type": "Point", "coordinates": [10.9277885, 59.9752654]}, "properties": {"id": 376882434, "feat_type": "way", "quality_categories": "uncanny_keys", "issue_ids": "[5]", "osm_url": "https://www.openstreetmap.org/way/376882434", "josm_url": "http://127.0.0.1:8111/load_object?new_layer=false&objects=w376882434", "id_url": "https://www.openstreetmap.org/edit?editor=id&way=376882434#map=20/59.9752654/10.9277885"}}, {"type": "Feature", "geometry": {"type": "Point", "coordinates": [10.9275688, 59.9755051]}, "properties": {"id": 376882437, "feat_type": "way", "quality_categories": "uncanny_keys", "issue_ids": "[5]", "osm_url": "https://www.openstreetmap.org/way/376882437", "josm_url": "http://127.0.0.1:8111/load_object?new_layer=false&objects=w376882437", "id_url": "https://www.openstreetmap.org/edit?editor=id&way=376882437#map=20/59.9755051/10.9275688"}}, {"type": "Feature", "geometry": {"type": "Point", "coordinates": [10.9277183, 59.9755377]}, "properties": {"id": 376882439, "feat_type": "way", "quality_categories": "uncanny_keys", "issue_ids": "[5]", "osm_url": "https://www.openstreetmap.org/way/376882439", "josm_url": "http://127.0.0.1:8111/load_object?new_layer=false&objects=w376882439", "id_url": "https://www.openstreetmap.org/edit?editor=id&way=376882439#map=20/59.9755377/10.9277183"}}, {"type": "Feature", "geometry": {"type": "Point", "coordinates": [10.7611725, 59.9076476]}, "properties": {"id": 546181486, "feat_type": "way", "quality_categories": "uncanny_keys", "issue_ids": "[6]", "osm_url": "https://www.openstreetmap.org/way/546181486", "josm_url": "http://127.0.0.1:8111/load_object?new_layer=false&objects=w546181486", "id_url": "https://www.openstreetmap.org/edit?editor=id&way=546181486#map=20/59.9076476/10.7611725"}}, {"type": "Feature", "geometry": {"type": "Point", "coordinates": [10.7610211, 59.9077303]}, "properties": {"id": 729482705, "feat_type": "way", "quality_categories": "uncanny_keys", "issue_ids": "[6]", "osm_url": "https://www.openstreetmap.org/way/729482705", "josm_url": "http://127.0.0.1:8111/load_object?new_layer=false&objects=w729482705", "id_url": "https://www.openstreetmap.org/edit?editor=id&way=729482705#map=20/59.9077303/10.7610211"}}, {"type": "Feature", "geometry": {"type": "Point", "coordinates": [10.7377895, 59.9172504]}, "properties": {"id": 1058191591, "feat_type": "way", "quality_categories": "uncanny_keys", "issue_ids": "[7]", "osm_url": "https://www.openstreetmap.org/way/1058191591", "josm_url": "http://127.0.0.1:8111/load_object?new_layer=false&objects=w1058191591", "id_url": "https://www.openstreetmap.org/edit?editor=id&way=1058191591#map=20/59.9172504/10.7377895"}}, {"type": "Feature", "geometry": {"type": "Point", "coordinates": [10.7386909, 59.9168244]}, "properties": {"id": 1058281947, "feat_type": "way", "quality_categories": "uncanny_keys", "issue_ids": "[7]", "osm_url": "https://www.openstreetmap.org/way/1058281947", "josm_url": "http://127.0.0.1:8111/load_object?new_layer=false&objects=w1058281947", "id_url": "https://www.openstreetmap.org/edit?editor=id&way=1058281947#map=20/59.9168244/10.7386909"}}, {"type": "Feature", "geometry": {"type": "Point", "coordinates": [10.7380039, 59.9171306]}, "properties": {"id": 1058284812, "feat_type": "way", "quality_categories": "missing_tags, uncanny_keys", "issue_ids": "[7, 8]", "osm_url": "https://www.openstreetmap.org/way/1058284812", "josm_url": "http://127.0.0.1:8111/load_object?new_layer=false&objects=w1058284812", "id_url": "https://www.openstreetmap.org/edit?editor=id&way=1058284812#map=20/59.9171306/10.7380039"}}, {"type": "Feature", "geometry": {"type": "Point", "coordinates": [10.7382796, 59.9169426]}, "properties": {"id": 1058284814, "feat_type": "way", "quality_categories": "uncanny_keys", "issue_ids": "[7]", "osm_url": "https://www.openstreetmap.org/way/1058284814", "josm_url": "http://127.0.0.1:8111/load_object?new_layer=false&objects=w1058284814", "id_url": "https://www.openstreetmap.org/edit?editor=id&way=1058284814#map=20/59.9169426/10.7382796"}}, {"type": "Feature", "geometry": {"type": "Point", "coordinates": [10.7380911, 59.9171036]}, "properties": {"id": 1058284816, "feat_type": "way", "quality_categories": "uncanny_keys", "issue_ids": "[7]", "osm_url": "https://www.openstreetmap.org/way/1058284816", "josm_url": "http://127.0.0.1:8111/load_object?new_layer=false&objects=w1058284816", "id_url": "https://www.openstreetmap.org/edit?editor=id&way=1058284816#map=20/59.9171036/10.7380911"}}, {"type": "Feature", "geometry": {"type": "Point", "coordinates": [10.7383111, 59.9174196]}, "properties": {"id": 1058323614, "feat_type": "way", "quality_categories": "uncanny_keys", "issue_ids": "[7]", "osm_url": "https://www.openstreetmap.org/way/1058323614", "josm_url": "http://127.0.0.1:8111/load_object?new_layer=false&objects=w1058323614", "id_url": "https://www.openstreetmap.org/edit?editor=id&way=1058323614#map=20/59.9174196/10.7383111"}}, {"type": "Feature", "geometry": {"type": "Point", "coordinates": [10.7375828, 59.9172234]}, "properties": {"id": 1058323617, "feat_type": "way", "quality_categories": "uncanny_keys", "issue_ids": "[7]", "osm_url": "https://www.openstreetmap.org/way/1058323617", "josm_url": "http://127.0.0.1:8111/load_object?new_layer=false&objects=w1058323617", "id_url": "https://www.openstreetmap.org/edit?editor=id&way=1058323617#map=20/59.9172234/10.7375828"}}, {"type": "Feature", "geometry": {"type": "Point", "coordinates": [10.7380172, 59.9172725]}, "properties": {"id": 1058323623, "feat_type": "way", "quality_categories": "uncanny_keys", "issue_ids": "[7]", "osm_url": "https://www.openstreetmap.org/way/1058323623", "josm_url": "http://127.0.0.1:8111/load_object?new_layer=false&objects=w1058323623", "id_url": "https://www.openstreetmap.org/edit?editor=id&way=1058323623#map=20/59.9172725/10.7380172"}}, {"type": "Feature", "geometry": {"type": "Point", "coordinates": [10.738101, 59.9172491]}, "properties": {"id": 1058388858, "feat_type": "way", "quality_categories": "uncanny_keys", "issue_ids": "[7]", "osm_url": "https://www.openstreetmap.org/way/1058388858", "josm_url": "http://127.0.0.1:8111/load_object?new_layer=false&objects=w1058388858", "id_url": "https://www.openstreetmap.org/edit?editor=id&way=1058388858#map=20/59.9172491/10.738101"}}]}