{"type": "FeatureCollection", "features": [{"type": "Feature", "geometry": {"type": "Point", "coordinates": [10.6719204, 59.9265891]}, "properties": {"id": 130148572, "feat_type": "way", "quality_categories": "wrong_mispelled_or_unlisted_values", "issue_ids": "[0]", "osm_url": "https://www.openstreetmap.org/way/130148572", "josm_url": "http://127.0.0.1:8111/load_object?new_layer=false&objects=w130148572", "id_url": "https://www.openstreetmap.org/edit?editor=id&way=130148572#map=20/59.9265891/10.6719204"}}, {"type": "Feature", "geometry": {"type": "Point", "coordinates": [10.8354197, 59.918157]}, "properties": {"id": 652471056, "feat_type": "way", "quality_categories": "wrong_mispelled_or_unlisted_values", "issue_ids": "[0]", "osm_url": "https://www.openstreetmap.org/way/652471056", "josm_url": "http://127.0.0.1:8111/load_object?new_layer=false&objects=w652471056", "id_url": "https://www.openstreetmap.org/edit?editor=id&way=652471056#map=20/59.918157/10.8354197"}}, {"type": "Feature", "geometry": {"type": "Point", "coordinates": [10.7624595, 59.9487026]}, "properties": {"id": 916238389, "feat_type": "way", "quality_categories": "older_than_five_years, wrong_mispelled_or_unlisted_values", "issue_ids": "[0, 1]", "osm_url": "https://www.openstreetmap.org/way/916238389", "josm_url": "http://127.0.0.1:8111/load_object?new_layer=false&objects=w916238389", "id_url": "https://www.openstreetmap.org/edit?editor=id&way=916238389#map=20/59.9487026/10.7624595"}}, {"type": "Feature", "geometry": {"type": "Point", "coordinates": [10.7434945, 59.9075392]}, "properties": {"id": 926752763, "feat_type": "way", "quality_categories": "older_than_five_years, wrong_mispelled_or_unlisted_values", "issue_ids": "[0, 2]", "osm_url": "https://www.openstreetmap.org/way/926752763", "josm_url": "http://127.0.0.1:8111/load_object?new_layer=false&objects=w926752763", "id_url": "https://www.openstreetmap.org/edit?editor=id&way=926752763#map=20/59.9075392/10.7434945"}}]}