{"type": "FeatureCollection", "features": [{"type": "Feature", "geometry": {"type": "Point", "coordinates": [10.7749391, 59.9189413]}, "properties": {"id": 3302533, "feat_type": "way", "quality_categories": "disjointed_geometries, replaceable_values", "issue_ids": "[0, 1]", "osm_url": "https://www.openstreetmap.org/way/3302533", "josm_url": "http://127.0.0.1:8111/load_object?new_layer=false&objects=w3302533", "id_url": "https://www.openstreetmap.org/edit?editor=id&way=3302533#map=20/59.9189413/10.7749391"}}, {"type": "Feature", "geometry": {"type": "Point", "coordinates": [10.7750652, 59.9200339]}, "properties": {"id": 8127585, "feat_type": "way", "quality_categories": "disjointed_geometries, replaceable_values", "issue_ids": "[0, 1]", "osm_url": "https://www.openstreetmap.org/way/8127585", "josm_url": "http://127.0.0.1:8111/load_object?new_layer=false&objects=w8127585", "id_url": "https://www.openstreetmap.org/edit?editor=id&way=8127585#map=20/59.9200339/10.7750652"}}, {"type": "Feature", "geometry": {"type": "Point", "coordinates": [10.716753, 59.9444379]}, "properties": {"id": 62137787, "feat_type": "way", "quality_categories": "disjointed_geometries, replaceable_values", "issue_ids": "[2, 1]", "osm_url": "https://www.openstreetmap.org/way/62137787", "josm_url": "http://127.0.0.1:8111/load_object?new_layer=false&objects=w62137787", "id_url": "https://www.openstreetmap.org/edit?editor=id&way=62137787#map=20/59.9444379/10.716753"}}, {"type": "Feature", "geometry": {"type": "Point", "coordinates": [10.6787096, 59.9220406]}, "properties": {"id": 130994341, "feat_type": "way", "quality_categories": "disjointed_geometries, replaceable_values", "issue_ids": "[0, 1]", "osm_url": "https://www.openstreetmap.org/way/130994341", "josm_url": "http://127.0.0.1:8111/load_object?new_layer=false&objects=w130994341", "id_url": "https://www.openstreetmap.org/edit?editor=id&way=130994341#map=20/59.9220406/10.6787096"}}, {"type": "Feature", "geometry": {"type": "Point", "coordinates": [10.8900647, 59.938394]}, "properties": {"id": 347971497, "feat_type": "way", "quality_categories": "disjointed_geometries, missing_tags, replaceable_values", "issue_ids": "[0, 3, 1]", "osm_url": "https://www.openstreetmap.org/way/347971497", "josm_url": "http://127.0.0.1:8111/load_object?new_layer=false&objects=w347971497", "id_url": "https://www.openstreetmap.org/edit?editor=id&way=347971497#map=20/59.938394/10.8900647"}}, {"type": "Feature", "geometry": {"type": "Point", "coordinates": [10.8426376, 59.8359826]}, "properties": {"id": 440593729, "feat_type": "way", "quality_categories": "disjointed_geometries, missing_tags", "issue_ids": "[3, 1]", "osm_url": "https://www.openstreetmap.org/way/440593729", "josm_url": "http://127.0.0.1:8111/load_object?new_layer=false&objects=w440593729", "id_url": "https://www.openstreetmap.org/edit?editor=id&way=440593729#map=20/59.8359826/10.8426376"}}, {"type": "Feature", "geometry": {"type": "Point", "coordinates": [10.6759591, 59.9331269]}, "properties": {"id": 586383938, "feat_type": "way", "quality_categories": "disjointed_geometries, missing_tags", "issue_ids": "[3, 1]", "osm_url": "https://www.openstreetmap.org/way/586383938", "josm_url": "http://127.0.0.1:8111/load_object?new_layer=false&objects=w586383938", "id_url": "https://www.openstreetmap.org/edit?editor=id&way=586383938#map=20/59.9331269/10.6759591"}}, {"type": "Feature", "geometry": {"type": "Point", "coordinates": [10.6762705, 59.9328473]}, "properties": {"id": 586383939, "feat_type": "way", "quality_categories": "disjointed_geometries, missing_tags", "issue_ids": "[3, 1]", "osm_url": "https://www.openstreetmap.org/way/586383939", "josm_url": "http://127.0.0.1:8111/load_object?new_layer=false&objects=w586383939", "id_url": "https://www.openstreetmap.org/edit?editor=id&way=586383939#map=20/59.9328473/10.6762705"}}, {"type": "Feature", "geometry": {"type": "Point", "coordinates": [10.839008, 59.939387]}, "properties": {"id": 688568774, "feat_type": "way", "quality_categories": "disjointed_geometries, missing_tags, replaceable_values", "issue_ids": "[0, 3, 1]", "osm_url": "https://www.openstreetmap.org/way/688568774", "josm_url": "http://127.0.0.1:8111/load_object?new_layer=false&objects=w688568774", "id_url": "https://www.openstreetmap.org/edit?editor=id&way=688568774#map=20/59.939387/10.839008"}}, {"type": "Feature", "geometry": {"type": "Point", "coordinates": [10.768538, 59.9498373]}, "properties": {"id": 871750079, "feat_type": "way", "quality_categories": "disjointed_geometries, replaceable_values", "issue_ids": "[0, 1]", "osm_url": "https://www.openstreetmap.org/way/871750079", "josm_url": "http://127.0.0.1:8111/load_object?new_layer=false&objects=w871750079", "id_url": "https://www.openstreetmap.org/edit?editor=id&way=871750079#map=20/59.9498373/10.768538"}}, {"type": "Feature", "geometry": {"type": "Point", "coordinates": [10.6788663, 59.9219239]}, "properties": {"id": 880542100, "feat_type": "way", "quality_categories": "disjointed_geometries, replaceable_values", "issue_ids": "[0, 1]", "osm_url": "https://www.openstreetmap.org/way/880542100", "josm_url": "http://127.0.0.1:8111/load_object?new_layer=false&objects=w880542100", "id_url": "https://www.openstreetmap.org/edit?editor=id&way=880542100#map=20/59.9219239/10.6788663"}}, {"type": "Feature", "geometry": {"type": "Point", "coordinates": [10.736637, 59.9570175]}, "properties": {"id": 893088354, "feat_type": "way", "quality_categories": "disjointed_geometries, replaceable_values", "issue_ids": "[0, 1]", "osm_url": "https://www.openstreetmap.org/way/893088354", "josm_url": "http://127.0.0.1:8111/load_object?new_layer=false&objects=w893088354", "id_url": "https://www.openstreetmap.org/edit?editor=id&way=893088354#map=20/59.9570175/10.736637"}}, {"type": "Feature", "geometry": {"type": "Point", "coordinates": [10.8701838, 59.9338382]}, "properties": {"id": 914504636, "feat_type": "way", "quality_categories": "disjointed_geometries, missing_tags, replaceable_values", "issue_ids": "[0, 3, 1]", "osm_url": "https://www.openstreetmap.org/way/914504636", "josm_url": "http://127.0.0.1:8111/load_object?new_layer=false&objects=w914504636", "id_url": "https://www.openstreetmap.org/edit?editor=id&way=914504636#map=20/59.9338382/10.8701838"}}, {"type": "Feature", "geometry": {"type": "Point", "coordinates": [10.7343442, 59.9367671]}, "properties": {"id": 935764904, "feat_type": "way", "quality_categories": "disjointed_geometries, replaceable_values", "issue_ids": "[0, 1]", "osm_url": "https://www.openstreetmap.org/way/935764904", "josm_url": "http://127.0.0.1:8111/load_object?new_layer=false&objects=w935764904", "id_url": "https://www.openstreetmap.org/edit?editor=id&way=935764904#map=20/59.9367671/10.7343442"}}, {"type": "Feature", "geometry": {"type": "Point", "coordinates": [10.899305, 59.951447]}, "properties": {"id": 1022716712, "feat_type": "way", "quality_categories": "disjointed_geometries, missing_tags, replaceable_values", "issue_ids": "[0, 3, 1]", "osm_url": "https://www.openstreetmap.org/way/1022716712", "josm_url": "http://127.0.0.1:8111/load_object?new_layer=false&objects=w1022716712", "id_url": "https://www.openstreetmap.org/edit?editor=id&way=1022716712#map=20/59.951447/10.899305"}}, {"type": "Feature", "geometry": {"type": "Point", "coordinates": [10.8436784, 59.844391]}, "properties": {"id": 1039333437, "feat_type": "way", "quality_categories": "disjointed_geometries, missing_tags", "issue_ids": "[3, 1]", "osm_url": "https://www.openstreetmap.org/way/1039333437", "josm_url": "http://127.0.0.1:8111/load_object?new_layer=false&objects=w1039333437", "id_url": "https://www.openstreetmap.org/edit?editor=id&way=1039333437#map=20/59.844391/10.8436784"}}, {"type": "Feature", "geometry": {"type": "Point", "coordinates": [10.6600906, 59.9540291]}, "properties": {"id": 1226756704, "feat_type": "way", "quality_categories": "disjointed_geometries, wrong_mispelled_or_unlisted_values", "issue_ids": "[4, 1]", "osm_url": "https://www.openstreetmap.org/way/1226756704", "josm_url": "http://127.0.0.1:8111/load_object?new_layer=false&objects=w1226756704", "id_url": "https://www.openstreetmap.org/edit?editor=id&way=1226756704#map=20/59.9540291/10.6600906"}}, {"type": "Feature", "geometry": {"type": "Point", "coordinates": [10.6611822, 59.9551446]}, "properties": {"id": 1226756705, "feat_type": "way", "quality_categories": "disjointed_geometries, wrong_mispelled_or_unlisted_values", "issue_ids": "[4, 1]", "osm_url": "https://www.openstreetmap.org/way/1226756705", "josm_url": "http://127.0.0.1:8111/load_object?new_layer=false&objects=w1226756705", "id_url": "https://www.openstreetmap.org/edit?editor=id&way=1226756705#map=20/59.9551446/10.6611822"}}, {"type": "Feature", "geometry": {"type": "Point", "coordinates": [10.8118672, 59.9450239]}, "properties": {"id": 1226756709, "feat_type": "way", "quality_categories": "disjointed_geometries, missing_tags", "issue_ids": "[3, 1]", "osm_url": "https://www.openstreetmap.org/way/1226756709", "josm_url": "http://127.0.0.1:8111/load_object?new_layer=false&objects=w1226756709", "id_url": "https://www.openstreetmap.org/edit?editor=id&way=1226756709#map=20/59.9450239/10.8118672"}}, {"type": "Feature", "geometry": {"type": "Point", "coordinates": [10.6385972, 59.9341527]}, "properties": {"id": 1226955155, "feat_type": "way", "quality_categories": "disjointed_geometries, improper_keys, missing_tags", "issue_ids": "[5, 3, 1]", "osm_url": "https://www.openstreetmap.org/way/1226955155", "josm_url": "http://127.0.0.1:8111/load_object?new_layer=false&objects=w1226955155", "id_url": "https://www.openstreetmap.org/edit?editor=id&way=1226955155#map=20/59.9341527/10.6385972"}}, {"type": "Feature", "geometry": {"type": "Point", "coordinates": [10.8442098, 59.9346449]}, "properties": {"id": 1244015626, "feat_type": "way", "quality_categories": "disjointed_geometries, missing_tags", "issue_ids": "[3, 1]", "osm_url": "https://www.openstreetmap.org/way/1244015626", "josm_url": "http://127.0.0.1:8111/load_object?new_layer=false&objects=w1244015626", "id_url": "https://www.openstreetmap.org/edit?editor=id&way=1244015626#map=20/59.9346449/10.8442098"}}, {"type": "Feature", "geometry": {"type": "Point", "coordinates": [10.7780801, 59.9176128]}, "properties": {"id": 1371007455, "feat_type": "way", "quality_categories": "disjointed_geometries, replaceable_values", "issue_ids": "[2, 1]", "osm_url": "https://www.openstreetmap.org/way/1371007455", "josm_url": "http://127.0.0.1:8111/load_object?new_layer=false&objects=w1371007455", "id_url": "https://www.openstreetmap.org/edit?editor=id&way=1371007455#map=20/59.9176128/10.7780801"}}, {"type": "Feature", "geometry": {"type": "Point", "coordinates": [10.7200446, 59.9473577]}, "properties": {"id": 1374130902, "feat_type": "way", "quality_categories": "disjointed_geometries, missing_tags", "issue_ids": "[3, 1]", "osm_url": "https://www.openstreetmap.org/way/1374130902", "josm_url": "http://127.0.0.1:8111/load_object?new_layer=false&objects=w1374130902", "id_url": "https://www.openstreetmap.org/edit?editor=id&way=1374130902#map=20/59.9473577/10.7200446"}}, {"type": "Feature", "geometry": {"type": "Point", "coordinates": [10.7175591, 59.9500122]}, "properties": {"id": 1552501365, "feat_type": "way", "quality_categories": "disjointed_geometries, missing_tags", "issue_ids": "[3, 1]", "osm_url": "https://www.openstreetmap.org/way/1552501365", "josm_url": "http://127.0.0.1:8111/load_object?new_layer=false&objects=w1552501365", "id_url": "https://www.openstreetmap.org/edit?editor=id&way=1552501365#map=20/59.9500122/10.7175591"}}, {"type": "Feature", "geometry": {"type": "Point", "coordinates": [10.8222517, 59.913008]}, "properties": {"id": 25123586, "feat_type": "way", "quality_categories": "disjointed_geometries", "issue_ids": "[1]", "osm_url": "https://www.openstreetmap.org/way/25123586", "josm_url": "http://127.0.0.1:8111/load_object?new_layer=false&objects=w25123586", "id_url": "https://www.openstreetmap.org/edit?editor=id&way=25123586#map=20/59.913008/10.8222517"}}, {"type": "Feature", "geometry": {"type": "Point", "coordinates": [10.7173211, 59.9454903]}, "properties": {"id": 62139889, "feat_type": "way", "quality_categories": "disjointed_geometries", "issue_ids": "[1]", "osm_url": "https://www.openstreetmap.org/way/62139889", "josm_url": "http://127.0.0.1:8111/load_object?new_layer=false&objects=w62139889", "id_url": "https://www.openstreetmap.org/edit?editor=id&way=62139889#map=20/59.9454903/10.7173211"}}, {"type": "Feature", "geometry": {"type": "Point", "coordinates": [10.7829811, 59.939465]}, "properties": {"id": 118149224, "feat_type": "way", "quality_categories": "disjointed_geometries", "issue_ids": "[1]", "osm_url": "https://www.openstreetmap.org/way/118149224", "josm_url": "http://127.0.0.1:8111/load_object?new_layer=false&objects=w118149224", "id_url": "https://www.openstreetmap.org/edit?editor=id&way=118149224#map=20/59.939465/10.7829811"}}, {"type": "Feature", "geometry": {"type": "Point", "coordinates": [10.7348254, 59.908199]}, "properties": {"id": 124903474, "feat_type": "way", "quality_categories": "disjointed_geometries", "issue_ids": "[1]", "osm_url": "https://www.openstreetmap.org/way/124903474", "josm_url": "http://127.0.0.1:8111/load_object?new_layer=false&objects=w124903474", "id_url": "https://www.openstreetmap.org/edit?editor=id&way=124903474#map=20/59.908199/10.7348254"}}, {"type": "Feature", "geometry": {"type": "Point", "coordinates": [10.8426499, 59.8360574]}, "properties": {"id": 243083496, "feat_type": "way", "quality_categories": "disjointed_geometries", "issue_ids": "[1]", "osm_url": "https://www.openstreetmap.org/way/243083496", "josm_url": "http://127.0.0.1:8111/load_object?new_layer=false&objects=w243083496", "id_url": "https://www.openstreetmap.org/edit?editor=id&way=243083496#map=20/59.8360574/10.8426499"}}, {"type": "Feature", "geometry": {"type": "Point", "coordinates": [10.8419738, 59.8348465]}, "properties": {"id": 257484094, "feat_type": "way", "quality_categories": "disjointed_geometries", "issue_ids": "[1]", "osm_url": "https://www.openstreetmap.org/way/257484094", "josm_url": "http://127.0.0.1:8111/load_object?new_layer=false&objects=w257484094", "id_url": "https://www.openstreetmap.org/edit?editor=id&way=257484094#map=20/59.8348465/10.8419738"}}, {"type": "Feature", "geometry": {"type": "Point", "coordinates": [10.6764419, 59.9210105]}, "properties": {"id": 314149321, "feat_type": "way", "quality_categories": "disjointed_geometries", "issue_ids": "[1]", "osm_url": "https://www.openstreetmap.org/way/314149321", "josm_url": "http://127.0.0.1:8111/load_object?new_layer=false&objects=w314149321", "id_url": "https://www.openstreetmap.org/edit?editor=id&way=314149321#map=20/59.9210105/10.6764419"}}, {"type": "Feature", "geometry": {"type": "Point", "coordinates": [10.6768625, 59.9213093]}, "properties": {"id": 314149341, "feat_type": "way", "quality_categories": "disjointed_geometries", "issue_ids": "[1]", "osm_url": "https://www.openstreetmap.org/way/314149341", "josm_url": "http://127.0.0.1:8111/load_object?new_layer=false&objects=w314149341", "id_url": "https://www.openstreetmap.org/edit?editor=id&way=314149341#map=20/59.9213093/10.6768625"}}, {"type": "Feature", "geometry": {"type": "Point", "coordinates": [10.7176402, 59.9460616]}, "properties": {"id": 334188053, "feat_type": "way", "quality_categories": "disjointed_geometries", "issue_ids": "[1]", "osm_url": "https://www.openstreetmap.org/way/334188053", "josm_url": "http://127.0.0.1:8111/load_object?new_layer=false&objects=w334188053", "id_url": "https://www.openstreetmap.org/edit?editor=id&way=334188053#map=20/59.9460616/10.7176402"}}, {"type": "Feature", "geometry": {"type": "Point", "coordinates": [10.724774, 59.9420913]}, "properties": {"id": 334188054, "feat_type": "way", "quality_categories": "disjointed_geometries", "issue_ids": "[1]", "osm_url": "https://www.openstreetmap.org/way/334188054", "josm_url": "http://127.0.0.1:8111/load_object?new_layer=false&objects=w334188054", "id_url": "https://www.openstreetmap.org/edit?editor=id&way=334188054#map=20/59.9420913/10.724774"}}, {"type": "Feature", "geometry": {"type": "Point", "coordinates": [10.7800629, 59.8918865]}, "properties": {"id": 536732681, "feat_type": "way", "quality_categories": "disjointed_geometries", "issue_ids": "[1]", "osm_url": "https://www.openstreetmap.org/way/536732681", "josm_url": "http://127.0.0.1:8111/load_object?new_layer=false&objects=w536732681", "id_url": "https://www.openstreetmap.org/edit?editor=id&way=536732681#map=20/59.8918865/10.7800629"}}, {"type": "Feature", "geometry": {"type": "Point", "coordinates": [10.7824494, 59.8888648]}, "properties": {"id": 536732698, "feat_type": "way", "quality_categories": "disjointed_geometries", "issue_ids": "[1]", "osm_url": "https://www.openstreetmap.org/way/536732698", "josm_url": "http://127.0.0.1:8111/load_object?new_layer=false&objects=w536732698", "id_url": "https://www.openstreetmap.org/edit?editor=id&way=536732698#map=20/59.8888648/10.7824494"}}, {"type": "Feature", "geometry": {"type": "Point", "coordinates": [10.8206876, 59.9158918]}, "properties": {"id": 575504578, "feat_type": "way", "quality_categories": "disjointed_geometries", "issue_ids": "[1]", "osm_url": "https://www.openstreetmap.org/way/575504578", "josm_url": "http://127.0.0.1:8111/load_object?new_layer=false&objects=w575504578", "id_url": "https://www.openstreetmap.org/edit?editor=id&way=575504578#map=20/59.9158918/10.8206876"}}, {"type": "Feature", "geometry": {"type": "Point", "coordinates": [10.9239075, 59.934241]}, "properties": {"id": 651505144, "feat_type": "way", "quality_categories": "disjointed_geometries", "issue_ids": "[1]", "osm_url": "https://www.openstreetmap.org/way/651505144", "josm_url": "http://127.0.0.1:8111/load_object?new_layer=false&objects=w651505144", "id_url": "https://www.openstreetmap.org/edit?editor=id&way=651505144#map=20/59.934241/10.9239075"}}, {"type": "Feature", "geometry": {"type": "Point", "coordinates": [10.8369667, 59.8347909]}, "properties": {"id": 677202256, "feat_type": "way", "quality_categories": "disjointed_geometries", "issue_ids": "[1]", "osm_url": "https://www.openstreetmap.org/way/677202256", "josm_url": "http://127.0.0.1:8111/load_object?new_layer=false&objects=w677202256", "id_url": "https://www.openstreetmap.org/edit?editor=id&way=677202256#map=20/59.8347909/10.8369667"}}, {"type": "Feature", "geometry": {"type": "Point", "coordinates": [10.7751253, 59.8347316]}, "properties": {"id": 686409715, "feat_type": "way", "quality_categories": "disjointed_geometries", "issue_ids": "[1]", "osm_url": "https://www.openstreetmap.org/way/686409715", "josm_url": "http://127.0.0.1:8111/load_object?new_layer=false&objects=w686409715", "id_url": "https://www.openstreetmap.org/edit?editor=id&way=686409715#map=20/59.8347316/10.7751253"}}, {"type": "Feature", "geometry": {"type": "Point", "coordinates": [10.7868242, 59.8325234]}, "properties": {"id": 690539105, "feat_type": "way", "quality_categories": "disjointed_geometries", "issue_ids": "[1]", "osm_url": "https://www.openstreetmap.org/way/690539105", "josm_url": "http://127.0.0.1:8111/load_object?new_layer=false&objects=w690539105", "id_url": "https://www.openstreetmap.org/edit?editor=id&way=690539105#map=20/59.8325234/10.7868242"}}, {"type": "Feature", "geometry": {"type": "Point", "coordinates": [10.759006, 59.9013965]}, "properties": {"id": 722866069, "feat_type": "way", "quality_categories": "disjointed_geometries", "issue_ids": "[1]", "osm_url": "https://www.openstreetmap.org/way/722866069", "josm_url": "http://127.0.0.1:8111/load_object?new_layer=false&objects=w722866069", "id_url": "https://www.openstreetmap.org/edit?editor=id&way=722866069#map=20/59.9013965/10.759006"}}, {"type": "Feature", "geometry": {"type": "Point", "coordinates": [10.7573229, 59.9013649]}, "properties": {"id": 722895646, "feat_type": "way", "quality_categories": "disjointed_geometries", "issue_ids": "[1]", "osm_url": "https://www.openstreetmap.org/way/722895646", "josm_url": "http://127.0.0.1:8111/load_object?new_layer=false&objects=w722895646", "id_url": "https://www.openstreetmap.org/edit?editor=id&way=722895646#map=20/59.9013649/10.7573229"}}, {"type": "Feature", "geometry": {"type": "Point", "coordinates": [10.7787418, 59.8936764]}, "properties": {"id": 736717541, "feat_type": "way", "quality_categories": "disjointed_geometries", "issue_ids": "[1]", "osm_url": "https://www.openstreetmap.org/way/736717541", "josm_url": "http://127.0.0.1:8111/load_object?new_layer=false&objects=w736717541", "id_url": "https://www.openstreetmap.org/edit?editor=id&way=736717541#map=20/59.8936764/10.7787418"}}, {"type": "Feature", "geometry": {"type": "Point", "coordinates": [10.7175358, 59.9420128]}, "properties": {"id": 747877988, "feat_type": "way", "quality_categories": "disjointed_geometries", "issue_ids": "[1]", "osm_url": "https://www.openstreetmap.org/way/747877988", "josm_url": "http://127.0.0.1:8111/load_object?new_layer=false&objects=w747877988", "id_url": "https://www.openstreetmap.org/edit?editor=id&way=747877988#map=20/59.9420128/10.7175358"}}, {"type": "Feature", "geometry": {"type": "Point", "coordinates": [10.6387691, 59.9645974]}, "properties": {"id": 796406545, "feat_type": "way", "quality_categories": "disjointed_geometries", "issue_ids": "[1]", "osm_url": "https://www.openstreetmap.org/way/796406545", "josm_url": "http://127.0.0.1:8111/load_object?new_layer=false&objects=w796406545", "id_url": "https://www.openstreetmap.org/edit?editor=id&way=796406545#map=20/59.9645974/10.6387691"}}, {"type": "Feature", "geometry": {"type": "Point", "coordinates": [10.6388248, 59.9645967]}, "properties": {"id": 796406546, "feat_type": "way", "quality_categories": "disjointed_geometries", "issue_ids": "[1]", "osm_url": "https://www.openstreetmap.org/way/796406546", "josm_url": "http://127.0.0.1:8111/load_object?new_layer=false&objects=w796406546", "id_url": "https://www.openstreetmap.org/edit?editor=id&way=796406546#map=20/59.9645967/10.6388248"}}, {"type": "Feature", "geometry": {"type": "Point", "coordinates": [10.6757987, 59.9205918]}, "properties": {"id": 880542098, "feat_type": "way", "quality_categories": "disjointed_geometries", "issue_ids": "[1]", "osm_url": "https://www.openstreetmap.org/way/880542098", "josm_url": "http://127.0.0.1:8111/load_object?new_layer=false&objects=w880542098", "id_url": "https://www.openstreetmap.org/edit?editor=id&way=880542098#map=20/59.9205918/10.6757987"}}, {"type": "Feature", "geometry": {"type": "Point", "coordinates": [10.6791304, 59.9218606]}, "properties": {"id": 880542099, "feat_type": "way", "quality_categories": "disjointed_geometries", "issue_ids": "[1]", "osm_url": "https://www.openstreetmap.org/way/880542099", "josm_url": "http://127.0.0.1:8111/load_object?new_layer=false&objects=w880542099", "id_url": "https://www.openstreetmap.org/edit?editor=id&way=880542099#map=20/59.9218606/10.6791304"}}, {"type": "Feature", "geometry": {"type": "Point", "coordinates": [10.6787867, 59.9219796]}, "properties": {"id": 880542101, "feat_type": "way", "quality_categories": "disjointed_geometries", "issue_ids": "[1]", "osm_url": "https://www.openstreetmap.org/way/880542101", "josm_url": "http://127.0.0.1:8111/load_object?new_layer=false&objects=w880542101", "id_url": "https://www.openstreetmap.org/edit?editor=id&way=880542101#map=20/59.9219796/10.6787867"}}, {"type": "Feature", "geometry": {"type": "Point", "coordinates": [10.647787, 59.9287036]}, "properties": {"id": 1040391534, "feat_type": "way", "quality_categories": "disjointed_geometries", "issue_ids": "[1]", "osm_url": "https://www.openstreetmap.org/way/1040391534", "josm_url": "http://127.0.0.1:8111/load_object?new_layer=false&objects=w1040391534", "id_url": "https://www.openstreetmap.org/edit?editor=id&way=1040391534#map=20/59.9287036/10.647787"}}, {"type": "Feature", "geometry": {"type": "Point", "coordinates": [10.7815592, 59.9662728]}, "properties": {"id": 1075525987, "feat_type": "way", "quality_categories": "disjointed_geometries", "issue_ids": "[1]", "osm_url": "https://www.openstreetmap.org/way/1075525987", "josm_url": "http://127.0.0.1:8111/load_object?new_layer=false&objects=w1075525987", "id_url": "https://www.openstreetmap.org/edit?editor=id&way=1075525987#map=20/59.9662728/10.7815592"}}, {"type": "Feature", "geometry": {"type": "Point", "coordinates": [10.7677095, 59.9653941]}, "properties": {"id": 1075542137, "feat_type": "way", "quality_categories": "disjointed_geometries", "issue_ids": "[1]", "osm_url": "https://www.openstreetmap.org/way/1075542137", "josm_url": "http://127.0.0.1:8111/load_object?new_layer=false&objects=w1075542137", "id_url": "https://www.openstreetmap.org/edit?editor=id&way=1075542137#map=20/59.9653941/10.7677095"}}, {"type": "Feature", "geometry": {"type": "Point", "coordinates": [10.7206557, 59.9439696]}, "properties": {"id": 1106217593, "feat_type": "way", "quality_categories": "disjointed_geometries", "issue_ids": "[1]", "osm_url": "https://www.openstreetmap.org/way/1106217593", "josm_url": "http://127.0.0.1:8111/load_object?new_layer=false&objects=w1106217593", "id_url": "https://www.openstreetmap.org/edit?editor=id&way=1106217593#map=20/59.9439696/10.7206557"}}, {"type": "Feature", "geometry": {"type": "Point", "coordinates": [10.781191, 59.9308558]}, "properties": {"id": 1164557045, "feat_type": "way", "quality_categories": "disjointed_geometries", "issue_ids": "[1]", "osm_url": "https://www.openstreetmap.org/way/1164557045", "josm_url": "http://127.0.0.1:8111/load_object?new_layer=false&objects=w1164557045", "id_url": "https://www.openstreetmap.org/edit?editor=id&way=1164557045#map=20/59.9308558/10.781191"}}, {"type": "Feature", "geometry": {"type": "Point", "coordinates": [10.8222813, 59.895294]}, "properties": {"id": 1185516192, "feat_type": "way", "quality_categories": "disjointed_geometries", "issue_ids": "[1]", "osm_url": "https://www.openstreetmap.org/way/1185516192", "josm_url": "http://127.0.0.1:8111/load_object?new_layer=false&objects=w1185516192", "id_url": "https://www.openstreetmap.org/edit?editor=id&way=1185516192#map=20/59.895294/10.8222813"}}, {"type": "Feature", "geometry": {"type": "Point", "coordinates": [10.7169004, 59.944689]}, "properties": {"id": 1200703193, "feat_type": "way", "quality_categories": "disjointed_geometries", "issue_ids": "[1]", "osm_url": "https://www.openstreetmap.org/way/1200703193", "josm_url": "http://127.0.0.1:8111/load_object?new_layer=false&objects=w1200703193", "id_url": "https://www.openstreetmap.org/edit?editor=id&way=1200703193#map=20/59.944689/10.7169004"}}, {"type": "Feature", "geometry": {"type": "Point", "coordinates": [10.8411859, 59.8669133]}, "properties": {"id": 1204848990, "feat_type": "way", "quality_categories": "disjointed_geometries", "issue_ids": "[1]", "osm_url": "https://www.openstreetmap.org/way/1204848990", "josm_url": "http://127.0.0.1:8111/load_object?new_layer=false&objects=w1204848990", "id_url": "https://www.openstreetmap.org/edit?editor=id&way=1204848990#map=20/59.8669133/10.8411859"}}, {"type": "Feature", "geometry": {"type": "Point", "coordinates": [10.8036008, 59.9583979]}, "properties": {"id": 1215553649, "feat_type": "way", "quality_categories": "disjointed_geometries", "issue_ids": "[1]", "osm_url": "https://www.openstreetmap.org/way/1215553649", "josm_url": "http://127.0.0.1:8111/load_object?new_layer=false&objects=w1215553649", "id_url": "https://www.openstreetmap.org/edit?editor=id&way=1215553649#map=20/59.9583979/10.8036008"}}, {"type": "Feature", "geometry": {"type": "Point", "coordinates": [10.6655724, 59.9307585]}, "properties": {"id": 1226756701, "feat_type": "way", "quality_categories": "disjointed_geometries", "issue_ids": "[1]", "osm_url": "https://www.openstreetmap.org/way/1226756701", "josm_url": "http://127.0.0.1:8111/load_object?new_layer=false&objects=w1226756701", "id_url": "https://www.openstreetmap.org/edit?editor=id&way=1226756701#map=20/59.9307585/10.6655724"}}, {"type": "Feature", "geometry": {"type": "Point", "coordinates": [10.8053626, 59.9300306]}, "properties": {"id": 1226756710, "feat_type": "way", "quality_categories": "disjointed_geometries", "issue_ids": "[1]", "osm_url": "https://www.openstreetmap.org/way/1226756710", "josm_url": "http://127.0.0.1:8111/load_object?new_layer=false&objects=w1226756710", "id_url": "https://www.openstreetmap.org/edit?editor=id&way=1226756710#map=20/59.9300306/10.8053626"}}, {"type": "Feature", "geometry": {"type": "Point", "coordinates": [10.8051811, 59.9301978]}, "properties": {"id": 1226756711, "feat_type": "way", "quality_categories": "disjointed_geometries", "issue_ids": "[1]", "osm_url": "https://www.openstreetmap.org/way/1226756711", "josm_url": "http://127.0.0.1:8111/load_object?new_layer=false&objects=w1226756711", "id_url": "https://www.openstreetmap.org/edit?editor=id&way=1226756711#map=20/59.9301978/10.8051811"}}, {"type": "Feature", "geometry": {"type": "Point", "coordinates": [10.8124323, 59.9415586]}, "properties": {"id": 1226764164, "feat_type": "way", "quality_categories": "disjointed_geometries", "issue_ids": "[1]", "osm_url": "https://www.openstreetmap.org/way/1226764164", "josm_url": "http://127.0.0.1:8111/load_object?new_layer=false&objects=w1226764164", "id_url": "https://www.openstreetmap.org/edit?editor=id&way=1226764164#map=20/59.9415586/10.8124323"}}, {"type": "Feature", "geometry": {"type": "Point", "coordinates": [10.6791158, 59.9215021]}, "properties": {"id": 1226955154, "feat_type": "way", "quality_categories": "disjointed_geometries", "issue_ids": "[1]", "osm_url": "https://www.openstreetmap.org/way/1226955154", "josm_url": "http://127.0.0.1:8111/load_object?new_layer=false&objects=w1226955154", "id_url": "https://www.openstreetmap.org/edit?editor=id&way=1226955154#map=20/59.9215021/10.6791158"}}, {"type": "Feature", "geometry": {"type": "Point", "coordinates": [10.8442532, 59.9345156]}, "properties": {"id": 1244015628, "feat_type": "way", "quality_categories": "disjointed_geometries", "issue_ids": "[1]", "osm_url": "https://www.openstreetmap.org/way/1244015628", "josm_url": "http://127.0.0.1:8111/load_object?new_layer=false&objects=w1244015628", "id_url": "https://www.openstreetmap.org/edit?editor=id&way=1244015628#map=20/59.9345156/10.8442532"}}, {"type": "Feature", "geometry": {"type": "Point", "coordinates": [10.6791169, 59.9214609]}, "properties": {"id": 1314467387, "feat_type": "way", "quality_categories": "disjointed_geometries", "issue_ids": "[1]", "osm_url": "https://www.openstreetmap.org/way/1314467387", "josm_url": "http://127.0.0.1:8111/load_object?new_layer=false&objects=w1314467387", "id_url": "https://www.openstreetmap.org/edit?editor=id&way=1314467387#map=20/59.9214609/10.6791169"}}, {"type": "Feature", "geometry": {"type": "Point", "coordinates": [10.8219333, 59.9130507]}, "properties": {"id": 1338599954, "feat_type": "way", "quality_categories": "disjointed_geometries", "issue_ids": "[1]", "osm_url": "https://www.openstreetmap.org/way/1338599954", "josm_url": "http://127.0.0.1:8111/load_object?new_layer=false&objects=w1338599954", "id_url": "https://www.openstreetmap.org/edit?editor=id&way=1338599954#map=20/59.9130507/10.8219333"}}, {"type": "Feature", "geometry": {"type": "Point", "coordinates": [10.71837, 59.9485642]}, "properties": {"id": 1374130897, "feat_type": "way", "quality_categories": "disjointed_geometries", "issue_ids": "[1]", "osm_url": "https://www.openstreetmap.org/way/1374130897", "josm_url": "http://127.0.0.1:8111/load_object?new_layer=false&objects=w1374130897", "id_url": "https://www.openstreetmap.org/edit?editor=id&way=1374130897#map=20/59.9485642/10.71837"}}, {"type": "Feature", "geometry": {"type": "Point", "coordinates": [10.7580236, 59.9021288]}, "properties": {"id": 1426772905, "feat_type": "way", "quality_categories": "disjointed_geometries", "issue_ids": "[1]", "osm_url": "https://www.openstreetmap.org/way/1426772905", "josm_url": "http://127.0.0.1:8111/load_object?new_layer=false&objects=w1426772905", "id_url": "https://www.openstreetmap.org/edit?editor=id&way=1426772905#map=20/59.9021288/10.7580236"}}]}