{"type": "FeatureCollection", "features": [{"type": "Feature", "geometry": {"type": "Point", "coordinates": [10.740162650785965, 59.9179967]}, "properties": {"id": 440149406, "feat_type": "way", "quality_categories": "improper_geometries, improper_keys", "issue_ids": "[0, 1]", "osm_url": "https://www.openstreetmap.org/way/440149406", "josm_url": "http://127.0.0.1:8111/load_object?new_layer=false&objects=w440149406", "id_url": "https://www.openstreetmap.org/edit?editor=id&way=440149406#map=20/59.9179967/10.740162650785965"}}, {"type": "Feature", "geometry": {"type": "Point", "coordinates": [10.792373431931086, 59.95373415]}, "properties": {"id": 1263590726, "feat_type": "way", "quality_categories": "improper_geometries, missing_tags", "issue_ids": "[2, 1]", "osm_url": "https://www.openstreetmap.org/way/1263590726", "josm_url": "http://127.0.0.1:8111/load_object?new_layer=false&objects=w1263590726", "id_url": "https://www.openstreetmap.org/edit?editor=id&way=1263590726#map=20/59.95373415/10.792373431931086"}}]}