{"type": "FeatureCollection", "features": [{"type": "Feature", "geometry": {"type": "Point", "coordinates": [10.7279014, 59.9407024]}, "properties": {"id": 4605974, "feat_type": "way", "quality_categories": "crossings_lacking_kerbs, improper_keys", "issue_ids": "[0, 1]", "osm_url": "https://www.openstreetmap.org/way/4605974", "josm_url": "http://127.0.0.1:8111/load_object?new_layer=false&objects=w4605974", "id_url": "https://www.openstreetmap.org/edit?editor=id&way=4605974#map=20/59.9407024/10.7279014"}}, {"type": "Feature", "geometry": {"type": "Point", "coordinates": [10.8912712, 59.940218]}, "properties": {"id": 69916186, "feat_type": "way", "quality_categories": "crossings_lacking_kerbs, improper_keys, missing_tags, replaceable_values", "issue_ids": "[2, 3, 4, 1]", "osm_url": "https://www.openstreetmap.org/way/69916186", "josm_url": "http://127.0.0.1:8111/load_object?new_layer=false&objects=w69916186", "id_url": "https://www.openstreetmap.org/edit?editor=id&way=69916186#map=20/59.940218/10.8912712"}}, {"type": "Feature", "geometry": {"type": "Point", "coordinates": [10.8372331, 59.8512313]}, "properties": {"id": 120320831, "feat_type": "way", "quality_categories": "crossings_lacking_kerbs, improper_keys, replaceable_values", "issue_ids": "[5, 3, 1]", "osm_url": "https://www.openstreetmap.org/way/120320831", "josm_url": "http://127.0.0.1:8111/load_object?new_layer=false&objects=w120320831", "id_url": "https://www.openstreetmap.org/edit?editor=id&way=120320831#map=20/59.8512313/10.8372331"}}, {"type": "Feature", "geometry": {"type": "Point", "coordinates": [10.7499114, 59.911113]}, "properties": {"id": 264635425, "feat_type": "way", "quality_categories": "crossings_lacking_kerbs, improper_keys, replaceable_values", "issue_ids": "[6, 7, 1]", "osm_url": "https://www.openstreetmap.org/way/264635425", "josm_url": "http://127.0.0.1:8111/load_object?new_layer=false&objects=w264635425", "id_url": "https://www.openstreetmap.org/edit?editor=id&way=264635425#map=20/59.911113/10.7499114"}}, {"type": "Feature", "geometry": {"type": "Point", "coordinates": [10.7495735, 59.9111816]}, "properties": {"id": 264635428, "feat_type": "way", "quality_categories": "crossings_lacking_kerbs, improper_keys, older_than_five_years, replaceable_values", "issue_ids": "[6, 7, 8, 1]", "osm_url": "https://www.openstreetmap.org/way/264635428", "josm_url": "http://127.0.0.1:8111/load_object?new_layer=false&objects=w264635428", "id_url": "https://www.openstreetmap.org/edit?editor=id&way=264635428#map=20/59.9111816/10.7495735"}}, {"type": "Feature", "geometry": {"type": "Point", "coordinates": [10.7498294, 59.9111299]}, "properties": {"id": 264635430, "feat_type": "way", "quality_categories": "improper_keys, replaceable_values", "issue_ids": "[6, 7]", "osm_url": "https://www.openstreetmap.org/way/264635430", "josm_url": "http://127.0.0.1:8111/load_object?new_layer=false&objects=w264635430", "id_url": "https://www.openstreetmap.org/edit?editor=id&way=264635430#map=20/59.9111299/10.7498294"}}, {"type": "Feature", "geometry": {"type": "Point", "coordinates": [10.7496591, 59.9111643]}, "properties": {"id": 264635432, "feat_type": "way", "quality_categories": "improper_keys, replaceable_values", "issue_ids": "[6, 7]", "osm_url": "https://www.openstreetmap.org/way/264635432", "josm_url": "http://127.0.0.1:8111/load_object?new_layer=false&objects=w264635432", "id_url": "https://www.openstreetmap.org/edit?editor=id&way=264635432#map=20/59.9111643/10.7496591"}}, {"type": "Feature", "geometry": {"type": "Point", "coordinates": [10.6473219, 59.9250348]}, "properties": {"id": 312668136, "feat_type": "way", "quality_categories": "crossings_lacking_kerbs, improper_keys, missing_tags", "issue_ids": "[9, 4, 1]", "osm_url": "https://www.openstreetmap.org/way/312668136", "josm_url": "http://127.0.0.1:8111/load_object?new_layer=false&objects=w312668136", "id_url": "https://www.openstreetmap.org/edit?editor=id&way=312668136#map=20/59.9250348/10.6473219"}}, {"type": "Feature", "geometry": {"type": "Point", "coordinates": [10.8828373, 59.9580344]}, "properties": {"id": 345711465, "feat_type": "way", "quality_categories": "improper_keys, missing_tags", "issue_ids": "[10, 4]", "osm_url": "https://www.openstreetmap.org/way/345711465", "josm_url": "http://127.0.0.1:8111/load_object?new_layer=false&objects=w345711465", "id_url": "https://www.openstreetmap.org/edit?editor=id&way=345711465#map=20/59.9580344/10.8828373"}}, {"type": "Feature", "geometry": {"type": "Point", "coordinates": [10.8828717, 59.9578616]}, "properties": {"id": 345711466, "feat_type": "way", "quality_categories": "improper_keys, missing_tags", "issue_ids": "[10, 4]", "osm_url": "https://www.openstreetmap.org/way/345711466", "josm_url": "http://127.0.0.1:8111/load_object?new_layer=false&objects=w345711466", "id_url": "https://www.openstreetmap.org/edit?editor=id&way=345711466#map=20/59.9578616/10.8828717"}}, {"type": "Feature", "geometry": {"type": "Point", "coordinates": [10.7834647, 59.9118687]}, "properties": {"id": 427966250, "feat_type": "way", "quality_categories": "improper_keys, replaceable_values", "issue_ids": "[11, 3]", "osm_url": "https://www.openstreetmap.org/way/427966250", "josm_url": "http://127.0.0.1:8111/load_object?new_layer=false&objects=w427966250", "id_url": "https://www.openstreetmap.org/edit?editor=id&way=427966250#map=20/59.9118687/10.7834647"}}, {"type": "Feature", "geometry": {"type": "Point", "coordinates": [10.740162650785965, 59.9179967]}, "properties": {"id": 440149406, "feat_type": "way", "quality_categories": "improper_geometries, improper_keys", "issue_ids": "[12, 13]", "osm_url": "https://www.openstreetmap.org/way/440149406", "josm_url": "http://127.0.0.1:8111/load_object?new_layer=false&objects=w440149406", "id_url": "https://www.openstreetmap.org/edit?editor=id&way=440149406#map=20/59.9179967/10.740162650785965"}}, {"type": "Feature", "geometry": {"type": "Point", "coordinates": [10.747488, 59.911662]}, "properties": {"id": 666375400, "feat_type": "way", "quality_categories": "improper_keys", "issue_ids": "[6]", "osm_url": "https://www.openstreetmap.org/way/666375400", "josm_url": "http://127.0.0.1:8111/load_object?new_layer=false&objects=w666375400", "id_url": "https://www.openstreetmap.org/edit?editor=id&way=666375400#map=20/59.911662/10.747488"}}, {"type": "Feature", "geometry": {"type": "Point", "coordinates": [10.7484664, 59.9114307]}, "properties": {"id": 666375435, "feat_type": "way", "quality_categories": "improper_keys", "issue_ids": "[6]", "osm_url": "https://www.openstreetmap.org/way/666375435", "josm_url": "http://127.0.0.1:8111/load_object?new_layer=false&objects=w666375435", "id_url": "https://www.openstreetmap.org/edit?editor=id&way=666375435#map=20/59.9114307/10.7484664"}}, {"type": "Feature", "geometry": {"type": "Point", "coordinates": [10.7878528, 59.8750681]}, "properties": {"id": 742655101, "feat_type": "way", "quality_categories": "improper_keys", "issue_ids": "[14]", "osm_url": "https://www.openstreetmap.org/way/742655101", "josm_url": "http://127.0.0.1:8111/load_object?new_layer=false&objects=w742655101", "id_url": "https://www.openstreetmap.org/edit?editor=id&way=742655101#map=20/59.8750681/10.7878528"}}, {"type": "Feature", "geometry": {"type": "Point", "coordinates": [10.7406351, 59.9112856]}, "properties": {"id": 995344351, "feat_type": "way", "quality_categories": "crossings_lacking_kerbs, improper_keys", "issue_ids": "[15, 1]", "osm_url": "https://www.openstreetmap.org/way/995344351", "josm_url": "http://127.0.0.1:8111/load_object?new_layer=false&objects=w995344351", "id_url": "https://www.openstreetmap.org/edit?editor=id&way=995344351#map=20/59.9112856/10.7406351"}}, {"type": "Feature", "geometry": {"type": "Point", "coordinates": [10.7406351, 59.9112856]}, "properties": {"id": 995344352, "feat_type": "way", "quality_categories": "crossings_lacking_kerbs, improper_keys", "issue_ids": "[15, 1]", "osm_url": "https://www.openstreetmap.org/way/995344352", "josm_url": "http://127.0.0.1:8111/load_object?new_layer=false&objects=w995344352", "id_url": "https://www.openstreetmap.org/edit?editor=id&way=995344352#map=20/59.9112856/10.7406351"}}, {"type": "Feature", "geometry": {"type": "Point", "coordinates": [10.7440635, 59.9124265]}, "properties": {"id": 1149892697, "feat_type": "way", "quality_categories": "crossings_lacking_kerbs, improper_keys", "issue_ids": "[6, 1]", "osm_url": "https://www.openstreetmap.org/way/1149892697", "josm_url": "http://127.0.0.1:8111/load_object?new_layer=false&objects=w1149892697", "id_url": "https://www.openstreetmap.org/edit?editor=id&way=1149892697#map=20/59.9124265/10.7440635"}}, {"type": "Feature", "geometry": {"type": "Point", "coordinates": [10.7455231, 59.9121105]}, "properties": {"id": 1149892699, "feat_type": "way", "quality_categories": "crossings_lacking_kerbs, improper_keys", "issue_ids": "[6, 1]", "osm_url": "https://www.openstreetmap.org/way/1149892699", "josm_url": "http://127.0.0.1:8111/load_object?new_layer=false&objects=w1149892699", "id_url": "https://www.openstreetmap.org/edit?editor=id&way=1149892699#map=20/59.9121105/10.7455231"}}, {"type": "Feature", "geometry": {"type": "Point", "coordinates": [10.6613907, 59.9593753]}, "properties": {"id": 1226756703, "feat_type": "way", "quality_categories": "improper_keys", "issue_ids": "[16]", "osm_url": "https://www.openstreetmap.org/way/1226756703", "josm_url": "http://127.0.0.1:8111/load_object?new_layer=false&objects=w1226756703", "id_url": "https://www.openstreetmap.org/edit?editor=id&way=1226756703#map=20/59.9593753/10.6613907"}}, {"type": "Feature", "geometry": {"type": "Point", "coordinates": [10.6385972, 59.9341527]}, "properties": {"id": 1226955155, "feat_type": "way", "quality_categories": "disjointed_geometries, improper_keys, missing_tags", "issue_ids": "[17, 4, 18]", "osm_url": "https://www.openstreetmap.org/way/1226955155", "josm_url": "http://127.0.0.1:8111/load_object?new_layer=false&objects=w1226955155", "id_url": "https://www.openstreetmap.org/edit?editor=id&way=1226955155#map=20/59.9341527/10.6385972"}}, {"type": "Feature", "geometry": {"type": "Point", "coordinates": [10.8314656, 59.9099352]}, "properties": {"id": 1259513080, "feat_type": "way", "quality_categories": "crossings_lacking_kerbs, improper_keys", "issue_ids": "[19, 1]", "osm_url": "https://www.openstreetmap.org/way/1259513080", "josm_url": "http://127.0.0.1:8111/load_object?new_layer=false&objects=w1259513080", "id_url": "https://www.openstreetmap.org/edit?editor=id&way=1259513080#map=20/59.9099352/10.8314656"}}, {"type": "Feature", "geometry": {"type": "Point", "coordinates": [10.7096506, 59.9100616]}, "properties": {"id": 1473804668, "feat_type": "way", "quality_categories": "improper_keys", "issue_ids": "[20]", "osm_url": "https://www.openstreetmap.org/way/1473804668", "josm_url": "http://127.0.0.1:8111/load_object?new_layer=false&objects=w1473804668", "id_url": "https://www.openstreetmap.org/edit?editor=id&way=1473804668#map=20/59.9100616/10.7096506"}}, {"type": "Feature", "geometry": {"type": "Point", "coordinates": [10.7095096, 59.9100369]}, "properties": {"id": 1473804669, "feat_type": "way", "quality_categories": "improper_keys", "issue_ids": "[20]", "osm_url": "https://www.openstreetmap.org/way/1473804669", "josm_url": "http://127.0.0.1:8111/load_object?new_layer=false&objects=w1473804669", "id_url": "https://www.openstreetmap.org/edit?editor=id&way=1473804669#map=20/59.9100369/10.7095096"}}]}