{"type": "FeatureCollection", "features": [{"type": "Feature", "geometry": {"type": "Point", "coordinates": [10.7806244, 59.9454965]}, "properties": {"id": 124064670, "feat_type": "way", "quality_categories": "wrong_mispelled_or_unlisted_values", "issue_ids": "[0]", "osm_url": "https://www.openstreetmap.org/way/124064670", "josm_url": "http://127.0.0.1:8111/load_object?new_layer=false&objects=w124064670", "id_url": "https://www.openstreetmap.org/edit?editor=id&way=124064670#map=20/59.9454965/10.7806244"}}, {"type": "Feature", "geometry": {"type": "Point", "coordinates": [10.7441583, 59.9178874]}, "properties": {"id": 128896803, "feat_type": "way", "quality_categories": "wrong_mispelled_or_unlisted_values", "issue_ids": "[1]", "osm_url": "https://www.openstreetmap.org/way/128896803", "josm_url": "http://127.0.0.1:8111/load_object?new_layer=false&objects=w128896803", "id_url": "https://www.openstreetmap.org/edit?editor=id&way=128896803#map=20/59.9178874/10.7441583"}}, {"type": "Feature", "geometry": {"type": "Point", "coordinates": [10.8505424, 59.882331]}, "properties": {"id": 133895154, "feat_type": "way", "quality_categories": "missing_tags, wrong_mispelled_or_unlisted_values", "issue_ids": "[2, 3]", "osm_url": "https://www.openstreetmap.org/way/133895154", "josm_url": "http://127.0.0.1:8111/load_object?new_layer=false&objects=w133895154", "id_url": "https://www.openstreetmap.org/edit?editor=id&way=133895154#map=20/59.882331/10.8505424"}}, {"type": "Feature", "geometry": {"type": "Point", "coordinates": [10.7089622, 59.9450595]}, "properties": {"id": 335254656, "feat_type": "way", "quality_categories": "wrong_mispelled_or_unlisted_values", "issue_ids": "[4]", "osm_url": "https://www.openstreetmap.org/way/335254656", "josm_url": "http://127.0.0.1:8111/load_object?new_layer=false&objects=w335254656", "id_url": "https://www.openstreetmap.org/edit?editor=id&way=335254656#map=20/59.9450595/10.7089622"}}, {"type": "Feature", "geometry": {"type": "Point", "coordinates": [10.7537634, 59.9592989]}, "properties": {"id": 347301772, "feat_type": "way", "quality_categories": "wrong_mispelled_or_unlisted_values", "issue_ids": "[5]", "osm_url": "https://www.openstreetmap.org/way/347301772", "josm_url": "http://127.0.0.1:8111/load_object?new_layer=false&objects=w347301772", "id_url": "https://www.openstreetmap.org/edit?editor=id&way=347301772#map=20/59.9592989/10.7537634"}}, {"type": "Feature", "geometry": {"type": "Point", "coordinates": [10.8349006, 59.836438]}, "properties": {"id": 354118865, "feat_type": "way", "quality_categories": "wrong_mispelled_or_unlisted_values", "issue_ids": "[0]", "osm_url": "https://www.openstreetmap.org/way/354118865", "josm_url": "http://127.0.0.1:8111/load_object?new_layer=false&objects=w354118865", "id_url": "https://www.openstreetmap.org/edit?editor=id&way=354118865#map=20/59.836438/10.8349006"}}, {"type": "Feature", "geometry": {"type": "Point", "coordinates": [10.7834768, 59.8819164]}, "properties": {"id": 355525337, "feat_type": "way", "quality_categories": "wrong_mispelled_or_unlisted_values", "issue_ids": "[6]", "osm_url": "https://www.openstreetmap.org/way/355525337", "josm_url": "http://127.0.0.1:8111/load_object?new_layer=false&objects=w355525337", "id_url": "https://www.openstreetmap.org/edit?editor=id&way=355525337#map=20/59.8819164/10.7834768"}}, {"type": "Feature", "geometry": {"type": "Point", "coordinates": [10.6600906, 59.9540291]}, "properties": {"id": 1226756704, "feat_type": "way", "quality_categories": "disjointed_geometries, wrong_mispelled_or_unlisted_values", "issue_ids": "[7, 8]", "osm_url": "https://www.openstreetmap.org/way/1226756704", "josm_url": "http://127.0.0.1:8111/load_object?new_layer=false&objects=w1226756704", "id_url": "https://www.openstreetmap.org/edit?editor=id&way=1226756704#map=20/59.9540291/10.6600906"}}, {"type": "Feature", "geometry": {"type": "Point", "coordinates": [10.6611822, 59.9551446]}, "properties": {"id": 1226756705, "feat_type": "way", "quality_categories": "disjointed_geometries, wrong_mispelled_or_unlisted_values", "issue_ids": "[7, 8]", "osm_url": "https://www.openstreetmap.org/way/1226756705", "josm_url": "http://127.0.0.1:8111/load_object?new_layer=false&objects=w1226756705", "id_url": "https://www.openstreetmap.org/edit?editor=id&way=1226756705#map=20/59.9551446/10.6611822"}}, {"type": "Feature", "geometry": {"type": "Point", "coordinates": [10.7124056, 59.9256546]}, "properties": {"id": 1231555317, "feat_type": "way", "quality_categories": "missing_tags, wrong_mispelled_or_unlisted_values", "issue_ids": "[0, 3]", "osm_url": "https://www.openstreetmap.org/way/1231555317", "josm_url": "http://127.0.0.1:8111/load_object?new_layer=false&objects=w1231555317", "id_url": "https://www.openstreetmap.org/edit?editor=id&way=1231555317#map=20/59.9256546/10.7124056"}}, {"type": "Feature", "geometry": {"type": "Point", "coordinates": [10.7119353, 59.9254361]}, "properties": {"id": 1231555318, "feat_type": "way", "quality_categories": "missing_tags, wrong_mispelled_or_unlisted_values", "issue_ids": "[0, 3]", "osm_url": "https://www.openstreetmap.org/way/1231555318", "josm_url": "http://127.0.0.1:8111/load_object?new_layer=false&objects=w1231555318", "id_url": "https://www.openstreetmap.org/edit?editor=id&way=1231555318#map=20/59.9254361/10.7119353"}}, {"type": "Feature", "geometry": {"type": "Point", "coordinates": [10.7166656, 59.9252519]}, "properties": {"id": 1231555322, "feat_type": "way", "quality_categories": "crossings_lacking_kerbs, missing_tags, wrong_mispelled_or_unlisted_values", "issue_ids": "[0, 3, 9]", "osm_url": "https://www.openstreetmap.org/way/1231555322", "josm_url": "http://127.0.0.1:8111/load_object?new_layer=false&objects=w1231555322", "id_url": "https://www.openstreetmap.org/edit?editor=id&way=1231555322#map=20/59.9252519/10.7166656"}}, {"type": "Feature", "geometry": {"type": "Point", "coordinates": [10.7166715, 59.9251547]}, "properties": {"id": 1231555323, "feat_type": "way", "quality_categories": "crossings_lacking_kerbs, missing_tags, wrong_mispelled_or_unlisted_values", "issue_ids": "[0, 3, 9]", "osm_url": "https://www.openstreetmap.org/way/1231555323", "josm_url": "http://127.0.0.1:8111/load_object?new_layer=false&objects=w1231555323", "id_url": "https://www.openstreetmap.org/edit?editor=id&way=1231555323#map=20/59.9251547/10.7166715"}}, {"type": "Feature", "geometry": {"type": "Point", "coordinates": [10.7168715, 59.9251731]}, "properties": {"id": 1231555324, "feat_type": "way", "quality_categories": "crossings_lacking_kerbs, missing_tags, wrong_mispelled_or_unlisted_values", "issue_ids": "[0, 3, 9]", "osm_url": "https://www.openstreetmap.org/way/1231555324", "josm_url": "http://127.0.0.1:8111/load_object?new_layer=false&objects=w1231555324", "id_url": "https://www.openstreetmap.org/edit?editor=id&way=1231555324#map=20/59.9251731/10.7168715"}}, {"type": "Feature", "geometry": {"type": "Point", "coordinates": [10.7168702, 59.9252596]}, "properties": {"id": 1231555325, "feat_type": "way", "quality_categories": "crossings_lacking_kerbs, missing_tags, wrong_mispelled_or_unlisted_values", "issue_ids": "[0, 3, 9]", "osm_url": "https://www.openstreetmap.org/way/1231555325", "josm_url": "http://127.0.0.1:8111/load_object?new_layer=false&objects=w1231555325", "id_url": "https://www.openstreetmap.org/edit?editor=id&way=1231555325#map=20/59.9252596/10.7168702"}}, {"type": "Feature", "geometry": {"type": "Point", "coordinates": [10.7199267, 59.9208068]}, "properties": {"id": 1286411327, "feat_type": "way", "quality_categories": "crossings_lacking_kerbs, wrong_mispelled_or_unlisted_values", "issue_ids": "[0, 9]", "osm_url": "https://www.openstreetmap.org/way/1286411327", "josm_url": "http://127.0.0.1:8111/load_object?new_layer=false&objects=w1286411327", "id_url": "https://www.openstreetmap.org/edit?editor=id&way=1286411327#map=20/59.9208068/10.7199267"}}, {"type": "Feature", "geometry": {"type": "Point", "coordinates": [10.8215806, 59.9130218]}, "properties": {"id": 1338599955, "feat_type": "way", "quality_categories": "crossings_lacking_kerbs, wrong_mispelled_or_unlisted_values", "issue_ids": "[0, 9]", "osm_url": "https://www.openstreetmap.org/way/1338599955", "josm_url": "http://127.0.0.1:8111/load_object?new_layer=false&objects=w1338599955", "id_url": "https://www.openstreetmap.org/edit?editor=id&way=1338599955#map=20/59.9130218/10.8215806"}}]}