{"type": "FeatureCollection", "features": [{"type": "Feature", "geometry": {"type": "Point", "coordinates": [10.762602395312495, 59.9289795]}, "properties": {"id": 87655212, "feat_type": "way", "quality_categories": "improper_keys, missing_tags", "issue_ids": "[0, 1]", "osm_url": "https://www.openstreetmap.org/way/87655212", "josm_url": "http://127.0.0.1:8111/load_object?new_layer=false&objects=w87655212", "id_url": "https://www.openstreetmap.org/edit?editor=id&way=87655212#map=20/59.9289795/10.762602395312495"}}, {"type": "Feature", "geometry": {"type": "Point", "coordinates": [10.735982027834314, 59.95028]}, "properties": {"id": 268230648, "feat_type": "way", "quality_categories": "improper_keys", "issue_ids": "[2]", "osm_url": "https://www.openstreetmap.org/way/268230648", "josm_url": "http://127.0.0.1:8111/load_object?new_layer=false&objects=w268230648", "id_url": "https://www.openstreetmap.org/edit?editor=id&way=268230648#map=20/59.95028/10.735982027834314"}}]}