{"type": "FeatureCollection", "features": [{"type": "Feature", "geometry": {"type": "Point", "coordinates": [10.6759805, 59.9846288]}, "properties": {"id": 26228778, "feat_type": "way", "quality_categories": "invalid_characters", "issue_ids": "[0]", "osm_url": "https://www.openstreetmap.org/way/26228778", "josm_url": "http://127.0.0.1:8111/load_object?new_layer=false&objects=w26228778", "id_url": "https://www.openstreetmap.org/edit?editor=id&way=26228778#map=20/59.9846288/10.6759805"}}, {"type": "Feature", "geometry": {"type": "Point", "coordinates": [10.842784, 59.9702368]}, "properties": {"id": 27222214, "feat_type": "way", "quality_categories": "invalid_characters", "issue_ids": "[1]", "osm_url": "https://www.openstreetmap.org/way/27222214", "josm_url": "http://127.0.0.1:8111/load_object?new_layer=false&objects=w27222214", "id_url": "https://www.openstreetmap.org/edit?editor=id&way=27222214#map=20/59.9702368/10.842784"}}, {"type": "Feature", "geometry": {"type": "Point", "coordinates": [10.7696374, 60.0321358]}, "properties": {"id": 42737200, "feat_type": "way", "quality_categories": "invalid_characters", "issue_ids": "[2]", "osm_url": "https://www.openstreetmap.org/way/42737200", "josm_url": "http://127.0.0.1:8111/load_object?new_layer=false&objects=w42737200", "id_url": "https://www.openstreetmap.org/edit?editor=id&way=42737200#map=20/60.0321358/10.7696374"}}, {"type": "Feature", "geometry": {"type": "Point", "coordinates": [10.5627153, 59.994282]}, "properties": {"id": 47368723, "feat_type": "way", "quality_categories": "invalid_characters, missing_tags, older_than_five_years", "issue_ids": "[3, 4, 5]", "osm_url": "https://www.openstreetmap.org/way/47368723", "josm_url": "http://127.0.0.1:8111/load_object?new_layer=false&objects=w47368723", "id_url": "https://www.openstreetmap.org/edit?editor=id&way=47368723#map=20/59.994282/10.5627153"}}, {"type": "Feature", "geometry": {"type": "Point", "coordinates": [10.7581901, 60.0010407]}, "properties": {"id": 65582884, "feat_type": "way", "quality_categories": "invalid_characters, older_than_five_years", "issue_ids": "[2, 6]", "osm_url": "https://www.openstreetmap.org/way/65582884", "josm_url": "http://127.0.0.1:8111/load_object?new_layer=false&objects=w65582884", "id_url": "https://www.openstreetmap.org/edit?editor=id&way=65582884#map=20/60.0010407/10.7581901"}}, {"type": "Feature", "geometry": {"type": "Point", "coordinates": [10.8068151, 59.9857202]}, "properties": {"id": 89272410, "feat_type": "way", "quality_categories": "invalid_characters, older_than_five_years", "issue_ids": "[7, 8]", "osm_url": "https://www.openstreetmap.org/way/89272410", "josm_url": "http://127.0.0.1:8111/load_object?new_layer=false&objects=w89272410", "id_url": "https://www.openstreetmap.org/edit?editor=id&way=89272410#map=20/59.9857202/10.8068151"}}, {"type": "Feature", "geometry": {"type": "Point", "coordinates": [10.8466674, 59.9679508]}, "properties": {"id": 95684226, "feat_type": "way", "quality_categories": "invalid_characters", "issue_ids": "[1]", "osm_url": "https://www.openstreetmap.org/way/95684226", "josm_url": "http://127.0.0.1:8111/load_object?new_layer=false&objects=w95684226", "id_url": "https://www.openstreetmap.org/edit?editor=id&way=95684226#map=20/59.9679508/10.8466674"}}, {"type": "Feature", "geometry": {"type": "Point", "coordinates": [10.7828967, 60.0153648]}, "properties": {"id": 101318475, "feat_type": "way", "quality_categories": "invalid_characters, missing_tags, older_than_five_years", "issue_ids": "[2, 9, 5]", "osm_url": "https://www.openstreetmap.org/way/101318475", "josm_url": "http://127.0.0.1:8111/load_object?new_layer=false&objects=w101318475", "id_url": "https://www.openstreetmap.org/edit?editor=id&way=101318475#map=20/60.0153648/10.7828967"}}, {"type": "Feature", "geometry": {"type": "Point", "coordinates": [10.7899545, 59.9991954]}, "properties": {"id": 101318491, "feat_type": "way", "quality_categories": "invalid_characters, older_than_five_years", "issue_ids": "[2, 10]", "osm_url": "https://www.openstreetmap.org/way/101318491", "josm_url": "http://127.0.0.1:8111/load_object?new_layer=false&objects=w101318491", "id_url": "https://www.openstreetmap.org/edit?editor=id&way=101318491#map=20/59.9991954/10.7899545"}}, {"type": "Feature", "geometry": {"type": "Point", "coordinates": [10.7537776, 59.9989228]}, "properties": {"id": 101318496, "feat_type": "way", "quality_categories": "invalid_characters", "issue_ids": "[2]", "osm_url": "https://www.openstreetmap.org/way/101318496", "josm_url": "http://127.0.0.1:8111/load_object?new_layer=false&objects=w101318496", "id_url": "https://www.openstreetmap.org/edit?editor=id&way=101318496#map=20/59.9989228/10.7537776"}}, {"type": "Feature", "geometry": {"type": "Point", "coordinates": [10.892599, 59.9586742]}, "properties": {"id": 110064706, "feat_type": "way", "quality_categories": "invalid_characters, missing_tags, older_than_five_years", "issue_ids": "[11, 12, 5]", "osm_url": "https://www.openstreetmap.org/way/110064706", "josm_url": "http://127.0.0.1:8111/load_object?new_layer=false&objects=w110064706", "id_url": "https://www.openstreetmap.org/edit?editor=id&way=110064706#map=20/59.9586742/10.892599"}}, {"type": "Feature", "geometry": {"type": "Point", "coordinates": [10.8028279, 59.9057051]}, "properties": {"id": 113281394, "feat_type": "way", "quality_categories": "invalid_characters", "issue_ids": "[13]", "osm_url": "https://www.openstreetmap.org/way/113281394", "josm_url": "http://127.0.0.1:8111/load_object?new_layer=false&objects=w113281394", "id_url": "https://www.openstreetmap.org/edit?editor=id&way=113281394#map=20/59.9057051/10.8028279"}}, {"type": "Feature", "geometry": {"type": "Point", "coordinates": [10.8350416, 59.9595938]}, "properties": {"id": 116021434, "feat_type": "way", "quality_categories": "invalid_characters, older_than_five_years", "issue_ids": "[14, 15]", "osm_url": "https://www.openstreetmap.org/way/116021434", "josm_url": "http://127.0.0.1:8111/load_object?new_layer=false&objects=w116021434", "id_url": "https://www.openstreetmap.org/edit?editor=id&way=116021434#map=20/59.9595938/10.8350416"}}, {"type": "Feature", "geometry": {"type": "Point", "coordinates": [10.7913228, 60.0000006]}, "properties": {"id": 122069430, "feat_type": "way", "quality_categories": "invalid_characters, older_than_five_years", "issue_ids": "[2, 10]", "osm_url": "https://www.openstreetmap.org/way/122069430", "josm_url": "http://127.0.0.1:8111/load_object?new_layer=false&objects=w122069430", "id_url": "https://www.openstreetmap.org/edit?editor=id&way=122069430#map=20/60.0000006/10.7913228"}}, {"type": "Feature", "geometry": {"type": "Point", "coordinates": [10.785078, 60.0149237]}, "properties": {"id": 122192492, "feat_type": "way", "quality_categories": "invalid_characters, missing_tags, older_than_five_years", "issue_ids": "[2, 9, 5]", "osm_url": "https://www.openstreetmap.org/way/122192492", "josm_url": "http://127.0.0.1:8111/load_object?new_layer=false&objects=w122192492", "id_url": "https://www.openstreetmap.org/edit?editor=id&way=122192492#map=20/60.0149237/10.785078"}}, {"type": "Feature", "geometry": {"type": "Point", "coordinates": [10.7503405, 59.9991207]}, "properties": {"id": 122595319, "feat_type": "way", "quality_categories": "invalid_characters", "issue_ids": "[2]", "osm_url": "https://www.openstreetmap.org/way/122595319", "josm_url": "http://127.0.0.1:8111/load_object?new_layer=false&objects=w122595319", "id_url": "https://www.openstreetmap.org/edit?editor=id&way=122595319#map=20/59.9991207/10.7503405"}}, {"type": "Feature", "geometry": {"type": "Point", "coordinates": [10.8024489, 59.9875865]}, "properties": {"id": 124915947, "feat_type": "way", "quality_categories": "invalid_characters", "issue_ids": "[16]", "osm_url": "https://www.openstreetmap.org/way/124915947", "josm_url": "http://127.0.0.1:8111/load_object?new_layer=false&objects=w124915947", "id_url": "https://www.openstreetmap.org/edit?editor=id&way=124915947#map=20/59.9875865/10.8024489"}}, {"type": "Feature", "geometry": {"type": "Point", "coordinates": [10.7944053, 60.0218072]}, "properties": {"id": 138961140, "feat_type": "way", "quality_categories": "invalid_characters, missing_tags", "issue_ids": "[2, 5]", "osm_url": "https://www.openstreetmap.org/way/138961140", "josm_url": "http://127.0.0.1:8111/load_object?new_layer=false&objects=w138961140", "id_url": "https://www.openstreetmap.org/edit?editor=id&way=138961140#map=20/60.0218072/10.7944053"}}, {"type": "Feature", "geometry": {"type": "Point", "coordinates": [10.7460081, 59.9965611]}, "properties": {"id": 148388393, "feat_type": "way", "quality_categories": "invalid_characters, older_than_five_years", "issue_ids": "[2, 17]", "osm_url": "https://www.openstreetmap.org/way/148388393", "josm_url": "http://127.0.0.1:8111/load_object?new_layer=false&objects=w148388393", "id_url": "https://www.openstreetmap.org/edit?editor=id&way=148388393#map=20/59.9965611/10.7460081"}}, {"type": "Feature", "geometry": {"type": "Point", "coordinates": [10.6765588, 59.9692443]}, "properties": {"id": 170000295, "feat_type": "way", "quality_categories": "invalid_characters", "issue_ids": "[18]", "osm_url": "https://www.openstreetmap.org/way/170000295", "josm_url": "http://127.0.0.1:8111/load_object?new_layer=false&objects=w170000295", "id_url": "https://www.openstreetmap.org/edit?editor=id&way=170000295#map=20/59.9692443/10.6765588"}}, {"type": "Feature", "geometry": {"type": "Point", "coordinates": [10.6778172, 59.9671176]}, "properties": {"id": 172844490, "feat_type": "way", "quality_categories": "invalid_characters", "issue_ids": "[18]", "osm_url": "https://www.openstreetmap.org/way/172844490", "josm_url": "http://127.0.0.1:8111/load_object?new_layer=false&objects=w172844490", "id_url": "https://www.openstreetmap.org/edit?editor=id&way=172844490#map=20/59.9671176/10.6778172"}}, {"type": "Feature", "geometry": {"type": "Point", "coordinates": [10.6755333, 59.9701314]}, "properties": {"id": 172844503, "feat_type": "way", "quality_categories": "invalid_characters", "issue_ids": "[18]", "osm_url": "https://www.openstreetmap.org/way/172844503", "josm_url": "http://127.0.0.1:8111/load_object?new_layer=false&objects=w172844503", "id_url": "https://www.openstreetmap.org/edit?editor=id&way=172844503#map=20/59.9701314/10.6755333"}}, {"type": "Feature", "geometry": {"type": "Point", "coordinates": [10.6777271, 59.9677429]}, "properties": {"id": 172993636, "feat_type": "way", "quality_categories": "invalid_characters", "issue_ids": "[18]", "osm_url": "https://www.openstreetmap.org/way/172993636", "josm_url": "http://127.0.0.1:8111/load_object?new_layer=false&objects=w172993636", "id_url": "https://www.openstreetmap.org/edit?editor=id&way=172993636#map=20/59.9677429/10.6777271"}}, {"type": "Feature", "geometry": {"type": "Point", "coordinates": [10.7593329, 60.0018499]}, "properties": {"id": 173229976, "feat_type": "way", "quality_categories": "invalid_characters, older_than_five_years", "issue_ids": "[2, 6]", "osm_url": "https://www.openstreetmap.org/way/173229976", "josm_url": "http://127.0.0.1:8111/load_object?new_layer=false&objects=w173229976", "id_url": "https://www.openstreetmap.org/edit?editor=id&way=173229976#map=20/60.0018499/10.7593329"}}, {"type": "Feature", "geometry": {"type": "Point", "coordinates": [10.7577053, 59.8946733]}, "properties": {"id": 255703542, "feat_type": "way", "quality_categories": "invalid_characters", "issue_ids": "[19]", "osm_url": "https://www.openstreetmap.org/way/255703542", "josm_url": "http://127.0.0.1:8111/load_object?new_layer=false&objects=w255703542", "id_url": "https://www.openstreetmap.org/edit?editor=id&way=255703542#map=20/59.8946733/10.7577053"}}, {"type": "Feature", "geometry": {"type": "Point", "coordinates": [10.8361425, 59.9602479]}, "properties": {"id": 315347502, "feat_type": "way", "quality_categories": "invalid_characters, older_than_five_years", "issue_ids": "[14, 15]", "osm_url": "https://www.openstreetmap.org/way/315347502", "josm_url": "http://127.0.0.1:8111/load_object?new_layer=false&objects=w315347502", "id_url": "https://www.openstreetmap.org/edit?editor=id&way=315347502#map=20/59.9602479/10.8361425"}}, {"type": "Feature", "geometry": {"type": "Point", "coordinates": [10.7874473, 60.0145289]}, "properties": {"id": 369691598, "feat_type": "way", "quality_categories": "invalid_characters, missing_tags, older_than_five_years", "issue_ids": "[2, 20, 5]", "osm_url": "https://www.openstreetmap.org/way/369691598", "josm_url": "http://127.0.0.1:8111/load_object?new_layer=false&objects=w369691598", "id_url": "https://www.openstreetmap.org/edit?editor=id&way=369691598#map=20/60.0145289/10.7874473"}}, {"type": "Feature", "geometry": {"type": "Point", "coordinates": [10.5865961, 59.9816971]}, "properties": {"id": 736764107, "feat_type": "way", "quality_categories": "invalid_characters, missing_tags, older_than_five_years", "issue_ids": "[3, 21, 5]", "osm_url": "https://www.openstreetmap.org/way/736764107", "josm_url": "http://127.0.0.1:8111/load_object?new_layer=false&objects=w736764107", "id_url": "https://www.openstreetmap.org/edit?editor=id&way=736764107#map=20/59.9816971/10.5865961"}}, {"type": "Feature", "geometry": {"type": "Point", "coordinates": [10.7875595, 60.014755]}, "properties": {"id": 750263326, "feat_type": "way", "quality_categories": "invalid_characters, missing_tags, older_than_five_years", "issue_ids": "[2, 22, 5]", "osm_url": "https://www.openstreetmap.org/way/750263326", "josm_url": "http://127.0.0.1:8111/load_object?new_layer=false&objects=w750263326", "id_url": "https://www.openstreetmap.org/edit?editor=id&way=750263326#map=20/60.014755/10.7875595"}}, {"type": "Feature", "geometry": {"type": "Point", "coordinates": [10.6757766, 59.9697187]}, "properties": {"id": 801756180, "feat_type": "way", "quality_categories": "invalid_characters, missing_tags, older_than_five_years", "issue_ids": "[18, 23, 5]", "osm_url": "https://www.openstreetmap.org/way/801756180", "josm_url": "http://127.0.0.1:8111/load_object?new_layer=false&objects=w801756180", "id_url": "https://www.openstreetmap.org/edit?editor=id&way=801756180#map=20/59.9697187/10.6757766"}}, {"type": "Feature", "geometry": {"type": "Point", "coordinates": [10.6757766, 59.9697187]}, "properties": {"id": 801756181, "feat_type": "way", "quality_categories": "invalid_characters, missing_tags, older_than_five_years", "issue_ids": "[18, 23, 5]", "osm_url": "https://www.openstreetmap.org/way/801756181", "josm_url": "http://127.0.0.1:8111/load_object?new_layer=false&objects=w801756181", "id_url": "https://www.openstreetmap.org/edit?editor=id&way=801756181#map=20/59.9697187/10.6757766"}}, {"type": "Feature", "geometry": {"type": "Point", "coordinates": [10.7281291, 59.8955108]}, "properties": {"id": 813717264, "feat_type": "way", "quality_categories": "invalid_characters, missing_tags", "issue_ids": "[24, 5]", "osm_url": "https://www.openstreetmap.org/way/813717264", "josm_url": "http://127.0.0.1:8111/load_object?new_layer=false&objects=w813717264", "id_url": "https://www.openstreetmap.org/edit?editor=id&way=813717264#map=20/59.8955108/10.7281291"}}, {"type": "Feature", "geometry": {"type": "Point", "coordinates": [10.7282018, 59.895467]}, "properties": {"id": 813717266, "feat_type": "way", "quality_categories": "invalid_characters", "issue_ids": "[24]", "osm_url": "https://www.openstreetmap.org/way/813717266", "josm_url": "http://127.0.0.1:8111/load_object?new_layer=false&objects=w813717266", "id_url": "https://www.openstreetmap.org/edit?editor=id&way=813717266#map=20/59.895467/10.7282018"}}, {"type": "Feature", "geometry": {"type": "Point", "coordinates": [10.8041579, 59.9485549]}, "properties": {"id": 844695471, "feat_type": "way", "quality_categories": "invalid_characters, older_than_five_years", "issue_ids": "[25, 15]", "osm_url": "https://www.openstreetmap.org/way/844695471", "josm_url": "http://127.0.0.1:8111/load_object?new_layer=false&objects=w844695471", "id_url": "https://www.openstreetmap.org/edit?editor=id&way=844695471#map=20/59.9485549/10.8041579"}}, {"type": "Feature", "geometry": {"type": "Point", "coordinates": [10.7948483, 60.0178348]}, "properties": {"id": 847728634, "feat_type": "way", "quality_categories": "invalid_characters, missing_tags, older_than_five_years", "issue_ids": "[2, 26, 5]", "osm_url": "https://www.openstreetmap.org/way/847728634", "josm_url": "http://127.0.0.1:8111/load_object?new_layer=false&objects=w847728634", "id_url": "https://www.openstreetmap.org/edit?editor=id&way=847728634#map=20/60.0178348/10.7948483"}}, {"type": "Feature", "geometry": {"type": "Point", "coordinates": [10.7569397, 59.9998087]}, "properties": {"id": 883240626, "feat_type": "way", "quality_categories": "invalid_characters", "issue_ids": "[2]", "osm_url": "https://www.openstreetmap.org/way/883240626", "josm_url": "http://127.0.0.1:8111/load_object?new_layer=false&objects=w883240626", "id_url": "https://www.openstreetmap.org/edit?editor=id&way=883240626#map=20/59.9998087/10.7569397"}}, {"type": "Feature", "geometry": {"type": "Point", "coordinates": [10.8368393, 59.9220617]}, "properties": {"id": 1040867752, "feat_type": "way", "quality_categories": "invalid_characters", "issue_ids": "[27]", "osm_url": "https://www.openstreetmap.org/way/1040867752", "josm_url": "http://127.0.0.1:8111/load_object?new_layer=false&objects=w1040867752", "id_url": "https://www.openstreetmap.org/edit?editor=id&way=1040867752#map=20/59.9220617/10.8368393"}}, {"type": "Feature", "geometry": {"type": "Point", "coordinates": [10.72306, 59.9470178]}, "properties": {"id": 1050849225, "feat_type": "way", "quality_categories": "invalid_characters, missing_tags", "issue_ids": "[28, 5]", "osm_url": "https://www.openstreetmap.org/way/1050849225", "josm_url": "http://127.0.0.1:8111/load_object?new_layer=false&objects=w1050849225", "id_url": "https://www.openstreetmap.org/edit?editor=id&way=1050849225#map=20/59.9470178/10.72306"}}, {"type": "Feature", "geometry": {"type": "Point", "coordinates": [10.7224457, 59.9464796]}, "properties": {"id": 1050849227, "feat_type": "way", "quality_categories": "invalid_characters, missing_tags", "issue_ids": "[29, 5]", "osm_url": "https://www.openstreetmap.org/way/1050849227", "josm_url": "http://127.0.0.1:8111/load_object?new_layer=false&objects=w1050849227", "id_url": "https://www.openstreetmap.org/edit?editor=id&way=1050849227#map=20/59.9464796/10.7224457"}}, {"type": "Feature", "geometry": {"type": "Point", "coordinates": [10.8060032, 59.9856431]}, "properties": {"id": 1219574892, "feat_type": "way", "quality_categories": "invalid_characters", "issue_ids": "[30]", "osm_url": "https://www.openstreetmap.org/way/1219574892", "josm_url": "http://127.0.0.1:8111/load_object?new_layer=false&objects=w1219574892", "id_url": "https://www.openstreetmap.org/edit?editor=id&way=1219574892#map=20/59.9856431/10.8060032"}}, {"type": "Feature", "geometry": {"type": "Point", "coordinates": [10.7689113, 59.8853298]}, "properties": {"id": 1375148728, "feat_type": "way", "quality_categories": "invalid_characters, missing_tags", "issue_ids": "[31, 5]", "osm_url": "https://www.openstreetmap.org/way/1375148728", "josm_url": "http://127.0.0.1:8111/load_object?new_layer=false&objects=w1375148728", "id_url": "https://www.openstreetmap.org/edit?editor=id&way=1375148728#map=20/59.8853298/10.7689113"}}, {"type": "Feature", "geometry": {"type": "Point", "coordinates": [10.7592667, 59.8935538]}, "properties": {"id": 1375148731, "feat_type": "way", "quality_categories": "invalid_characters, missing_tags", "issue_ids": "[32, 5]", "osm_url": "https://www.openstreetmap.org/way/1375148731", "josm_url": "http://127.0.0.1:8111/load_object?new_layer=false&objects=w1375148731", "id_url": "https://www.openstreetmap.org/edit?editor=id&way=1375148731#map=20/59.8935538/10.7592667"}}, {"type": "Feature", "geometry": {"type": "Point", "coordinates": [10.8015912, 59.9048]}, "properties": {"id": 1527826111, "feat_type": "way", "quality_categories": "invalid_characters", "issue_ids": "[33]", "osm_url": "https://www.openstreetmap.org/way/1527826111", "josm_url": "http://127.0.0.1:8111/load_object?new_layer=false&objects=w1527826111", "id_url": "https://www.openstreetmap.org/edit?editor=id&way=1527826111#map=20/59.9048/10.8015912"}}]}