{"type": "FeatureCollection", "features": [{"type": "Feature", "geometry": {"type": "Point", "coordinates": [10.6417565, 59.9483447]}, "properties": {"id": 876289359, "feat_type": "node", "quality_categories": "keys_without_wiki, missing_tags", "issue_ids": "[0, 1]", "osm_url": "https://www.openstreetmap.org/node/876289359", "josm_url": "http://127.0.0.1:8111/load_object?new_layer=false&objects=n876289359", "id_url": "https://www.openstreetmap.org/edit?editor=id&node=876289359#map=20/59.9483447/10.6417565"}}, {"type": "Feature", "geometry": {"type": "Point", "coordinates": [10.672453, 59.9636706]}, "properties": {"id": 4348640, "feat_type": "way", "quality_categories": "keys_without_wiki", "issue_ids": "[2]", "osm_url": "https://www.openstreetmap.org/way/4348640", "josm_url": "http://127.0.0.1:8111/load_object?new_layer=false&objects=w4348640", "id_url": "https://www.openstreetmap.org/edit?editor=id&way=4348640#map=20/59.9636706/10.672453"}}, {"type": "Feature", "geometry": {"type": "Point", "coordinates": [10.6738825, 59.9639207]}, "properties": {"id": 81147228, "feat_type": "way", "quality_categories": "keys_without_wiki", "issue_ids": "[2]", "osm_url": "https://www.openstreetmap.org/way/81147228", "josm_url": "http://127.0.0.1:8111/load_object?new_layer=false&objects=w81147228", "id_url": "https://www.openstreetmap.org/edit?editor=id&way=81147228#map=20/59.9639207/10.6738825"}}, {"type": "Feature", "geometry": {"type": "Point", "coordinates": [10.6736895, 59.967652]}, "properties": {"id": 81147233, "feat_type": "way", "quality_categories": "keys_without_wiki", "issue_ids": "[2]", "osm_url": "https://www.openstreetmap.org/way/81147233", "josm_url": "http://127.0.0.1:8111/load_object?new_layer=false&objects=w81147233", "id_url": "https://www.openstreetmap.org/edit?editor=id&way=81147233#map=20/59.967652/10.6736895"}}, {"type": "Feature", "geometry": {"type": "Point", "coordinates": [10.6700353, 59.9660597]}, "properties": {"id": 81164194, "feat_type": "way", "quality_categories": "keys_without_wiki", "issue_ids": "[2]", "osm_url": "https://www.openstreetmap.org/way/81164194", "josm_url": "http://127.0.0.1:8111/load_object?new_layer=false&objects=w81164194", "id_url": "https://www.openstreetmap.org/edit?editor=id&way=81164194#map=20/59.9660597/10.6700353"}}, {"type": "Feature", "geometry": {"type": "Point", "coordinates": [10.6654716, 59.9665318]}, "properties": {"id": 81164196, "feat_type": "way", "quality_categories": "keys_without_wiki", "issue_ids": "[2]", "osm_url": "https://www.openstreetmap.org/way/81164196", "josm_url": "http://127.0.0.1:8111/load_object?new_layer=false&objects=w81164196", "id_url": "https://www.openstreetmap.org/edit?editor=id&way=81164196#map=20/59.9665318/10.6654716"}}, {"type": "Feature", "geometry": {"type": "Point", "coordinates": [10.6685871, 59.9662701]}, "properties": {"id": 81164214, "feat_type": "way", "quality_categories": "keys_without_wiki", "issue_ids": "[2]", "osm_url": "https://www.openstreetmap.org/way/81164214", "josm_url": "http://127.0.0.1:8111/load_object?new_layer=false&objects=w81164214", "id_url": "https://www.openstreetmap.org/edit?editor=id&way=81164214#map=20/59.9662701/10.6685871"}}, {"type": "Feature", "geometry": {"type": "Point", "coordinates": [10.6753944, 59.9691711]}, "properties": {"id": 81176378, "feat_type": "way", "quality_categories": "keys_without_wiki", "issue_ids": "[2]", "osm_url": "https://www.openstreetmap.org/way/81176378", "josm_url": "http://127.0.0.1:8111/load_object?new_layer=false&objects=w81176378", "id_url": "https://www.openstreetmap.org/edit?editor=id&way=81176378#map=20/59.9691711/10.6753944"}}, {"type": "Feature", "geometry": {"type": "Point", "coordinates": [10.6744759, 59.9683677]}, "properties": {"id": 81176381, "feat_type": "way", "quality_categories": "keys_without_wiki", "issue_ids": "[2]", "osm_url": "https://www.openstreetmap.org/way/81176381", "josm_url": "http://127.0.0.1:8111/load_object?new_layer=false&objects=w81176381", "id_url": "https://www.openstreetmap.org/edit?editor=id&way=81176381#map=20/59.9683677/10.6744759"}}, {"type": "Feature", "geometry": {"type": "Point", "coordinates": [10.8026962, 59.9827837]}, "properties": {"id": 83832177, "feat_type": "way", "quality_categories": "keys_without_wiki", "issue_ids": "[3]", "osm_url": "https://www.openstreetmap.org/way/83832177", "josm_url": "http://127.0.0.1:8111/load_object?new_layer=false&objects=w83832177", "id_url": "https://www.openstreetmap.org/edit?editor=id&way=83832177#map=20/59.9827837/10.8026962"}}, {"type": "Feature", "geometry": {"type": "Point", "coordinates": [10.8329577, 59.8232217]}, "properties": {"id": 87829275, "feat_type": "way", "quality_categories": "keys_without_wiki", "issue_ids": "[2]", "osm_url": "https://www.openstreetmap.org/way/87829275", "josm_url": "http://127.0.0.1:8111/load_object?new_layer=false&objects=w87829275", "id_url": "https://www.openstreetmap.org/edit?editor=id&way=87829275#map=20/59.8232217/10.8329577"}}, {"type": "Feature", "geometry": {"type": "Point", "coordinates": [10.8329846, 59.8261584]}, "properties": {"id": 87829308, "feat_type": "way", "quality_categories": "keys_without_wiki", "issue_ids": "[2]", "osm_url": "https://www.openstreetmap.org/way/87829308", "josm_url": "http://127.0.0.1:8111/load_object?new_layer=false&objects=w87829308", "id_url": "https://www.openstreetmap.org/edit?editor=id&way=87829308#map=20/59.8261584/10.8329846"}}, {"type": "Feature", "geometry": {"type": "Point", "coordinates": [10.8324989, 59.8271013]}, "properties": {"id": 87829327, "feat_type": "way", "quality_categories": "keys_without_wiki", "issue_ids": "[2]", "osm_url": "https://www.openstreetmap.org/way/87829327", "josm_url": "http://127.0.0.1:8111/load_object?new_layer=false&objects=w87829327", "id_url": "https://www.openstreetmap.org/edit?editor=id&way=87829327#map=20/59.8271013/10.8324989"}}, {"type": "Feature", "geometry": {"type": "Point", "coordinates": [10.6720354, 59.9624657]}, "properties": {"id": 99405841, "feat_type": "way", "quality_categories": "keys_without_wiki", "issue_ids": "[2]", "osm_url": "https://www.openstreetmap.org/way/99405841", "josm_url": "http://127.0.0.1:8111/load_object?new_layer=false&objects=w99405841", "id_url": "https://www.openstreetmap.org/edit?editor=id&way=99405841#map=20/59.9624657/10.6720354"}}, {"type": "Feature", "geometry": {"type": "Point", "coordinates": [10.6729636, 59.9642972]}, "properties": {"id": 99405901, "feat_type": "way", "quality_categories": "keys_without_wiki", "issue_ids": "[2]", "osm_url": "https://www.openstreetmap.org/way/99405901", "josm_url": "http://127.0.0.1:8111/load_object?new_layer=false&objects=w99405901", "id_url": "https://www.openstreetmap.org/edit?editor=id&way=99405901#map=20/59.9642972/10.6729636"}}, {"type": "Feature", "geometry": {"type": "Point", "coordinates": [10.6714675, 59.9637831]}, "properties": {"id": 99405960, "feat_type": "way", "quality_categories": "keys_without_wiki", "issue_ids": "[2]", "osm_url": "https://www.openstreetmap.org/way/99405960", "josm_url": "http://127.0.0.1:8111/load_object?new_layer=false&objects=w99405960", "id_url": "https://www.openstreetmap.org/edit?editor=id&way=99405960#map=20/59.9637831/10.6714675"}}, {"type": "Feature", "geometry": {"type": "Point", "coordinates": [10.6649188, 59.9665471]}, "properties": {"id": 102482049, "feat_type": "way", "quality_categories": "keys_without_wiki", "issue_ids": "[2]", "osm_url": "https://www.openstreetmap.org/way/102482049", "josm_url": "http://127.0.0.1:8111/load_object?new_layer=false&objects=w102482049", "id_url": "https://www.openstreetmap.org/edit?editor=id&way=102482049#map=20/59.9665471/10.6649188"}}, {"type": "Feature", "geometry": {"type": "Point", "coordinates": [10.665881, 59.967236]}, "properties": {"id": 102661074, "feat_type": "way", "quality_categories": "keys_without_wiki", "issue_ids": "[2]", "osm_url": "https://www.openstreetmap.org/way/102661074", "josm_url": "http://127.0.0.1:8111/load_object?new_layer=false&objects=w102661074", "id_url": "https://www.openstreetmap.org/edit?editor=id&way=102661074#map=20/59.967236/10.665881"}}, {"type": "Feature", "geometry": {"type": "Point", "coordinates": [10.6724016, 59.9643154]}, "properties": {"id": 102662407, "feat_type": "way", "quality_categories": "keys_without_wiki", "issue_ids": "[2]", "osm_url": "https://www.openstreetmap.org/way/102662407", "josm_url": "http://127.0.0.1:8111/load_object?new_layer=false&objects=w102662407", "id_url": "https://www.openstreetmap.org/edit?editor=id&way=102662407#map=20/59.9643154/10.6724016"}}, {"type": "Feature", "geometry": {"type": "Point", "coordinates": [10.6716245, 59.9645512]}, "properties": {"id": 102662410, "feat_type": "way", "quality_categories": "keys_without_wiki", "issue_ids": "[2]", "osm_url": "https://www.openstreetmap.org/way/102662410", "josm_url": "http://127.0.0.1:8111/load_object?new_layer=false&objects=w102662410", "id_url": "https://www.openstreetmap.org/edit?editor=id&way=102662410#map=20/59.9645512/10.6716245"}}, {"type": "Feature", "geometry": {"type": "Point", "coordinates": [10.6720899, 59.9640724]}, "properties": {"id": 102662412, "feat_type": "way", "quality_categories": "keys_without_wiki", "issue_ids": "[2]", "osm_url": "https://www.openstreetmap.org/way/102662412", "josm_url": "http://127.0.0.1:8111/load_object?new_layer=false&objects=w102662412", "id_url": "https://www.openstreetmap.org/edit?editor=id&way=102662412#map=20/59.9640724/10.6720899"}}, {"type": "Feature", "geometry": {"type": "Point", "coordinates": [10.6698429, 59.9651943]}, "properties": {"id": 102793407, "feat_type": "way", "quality_categories": "keys_without_wiki", "issue_ids": "[2]", "osm_url": "https://www.openstreetmap.org/way/102793407", "josm_url": "http://127.0.0.1:8111/load_object?new_layer=false&objects=w102793407", "id_url": "https://www.openstreetmap.org/edit?editor=id&way=102793407#map=20/59.9651943/10.6698429"}}, {"type": "Feature", "geometry": {"type": "Point", "coordinates": [10.6708104, 59.9642589]}, "properties": {"id": 102793411, "feat_type": "way", "quality_categories": "keys_without_wiki", "issue_ids": "[2]", "osm_url": "https://www.openstreetmap.org/way/102793411", "josm_url": "http://127.0.0.1:8111/load_object?new_layer=false&objects=w102793411", "id_url": "https://www.openstreetmap.org/edit?editor=id&way=102793411#map=20/59.9642589/10.6708104"}}, {"type": "Feature", "geometry": {"type": "Point", "coordinates": [10.6731685, 59.9640988]}, "properties": {"id": 102802413, "feat_type": "way", "quality_categories": "keys_without_wiki", "issue_ids": "[2]", "osm_url": "https://www.openstreetmap.org/way/102802413", "josm_url": "http://127.0.0.1:8111/load_object?new_layer=false&objects=w102802413", "id_url": "https://www.openstreetmap.org/edit?editor=id&way=102802413#map=20/59.9640988/10.6731685"}}, {"type": "Feature", "geometry": {"type": "Point", "coordinates": [10.6681299, 59.9674757]}, "properties": {"id": 102811098, "feat_type": "way", "quality_categories": "keys_without_wiki", "issue_ids": "[2]", "osm_url": "https://www.openstreetmap.org/way/102811098", "josm_url": "http://127.0.0.1:8111/load_object?new_layer=false&objects=w102811098", "id_url": "https://www.openstreetmap.org/edit?editor=id&way=102811098#map=20/59.9674757/10.6681299"}}, {"type": "Feature", "geometry": {"type": "Point", "coordinates": [10.6758536, 59.9687396]}, "properties": {"id": 102995268, "feat_type": "way", "quality_categories": "keys_without_wiki", "issue_ids": "[2]", "osm_url": "https://www.openstreetmap.org/way/102995268", "josm_url": "http://127.0.0.1:8111/load_object?new_layer=false&objects=w102995268", "id_url": "https://www.openstreetmap.org/edit?editor=id&way=102995268#map=20/59.9687396/10.6758536"}}, {"type": "Feature", "geometry": {"type": "Point", "coordinates": [10.6736792, 59.9666426]}, "properties": {"id": 102995273, "feat_type": "way", "quality_categories": "keys_without_wiki", "issue_ids": "[2]", "osm_url": "https://www.openstreetmap.org/way/102995273", "josm_url": "http://127.0.0.1:8111/load_object?new_layer=false&objects=w102995273", "id_url": "https://www.openstreetmap.org/edit?editor=id&way=102995273#map=20/59.9666426/10.6736792"}}, {"type": "Feature", "geometry": {"type": "Point", "coordinates": [10.6747408, 59.9696169]}, "properties": {"id": 103177529, "feat_type": "way", "quality_categories": "keys_without_wiki", "issue_ids": "[2]", "osm_url": "https://www.openstreetmap.org/way/103177529", "josm_url": "http://127.0.0.1:8111/load_object?new_layer=false&objects=w103177529", "id_url": "https://www.openstreetmap.org/edit?editor=id&way=103177529#map=20/59.9696169/10.6747408"}}, {"type": "Feature", "geometry": {"type": "Point", "coordinates": [10.6972807, 59.9994669]}, "properties": {"id": 103681326, "feat_type": "way", "quality_categories": "keys_without_wiki", "issue_ids": "[4]", "osm_url": "https://www.openstreetmap.org/way/103681326", "josm_url": "http://127.0.0.1:8111/load_object?new_layer=false&objects=w103681326", "id_url": "https://www.openstreetmap.org/edit?editor=id&way=103681326#map=20/59.9994669/10.6972807"}}, {"type": "Feature", "geometry": {"type": "Point", "coordinates": [10.8789506, 59.9714463]}, "properties": {"id": 104167878, "feat_type": "way", "quality_categories": "keys_without_wiki", "issue_ids": "[2]", "osm_url": "https://www.openstreetmap.org/way/104167878", "josm_url": "http://127.0.0.1:8111/load_object?new_layer=false&objects=w104167878", "id_url": "https://www.openstreetmap.org/edit?editor=id&way=104167878#map=20/59.9714463/10.8789506"}}, {"type": "Feature", "geometry": {"type": "Point", "coordinates": [10.6494641, 59.954913]}, "properties": {"id": 112392767, "feat_type": "way", "quality_categories": "keys_without_wiki, missing_tags", "issue_ids": "[5, 1]", "osm_url": "https://www.openstreetmap.org/way/112392767", "josm_url": "http://127.0.0.1:8111/load_object?new_layer=false&objects=w112392767", "id_url": "https://www.openstreetmap.org/edit?editor=id&way=112392767#map=20/59.954913/10.6494641"}}, {"type": "Feature", "geometry": {"type": "Point", "coordinates": [10.8794877, 59.9723409]}, "properties": {"id": 115933967, "feat_type": "way", "quality_categories": "keys_without_wiki", "issue_ids": "[2]", "osm_url": "https://www.openstreetmap.org/way/115933967", "josm_url": "http://127.0.0.1:8111/load_object?new_layer=false&objects=w115933967", "id_url": "https://www.openstreetmap.org/edit?editor=id&way=115933967#map=20/59.9723409/10.8794877"}}, {"type": "Feature", "geometry": {"type": "Point", "coordinates": [10.879158, 59.9717985]}, "properties": {"id": 115933979, "feat_type": "way", "quality_categories": "keys_without_wiki", "issue_ids": "[2]", "osm_url": "https://www.openstreetmap.org/way/115933979", "josm_url": "http://127.0.0.1:8111/load_object?new_layer=false&objects=w115933979", "id_url": "https://www.openstreetmap.org/edit?editor=id&way=115933979#map=20/59.9717985/10.879158"}}, {"type": "Feature", "geometry": {"type": "Point", "coordinates": [10.6492916, 59.9553774]}, "properties": {"id": 126348617, "feat_type": "way", "quality_categories": "keys_without_wiki, missing_tags", "issue_ids": "[5, 1]", "osm_url": "https://www.openstreetmap.org/way/126348617", "josm_url": "http://127.0.0.1:8111/load_object?new_layer=false&objects=w126348617", "id_url": "https://www.openstreetmap.org/edit?editor=id&way=126348617#map=20/59.9553774/10.6492916"}}, {"type": "Feature", "geometry": {"type": "Point", "coordinates": [10.8335029, 59.8207422]}, "properties": {"id": 130697646, "feat_type": "way", "quality_categories": "keys_without_wiki", "issue_ids": "[2]", "osm_url": "https://www.openstreetmap.org/way/130697646", "josm_url": "http://127.0.0.1:8111/load_object?new_layer=false&objects=w130697646", "id_url": "https://www.openstreetmap.org/edit?editor=id&way=130697646#map=20/59.8207422/10.8335029"}}, {"type": "Feature", "geometry": {"type": "Point", "coordinates": [10.8321377, 59.8277198]}, "properties": {"id": 145688736, "feat_type": "way", "quality_categories": "keys_without_wiki", "issue_ids": "[2]", "osm_url": "https://www.openstreetmap.org/way/145688736", "josm_url": "http://127.0.0.1:8111/load_object?new_layer=false&objects=w145688736", "id_url": "https://www.openstreetmap.org/edit?editor=id&way=145688736#map=20/59.8277198/10.8321377"}}, {"type": "Feature", "geometry": {"type": "Point", "coordinates": [10.6698281, 59.9663081]}, "properties": {"id": 145743004, "feat_type": "way", "quality_categories": "keys_without_wiki", "issue_ids": "[2]", "osm_url": "https://www.openstreetmap.org/way/145743004", "josm_url": "http://127.0.0.1:8111/load_object?new_layer=false&objects=w145743004", "id_url": "https://www.openstreetmap.org/edit?editor=id&way=145743004#map=20/59.9663081/10.6698281"}}, {"type": "Feature", "geometry": {"type": "Point", "coordinates": [10.6732079, 59.9642411]}, "properties": {"id": 145743013, "feat_type": "way", "quality_categories": "keys_without_wiki", "issue_ids": "[2]", "osm_url": "https://www.openstreetmap.org/way/145743013", "josm_url": "http://127.0.0.1:8111/load_object?new_layer=false&objects=w145743013", "id_url": "https://www.openstreetmap.org/edit?editor=id&way=145743013#map=20/59.9642411/10.6732079"}}, {"type": "Feature", "geometry": {"type": "Point", "coordinates": [10.6713182, 59.9647529]}, "properties": {"id": 145743018, "feat_type": "way", "quality_categories": "keys_without_wiki", "issue_ids": "[2]", "osm_url": "https://www.openstreetmap.org/way/145743018", "josm_url": "http://127.0.0.1:8111/load_object?new_layer=false&objects=w145743018", "id_url": "https://www.openstreetmap.org/edit?editor=id&way=145743018#map=20/59.9647529/10.6713182"}}, {"type": "Feature", "geometry": {"type": "Point", "coordinates": [10.6714036, 59.9647624]}, "properties": {"id": 145743020, "feat_type": "way", "quality_categories": "keys_without_wiki", "issue_ids": "[2]", "osm_url": "https://www.openstreetmap.org/way/145743020", "josm_url": "http://127.0.0.1:8111/load_object?new_layer=false&objects=w145743020", "id_url": "https://www.openstreetmap.org/edit?editor=id&way=145743020#map=20/59.9647624/10.6714036"}}, {"type": "Feature", "geometry": {"type": "Point", "coordinates": [10.6733452, 59.9646215]}, "properties": {"id": 145743026, "feat_type": "way", "quality_categories": "keys_without_wiki", "issue_ids": "[2]", "osm_url": "https://www.openstreetmap.org/way/145743026", "josm_url": "http://127.0.0.1:8111/load_object?new_layer=false&objects=w145743026", "id_url": "https://www.openstreetmap.org/edit?editor=id&way=145743026#map=20/59.9646215/10.6733452"}}, {"type": "Feature", "geometry": {"type": "Point", "coordinates": [10.6731835, 59.9644559]}, "properties": {"id": 145743030, "feat_type": "way", "quality_categories": "keys_without_wiki", "issue_ids": "[2]", "osm_url": "https://www.openstreetmap.org/way/145743030", "josm_url": "http://127.0.0.1:8111/load_object?new_layer=false&objects=w145743030", "id_url": "https://www.openstreetmap.org/edit?editor=id&way=145743030#map=20/59.9644559/10.6731835"}}, {"type": "Feature", "geometry": {"type": "Point", "coordinates": [10.6716629, 59.9645815]}, "properties": {"id": 145743033, "feat_type": "way", "quality_categories": "keys_without_wiki", "issue_ids": "[2]", "osm_url": "https://www.openstreetmap.org/way/145743033", "josm_url": "http://127.0.0.1:8111/load_object?new_layer=false&objects=w145743033", "id_url": "https://www.openstreetmap.org/edit?editor=id&way=145743033#map=20/59.9645815/10.6716629"}}, {"type": "Feature", "geometry": {"type": "Point", "coordinates": [10.6730715, 59.9640503]}, "properties": {"id": 145743040, "feat_type": "way", "quality_categories": "keys_without_wiki", "issue_ids": "[2]", "osm_url": "https://www.openstreetmap.org/way/145743040", "josm_url": "http://127.0.0.1:8111/load_object?new_layer=false&objects=w145743040", "id_url": "https://www.openstreetmap.org/edit?editor=id&way=145743040#map=20/59.9640503/10.6730715"}}, {"type": "Feature", "geometry": {"type": "Point", "coordinates": [10.6684219, 59.9646508]}, "properties": {"id": 145743049, "feat_type": "way", "quality_categories": "keys_without_wiki", "issue_ids": "[2]", "osm_url": "https://www.openstreetmap.org/way/145743049", "josm_url": "http://127.0.0.1:8111/load_object?new_layer=false&objects=w145743049", "id_url": "https://www.openstreetmap.org/edit?editor=id&way=145743049#map=20/59.9646508/10.6684219"}}, {"type": "Feature", "geometry": {"type": "Point", "coordinates": [10.6703677, 59.9657946]}, "properties": {"id": 158685490, "feat_type": "way", "quality_categories": "keys_without_wiki", "issue_ids": "[2]", "osm_url": "https://www.openstreetmap.org/way/158685490", "josm_url": "http://127.0.0.1:8111/load_object?new_layer=false&objects=w158685490", "id_url": "https://www.openstreetmap.org/edit?editor=id&way=158685490#map=20/59.9657946/10.6703677"}}, {"type": "Feature", "geometry": {"type": "Point", "coordinates": [10.6641318, 59.9662967]}, "properties": {"id": 158946951, "feat_type": "way", "quality_categories": "keys_without_wiki", "issue_ids": "[2]", "osm_url": "https://www.openstreetmap.org/way/158946951", "josm_url": "http://127.0.0.1:8111/load_object?new_layer=false&objects=w158946951", "id_url": "https://www.openstreetmap.org/edit?editor=id&way=158946951#map=20/59.9662967/10.6641318"}}, {"type": "Feature", "geometry": {"type": "Point", "coordinates": [10.6743586, 59.9654564]}, "properties": {"id": 158946959, "feat_type": "way", "quality_categories": "keys_without_wiki", "issue_ids": "[2]", "osm_url": "https://www.openstreetmap.org/way/158946959", "josm_url": "http://127.0.0.1:8111/load_object?new_layer=false&objects=w158946959", "id_url": "https://www.openstreetmap.org/edit?editor=id&way=158946959#map=20/59.9654564/10.6743586"}}, {"type": "Feature", "geometry": {"type": "Point", "coordinates": [10.6738986, 59.9655618]}, "properties": {"id": 158946969, "feat_type": "way", "quality_categories": "keys_without_wiki", "issue_ids": "[2]", "osm_url": "https://www.openstreetmap.org/way/158946969", "josm_url": "http://127.0.0.1:8111/load_object?new_layer=false&objects=w158946969", "id_url": "https://www.openstreetmap.org/edit?editor=id&way=158946969#map=20/59.9655618/10.6738986"}}, {"type": "Feature", "geometry": {"type": "Point", "coordinates": [10.6736418, 59.9642142]}, "properties": {"id": 158946972, "feat_type": "way", "quality_categories": "keys_without_wiki", "issue_ids": "[2]", "osm_url": "https://www.openstreetmap.org/way/158946972", "josm_url": "http://127.0.0.1:8111/load_object?new_layer=false&objects=w158946972", "id_url": "https://www.openstreetmap.org/edit?editor=id&way=158946972#map=20/59.9642142/10.6736418"}}, {"type": "Feature", "geometry": {"type": "Point", "coordinates": [10.6735185, 59.9648075]}, "properties": {"id": 158946973, "feat_type": "way", "quality_categories": "keys_without_wiki", "issue_ids": "[2]", "osm_url": "https://www.openstreetmap.org/way/158946973", "josm_url": "http://127.0.0.1:8111/load_object?new_layer=false&objects=w158946973", "id_url": "https://www.openstreetmap.org/edit?editor=id&way=158946973#map=20/59.9648075/10.6735185"}}, {"type": "Feature", "geometry": {"type": "Point", "coordinates": [10.6732281, 59.9648338]}, "properties": {"id": 158946979, "feat_type": "way", "quality_categories": "keys_without_wiki", "issue_ids": "[2]", "osm_url": "https://www.openstreetmap.org/way/158946979", "josm_url": "http://127.0.0.1:8111/load_object?new_layer=false&objects=w158946979", "id_url": "https://www.openstreetmap.org/edit?editor=id&way=158946979#map=20/59.9648338/10.6732281"}}, {"type": "Feature", "geometry": {"type": "Point", "coordinates": [10.6710728, 59.9653629]}, "properties": {"id": 159105701, "feat_type": "way", "quality_categories": "keys_without_wiki", "issue_ids": "[2]", "osm_url": "https://www.openstreetmap.org/way/159105701", "josm_url": "http://127.0.0.1:8111/load_object?new_layer=false&objects=w159105701", "id_url": "https://www.openstreetmap.org/edit?editor=id&way=159105701#map=20/59.9653629/10.6710728"}}, {"type": "Feature", "geometry": {"type": "Point", "coordinates": [10.6738243, 59.9634513]}, "properties": {"id": 159200195, "feat_type": "way", "quality_categories": "keys_without_wiki", "issue_ids": "[2]", "osm_url": "https://www.openstreetmap.org/way/159200195", "josm_url": "http://127.0.0.1:8111/load_object?new_layer=false&objects=w159200195", "id_url": "https://www.openstreetmap.org/edit?editor=id&way=159200195#map=20/59.9634513/10.6738243"}}, {"type": "Feature", "geometry": {"type": "Point", "coordinates": [10.8841869, 59.8703843]}, "properties": {"id": 162021737, "feat_type": "way", "quality_categories": "keys_without_wiki, missing_tags, older_than_five_years", "issue_ids": "[6, 7, 1]", "osm_url": "https://www.openstreetmap.org/way/162021737", "josm_url": "http://127.0.0.1:8111/load_object?new_layer=false&objects=w162021737", "id_url": "https://www.openstreetmap.org/edit?editor=id&way=162021737#map=20/59.8703843/10.8841869"}}, {"type": "Feature", "geometry": {"type": "Point", "coordinates": [10.6670661, 59.9666209]}, "properties": {"id": 165237736, "feat_type": "way", "quality_categories": "keys_without_wiki", "issue_ids": "[2]", "osm_url": "https://www.openstreetmap.org/way/165237736", "josm_url": "http://127.0.0.1:8111/load_object?new_layer=false&objects=w165237736", "id_url": "https://www.openstreetmap.org/edit?editor=id&way=165237736#map=20/59.9666209/10.6670661"}}, {"type": "Feature", "geometry": {"type": "Point", "coordinates": [10.6716265, 59.9637537]}, "properties": {"id": 165249275, "feat_type": "way", "quality_categories": "keys_without_wiki", "issue_ids": "[2]", "osm_url": "https://www.openstreetmap.org/way/165249275", "josm_url": "http://127.0.0.1:8111/load_object?new_layer=false&objects=w165249275", "id_url": "https://www.openstreetmap.org/edit?editor=id&way=165249275#map=20/59.9637537/10.6716265"}}, {"type": "Feature", "geometry": {"type": "Point", "coordinates": [10.6688587, 59.9647215]}, "properties": {"id": 165259290, "feat_type": "way", "quality_categories": "keys_without_wiki", "issue_ids": "[2]", "osm_url": "https://www.openstreetmap.org/way/165259290", "josm_url": "http://127.0.0.1:8111/load_object?new_layer=false&objects=w165259290", "id_url": "https://www.openstreetmap.org/edit?editor=id&way=165259290#map=20/59.9647215/10.6688587"}}, {"type": "Feature", "geometry": {"type": "Point", "coordinates": [10.6723668, 59.9636999]}, "properties": {"id": 165284406, "feat_type": "way", "quality_categories": "keys_without_wiki", "issue_ids": "[2]", "osm_url": "https://www.openstreetmap.org/way/165284406", "josm_url": "http://127.0.0.1:8111/load_object?new_layer=false&objects=w165284406", "id_url": "https://www.openstreetmap.org/edit?editor=id&way=165284406#map=20/59.9636999/10.6723668"}}, {"type": "Feature", "geometry": {"type": "Point", "coordinates": [10.6697026, 59.9650717]}, "properties": {"id": 165340926, "feat_type": "way", "quality_categories": "keys_without_wiki", "issue_ids": "[2]", "osm_url": "https://www.openstreetmap.org/way/165340926", "josm_url": "http://127.0.0.1:8111/load_object?new_layer=false&objects=w165340926", "id_url": "https://www.openstreetmap.org/edit?editor=id&way=165340926#map=20/59.9650717/10.6697026"}}, {"type": "Feature", "geometry": {"type": "Point", "coordinates": [10.66815, 59.9656928]}, "properties": {"id": 165340932, "feat_type": "way", "quality_categories": "keys_without_wiki", "issue_ids": "[2]", "osm_url": "https://www.openstreetmap.org/way/165340932", "josm_url": "http://127.0.0.1:8111/load_object?new_layer=false&objects=w165340932", "id_url": "https://www.openstreetmap.org/edit?editor=id&way=165340932#map=20/59.9656928/10.66815"}}, {"type": "Feature", "geometry": {"type": "Point", "coordinates": [10.6698429, 59.9651943]}, "properties": {"id": 165340937, "feat_type": "way", "quality_categories": "keys_without_wiki", "issue_ids": "[2]", "osm_url": "https://www.openstreetmap.org/way/165340937", "josm_url": "http://127.0.0.1:8111/load_object?new_layer=false&objects=w165340937", "id_url": "https://www.openstreetmap.org/edit?editor=id&way=165340937#map=20/59.9651943/10.6698429"}}, {"type": "Feature", "geometry": {"type": "Point", "coordinates": [10.6694101, 59.9655104]}, "properties": {"id": 165346690, "feat_type": "way", "quality_categories": "keys_without_wiki", "issue_ids": "[2]", "osm_url": "https://www.openstreetmap.org/way/165346690", "josm_url": "http://127.0.0.1:8111/load_object?new_layer=false&objects=w165346690", "id_url": "https://www.openstreetmap.org/edit?editor=id&way=165346690#map=20/59.9655104/10.6694101"}}, {"type": "Feature", "geometry": {"type": "Point", "coordinates": [10.6705845, 59.9654273]}, "properties": {"id": 165431741, "feat_type": "way", "quality_categories": "keys_without_wiki", "issue_ids": "[2]", "osm_url": "https://www.openstreetmap.org/way/165431741", "josm_url": "http://127.0.0.1:8111/load_object?new_layer=false&objects=w165431741", "id_url": "https://www.openstreetmap.org/edit?editor=id&way=165431741#map=20/59.9654273/10.6705845"}}, {"type": "Feature", "geometry": {"type": "Point", "coordinates": [10.6686934, 59.9645769]}, "properties": {"id": 165495150, "feat_type": "way", "quality_categories": "keys_without_wiki", "issue_ids": "[2]", "osm_url": "https://www.openstreetmap.org/way/165495150", "josm_url": "http://127.0.0.1:8111/load_object?new_layer=false&objects=w165495150", "id_url": "https://www.openstreetmap.org/edit?editor=id&way=165495150#map=20/59.9645769/10.6686934"}}, {"type": "Feature", "geometry": {"type": "Point", "coordinates": [10.6694215, 59.9652136]}, "properties": {"id": 165495152, "feat_type": "way", "quality_categories": "keys_without_wiki", "issue_ids": "[2]", "osm_url": "https://www.openstreetmap.org/way/165495152", "josm_url": "http://127.0.0.1:8111/load_object?new_layer=false&objects=w165495152", "id_url": "https://www.openstreetmap.org/edit?editor=id&way=165495152#map=20/59.9652136/10.6694215"}}, {"type": "Feature", "geometry": {"type": "Point", "coordinates": [10.8429845, 59.9624073]}, "properties": {"id": 182620781, "feat_type": "way", "quality_categories": "keys_without_wiki, missing_tags, older_than_five_years", "issue_ids": "[6, 8, 1]", "osm_url": "https://www.openstreetmap.org/way/182620781", "josm_url": "http://127.0.0.1:8111/load_object?new_layer=false&objects=w182620781", "id_url": "https://www.openstreetmap.org/edit?editor=id&way=182620781#map=20/59.9624073/10.8429845"}}, {"type": "Feature", "geometry": {"type": "Point", "coordinates": [10.723372960090913, 59.952565250000006]}, "properties": {"id": 249337366, "feat_type": "way", "quality_categories": "keys_without_wiki, older_than_five_years", "issue_ids": "[9, 10]", "osm_url": "https://www.openstreetmap.org/way/249337366", "josm_url": "http://127.0.0.1:8111/load_object?new_layer=false&objects=w249337366", "id_url": "https://www.openstreetmap.org/edit?editor=id&way=249337366#map=20/59.952565250000006/10.723372960090913"}}, {"type": "Feature", "geometry": {"type": "Point", "coordinates": [10.8029328, 59.9825875]}, "properties": {"id": 298169951, "feat_type": "way", "quality_categories": "keys_without_wiki", "issue_ids": "[3]", "osm_url": "https://www.openstreetmap.org/way/298169951", "josm_url": "http://127.0.0.1:8111/load_object?new_layer=false&objects=w298169951", "id_url": "https://www.openstreetmap.org/edit?editor=id&way=298169951#map=20/59.9825875/10.8029328"}}, {"type": "Feature", "geometry": {"type": "Point", "coordinates": [10.8979792, 59.9080026]}, "properties": {"id": 304373718, "feat_type": "way", "quality_categories": "keys_without_wiki, older_than_five_years", "issue_ids": "[11, 12]", "osm_url": "https://www.openstreetmap.org/way/304373718", "josm_url": "http://127.0.0.1:8111/load_object?new_layer=false&objects=w304373718", "id_url": "https://www.openstreetmap.org/edit?editor=id&way=304373718#map=20/59.9080026/10.8979792"}}, {"type": "Feature", "geometry": {"type": "Point", "coordinates": [10.9030391, 59.9060421]}, "properties": {"id": 304373723, "feat_type": "way", "quality_categories": "keys_without_wiki, older_than_five_years", "issue_ids": "[11, 13]", "osm_url": "https://www.openstreetmap.org/way/304373723", "josm_url": "http://127.0.0.1:8111/load_object?new_layer=false&objects=w304373723", "id_url": "https://www.openstreetmap.org/edit?editor=id&way=304373723#map=20/59.9060421/10.9030391"}}, {"type": "Feature", "geometry": {"type": "Point", "coordinates": [10.9036068, 59.9060989]}, "properties": {"id": 304373727, "feat_type": "way", "quality_categories": "keys_without_wiki, older_than_five_years", "issue_ids": "[11, 13]", "osm_url": "https://www.openstreetmap.org/way/304373727", "josm_url": "http://127.0.0.1:8111/load_object?new_layer=false&objects=w304373727", "id_url": "https://www.openstreetmap.org/edit?editor=id&way=304373727#map=20/59.9060989/10.9036068"}}, {"type": "Feature", "geometry": {"type": "Point", "coordinates": [10.726022175093252, 59.953479200000004]}, "properties": {"id": 320136051, "feat_type": "way", "quality_categories": "keys_without_wiki, older_than_five_years", "issue_ids": "[14, 15]", "osm_url": "https://www.openstreetmap.org/way/320136051", "josm_url": "http://127.0.0.1:8111/load_object?new_layer=false&objects=w320136051", "id_url": "https://www.openstreetmap.org/edit?editor=id&way=320136051#map=20/59.953479200000004/10.726022175093252"}}, {"type": "Feature", "geometry": {"type": "Point", "coordinates": [10.8027938, 59.9834567]}, "properties": {"id": 369910510, "feat_type": "way", "quality_categories": "keys_without_wiki", "issue_ids": "[3]", "osm_url": "https://www.openstreetmap.org/way/369910510", "josm_url": "http://127.0.0.1:8111/load_object?new_layer=false&objects=w369910510", "id_url": "https://www.openstreetmap.org/edit?editor=id&way=369910510#map=20/59.9834567/10.8027938"}}, {"type": "Feature", "geometry": {"type": "Point", "coordinates": [10.8320864, 59.8249585]}, "properties": {"id": 458728445, "feat_type": "way", "quality_categories": "keys_without_wiki", "issue_ids": "[2]", "osm_url": "https://www.openstreetmap.org/way/458728445", "josm_url": "http://127.0.0.1:8111/load_object?new_layer=false&objects=w458728445", "id_url": "https://www.openstreetmap.org/edit?editor=id&way=458728445#map=20/59.8249585/10.8320864"}}, {"type": "Feature", "geometry": {"type": "Point", "coordinates": [10.6713416, 59.9640416]}, "properties": {"id": 501417578, "feat_type": "way", "quality_categories": "keys_without_wiki", "issue_ids": "[2]", "osm_url": "https://www.openstreetmap.org/way/501417578", "josm_url": "http://127.0.0.1:8111/load_object?new_layer=false&objects=w501417578", "id_url": "https://www.openstreetmap.org/edit?editor=id&way=501417578#map=20/59.9640416/10.6713416"}}, {"type": "Feature", "geometry": {"type": "Point", "coordinates": [10.7616381, 59.9165502]}, "properties": {"id": 547688833, "feat_type": "way", "quality_categories": "keys_without_wiki, older_than_five_years", "issue_ids": "[16, 17]", "osm_url": "https://www.openstreetmap.org/way/547688833", "josm_url": "http://127.0.0.1:8111/load_object?new_layer=false&objects=w547688833", "id_url": "https://www.openstreetmap.org/edit?editor=id&way=547688833#map=20/59.9165502/10.7616381"}}, {"type": "Feature", "geometry": {"type": "Point", "coordinates": [10.8337178, 59.8231475]}, "properties": {"id": 676077057, "feat_type": "way", "quality_categories": "keys_without_wiki", "issue_ids": "[2]", "osm_url": "https://www.openstreetmap.org/way/676077057", "josm_url": "http://127.0.0.1:8111/load_object?new_layer=false&objects=w676077057", "id_url": "https://www.openstreetmap.org/edit?editor=id&way=676077057#map=20/59.8231475/10.8337178"}}, {"type": "Feature", "geometry": {"type": "Point", "coordinates": [10.8338325, 59.8229382]}, "properties": {"id": 676077058, "feat_type": "way", "quality_categories": "keys_without_wiki", "issue_ids": "[2]", "osm_url": "https://www.openstreetmap.org/way/676077058", "josm_url": "http://127.0.0.1:8111/load_object?new_layer=false&objects=w676077058", "id_url": "https://www.openstreetmap.org/edit?editor=id&way=676077058#map=20/59.8229382/10.8338325"}}, {"type": "Feature", "geometry": {"type": "Point", "coordinates": [10.8337225, 59.8238418]}, "properties": {"id": 676077059, "feat_type": "way", "quality_categories": "keys_without_wiki", "issue_ids": "[2]", "osm_url": "https://www.openstreetmap.org/way/676077059", "josm_url": "http://127.0.0.1:8111/load_object?new_layer=false&objects=w676077059", "id_url": "https://www.openstreetmap.org/edit?editor=id&way=676077059#map=20/59.8238418/10.8337225"}}, {"type": "Feature", "geometry": {"type": "Point", "coordinates": [10.8769985, 59.9734374]}, "properties": {"id": 745100476, "feat_type": "way", "quality_categories": "keys_without_wiki", "issue_ids": "[18]", "osm_url": "https://www.openstreetmap.org/way/745100476", "josm_url": "http://127.0.0.1:8111/load_object?new_layer=false&objects=w745100476", "id_url": "https://www.openstreetmap.org/edit?editor=id&way=745100476#map=20/59.9734374/10.8769985"}}, {"type": "Feature", "geometry": {"type": "Point", "coordinates": [10.8768699, 59.9737348]}, "properties": {"id": 745100480, "feat_type": "way", "quality_categories": "keys_without_wiki", "issue_ids": "[2]", "osm_url": "https://www.openstreetmap.org/way/745100480", "josm_url": "http://127.0.0.1:8111/load_object?new_layer=false&objects=w745100480", "id_url": "https://www.openstreetmap.org/edit?editor=id&way=745100480#map=20/59.9737348/10.8768699"}}, {"type": "Feature", "geometry": {"type": "Point", "coordinates": [10.8799532, 59.9715445]}, "properties": {"id": 745100481, "feat_type": "way", "quality_categories": "keys_without_wiki", "issue_ids": "[2]", "osm_url": "https://www.openstreetmap.org/way/745100481", "josm_url": "http://127.0.0.1:8111/load_object?new_layer=false&objects=w745100481", "id_url": "https://www.openstreetmap.org/edit?editor=id&way=745100481#map=20/59.9715445/10.8799532"}}, {"type": "Feature", "geometry": {"type": "Point", "coordinates": [10.8796818, 59.9714769]}, "properties": {"id": 745100486, "feat_type": "way", "quality_categories": "keys_without_wiki", "issue_ids": "[2]", "osm_url": "https://www.openstreetmap.org/way/745100486", "josm_url": "http://127.0.0.1:8111/load_object?new_layer=false&objects=w745100486", "id_url": "https://www.openstreetmap.org/edit?editor=id&way=745100486#map=20/59.9714769/10.8796818"}}, {"type": "Feature", "geometry": {"type": "Point", "coordinates": [10.6689675, 59.9648166]}, "properties": {"id": 1086498041, "feat_type": "way", "quality_categories": "keys_without_wiki", "issue_ids": "[2]", "osm_url": "https://www.openstreetmap.org/way/1086498041", "josm_url": "http://127.0.0.1:8111/load_object?new_layer=false&objects=w1086498041", "id_url": "https://www.openstreetmap.org/edit?editor=id&way=1086498041#map=20/59.9648166/10.6689675"}}, {"type": "Feature", "geometry": {"type": "Point", "coordinates": [10.8801921, 59.9710014]}, "properties": {"id": 1087150469, "feat_type": "way", "quality_categories": "keys_without_wiki", "issue_ids": "[2]", "osm_url": "https://www.openstreetmap.org/way/1087150469", "josm_url": "http://127.0.0.1:8111/load_object?new_layer=false&objects=w1087150469", "id_url": "https://www.openstreetmap.org/edit?editor=id&way=1087150469#map=20/59.9710014/10.8801921"}}, {"type": "Feature", "geometry": {"type": "Point", "coordinates": [10.8790551, 59.9711731]}, "properties": {"id": 1087150470, "feat_type": "way", "quality_categories": "keys_without_wiki", "issue_ids": "[2]", "osm_url": "https://www.openstreetmap.org/way/1087150470", "josm_url": "http://127.0.0.1:8111/load_object?new_layer=false&objects=w1087150470", "id_url": "https://www.openstreetmap.org/edit?editor=id&way=1087150470#map=20/59.9711731/10.8790551"}}, {"type": "Feature", "geometry": {"type": "Point", "coordinates": [10.8768656, 59.9748636]}, "properties": {"id": 1087150471, "feat_type": "way", "quality_categories": "keys_without_wiki", "issue_ids": "[2]", "osm_url": "https://www.openstreetmap.org/way/1087150471", "josm_url": "http://127.0.0.1:8111/load_object?new_layer=false&objects=w1087150471", "id_url": "https://www.openstreetmap.org/edit?editor=id&way=1087150471#map=20/59.9748636/10.8768656"}}, {"type": "Feature", "geometry": {"type": "Point", "coordinates": [10.8767577, 59.9743425]}, "properties": {"id": 1087150472, "feat_type": "way", "quality_categories": "keys_without_wiki", "issue_ids": "[2]", "osm_url": "https://www.openstreetmap.org/way/1087150472", "josm_url": "http://127.0.0.1:8111/load_object?new_layer=false&objects=w1087150472", "id_url": "https://www.openstreetmap.org/edit?editor=id&way=1087150472#map=20/59.9743425/10.8767577"}}, {"type": "Feature", "geometry": {"type": "Point", "coordinates": [10.8767282, 59.9732753]}, "properties": {"id": 1087150473, "feat_type": "way", "quality_categories": "keys_without_wiki", "issue_ids": "[2]", "osm_url": "https://www.openstreetmap.org/way/1087150473", "josm_url": "http://127.0.0.1:8111/load_object?new_layer=false&objects=w1087150473", "id_url": "https://www.openstreetmap.org/edit?editor=id&way=1087150473#map=20/59.9732753/10.8767282"}}, {"type": "Feature", "geometry": {"type": "Point", "coordinates": [10.8788512, 59.9730702]}, "properties": {"id": 1087150475, "feat_type": "way", "quality_categories": "keys_without_wiki", "issue_ids": "[2]", "osm_url": "https://www.openstreetmap.org/way/1087150475", "josm_url": "http://127.0.0.1:8111/load_object?new_layer=false&objects=w1087150475", "id_url": "https://www.openstreetmap.org/edit?editor=id&way=1087150475#map=20/59.9730702/10.8788512"}}, {"type": "Feature", "geometry": {"type": "Point", "coordinates": [10.8790753, 59.9730688]}, "properties": {"id": 1087150476, "feat_type": "way", "quality_categories": "keys_without_wiki", "issue_ids": "[2]", "osm_url": "https://www.openstreetmap.org/way/1087150476", "josm_url": "http://127.0.0.1:8111/load_object?new_layer=false&objects=w1087150476", "id_url": "https://www.openstreetmap.org/edit?editor=id&way=1087150476#map=20/59.9730688/10.8790753"}}, {"type": "Feature", "geometry": {"type": "Point", "coordinates": [10.8793058, 59.9723274]}, "properties": {"id": 1087150477, "feat_type": "way", "quality_categories": "keys_without_wiki", "issue_ids": "[2]", "osm_url": "https://www.openstreetmap.org/way/1087150477", "josm_url": "http://127.0.0.1:8111/load_object?new_layer=false&objects=w1087150477", "id_url": "https://www.openstreetmap.org/edit?editor=id&way=1087150477#map=20/59.9723274/10.8793058"}}, {"type": "Feature", "geometry": {"type": "Point", "coordinates": [10.8770592, 59.9726763]}, "properties": {"id": 1087151231, "feat_type": "way", "quality_categories": "keys_without_wiki", "issue_ids": "[18]", "osm_url": "https://www.openstreetmap.org/way/1087151231", "josm_url": "http://127.0.0.1:8111/load_object?new_layer=false&objects=w1087151231", "id_url": "https://www.openstreetmap.org/edit?editor=id&way=1087151231#map=20/59.9726763/10.8770592"}}, {"type": "Feature", "geometry": {"type": "Point", "coordinates": [10.879892, 59.9712933]}, "properties": {"id": 1087417739, "feat_type": "way", "quality_categories": "keys_without_wiki", "issue_ids": "[2]", "osm_url": "https://www.openstreetmap.org/way/1087417739", "josm_url": "http://127.0.0.1:8111/load_object?new_layer=false&objects=w1087417739", "id_url": "https://www.openstreetmap.org/edit?editor=id&way=1087417739#map=20/59.9712933/10.879892"}}, {"type": "Feature", "geometry": {"type": "Point", "coordinates": [10.6709028, 59.9644556]}, "properties": {"id": 1280089897, "feat_type": "way", "quality_categories": "keys_without_wiki", "issue_ids": "[2]", "osm_url": "https://www.openstreetmap.org/way/1280089897", "josm_url": "http://127.0.0.1:8111/load_object?new_layer=false&objects=w1280089897", "id_url": "https://www.openstreetmap.org/edit?editor=id&way=1280089897#map=20/59.9644556/10.6709028"}}, {"type": "Feature", "geometry": {"type": "Point", "coordinates": [10.6709028, 59.9644556]}, "properties": {"id": 1280089898, "feat_type": "way", "quality_categories": "keys_without_wiki", "issue_ids": "[2]", "osm_url": "https://www.openstreetmap.org/way/1280089898", "josm_url": "http://127.0.0.1:8111/load_object?new_layer=false&objects=w1280089898", "id_url": "https://www.openstreetmap.org/edit?editor=id&way=1280089898#map=20/59.9644556/10.6709028"}}, {"type": "Feature", "geometry": {"type": "Point", "coordinates": [10.6991477, 59.9990606]}, "properties": {"id": 1308465148, "feat_type": "way", "quality_categories": "keys_without_wiki", "issue_ids": "[4]", "osm_url": "https://www.openstreetmap.org/way/1308465148", "josm_url": "http://127.0.0.1:8111/load_object?new_layer=false&objects=w1308465148", "id_url": "https://www.openstreetmap.org/edit?editor=id&way=1308465148#map=20/59.9990606/10.6991477"}}, {"type": "Feature", "geometry": {"type": "Point", "coordinates": [10.8771293, 59.9721541]}, "properties": {"id": 1427271791, "feat_type": "way", "quality_categories": "keys_without_wiki", "issue_ids": "[18]", "osm_url": "https://www.openstreetmap.org/way/1427271791", "josm_url": "http://127.0.0.1:8111/load_object?new_layer=false&objects=w1427271791", "id_url": "https://www.openstreetmap.org/edit?editor=id&way=1427271791#map=20/59.9721541/10.8771293"}}, {"type": "Feature", "geometry": {"type": "Point", "coordinates": [10.8774733, 59.9719427]}, "properties": {"id": 1430570558, "feat_type": "way", "quality_categories": "keys_without_wiki", "issue_ids": "[18]", "osm_url": "https://www.openstreetmap.org/way/1430570558", "josm_url": "http://127.0.0.1:8111/load_object?new_layer=false&objects=w1430570558", "id_url": "https://www.openstreetmap.org/edit?editor=id&way=1430570558#map=20/59.9719427/10.8774733"}}]}