{"type": "FeatureCollection", "features": [{"type": "Feature", "geometry": {"type": "Point", "coordinates": [10.6487448, 59.9194115]}, "properties": {"id": 1642083315, "feat_type": "node", "quality_categories": "disjointed_geometries, improper_keys", "issue_ids": "[0, 1]", "osm_url": "https://www.openstreetmap.org/node/1642083315", "josm_url": "http://127.0.0.1:8111/load_object?new_layer=false&objects=n1642083315", "id_url": "https://www.openstreetmap.org/edit?editor=id&node=1642083315#map=20/59.9194115/10.6487448"}}, {"type": "Feature", "geometry": {"type": "Point", "coordinates": [10.6706858, 59.9244965]}, "properties": {"id": 2302995734, "feat_type": "node", "quality_categories": "disjointed_geometries, improper_keys", "issue_ids": "[0, 1]", "osm_url": "https://www.openstreetmap.org/node/2302995734", "josm_url": "http://127.0.0.1:8111/load_object?new_layer=false&objects=n2302995734", "id_url": "https://www.openstreetmap.org/edit?editor=id&node=2302995734#map=20/59.9244965/10.6706858"}}, {"type": "Feature", "geometry": {"type": "Point", "coordinates": [10.6636151, 59.9211652]}, "properties": {"id": 2304107917, "feat_type": "node", "quality_categories": "disjointed_geometries, improper_keys", "issue_ids": "[0, 1]", "osm_url": "https://www.openstreetmap.org/node/2304107917", "josm_url": "http://127.0.0.1:8111/load_object?new_layer=false&objects=n2304107917", "id_url": "https://www.openstreetmap.org/edit?editor=id&node=2304107917#map=20/59.9211652/10.6636151"}}, {"type": "Feature", "geometry": {"type": "Point", "coordinates": [10.8374362, 59.8919081]}, "properties": {"id": 5248636568, "feat_type": "node", "quality_categories": "disjointed_geometries, improper_keys", "issue_ids": "[0, 1]", "osm_url": "https://www.openstreetmap.org/node/5248636568", "josm_url": "http://127.0.0.1:8111/load_object?new_layer=false&objects=n5248636568", "id_url": "https://www.openstreetmap.org/edit?editor=id&node=5248636568#map=20/59.8919081/10.8374362"}}, {"type": "Feature", "geometry": {"type": "Point", "coordinates": [10.8350811, 59.9031527]}, "properties": {"id": 5629984722, "feat_type": "node", "quality_categories": "disjointed_geometries, improper_keys", "issue_ids": "[0, 1]", "osm_url": "https://www.openstreetmap.org/node/5629984722", "josm_url": "http://127.0.0.1:8111/load_object?new_layer=false&objects=n5629984722", "id_url": "https://www.openstreetmap.org/edit?editor=id&node=5629984722#map=20/59.9031527/10.8350811"}}, {"type": "Feature", "geometry": {"type": "Point", "coordinates": [10.835299, 59.9032477]}, "properties": {"id": 5630047075, "feat_type": "node", "quality_categories": "disjointed_geometries, improper_keys", "issue_ids": "[0, 1]", "osm_url": "https://www.openstreetmap.org/node/5630047075", "josm_url": "http://127.0.0.1:8111/load_object?new_layer=false&objects=n5630047075", "id_url": "https://www.openstreetmap.org/edit?editor=id&node=5630047075#map=20/59.9032477/10.835299"}}, {"type": "Feature", "geometry": {"type": "Point", "coordinates": [10.834951, 59.9032542]}, "properties": {"id": 5630224601, "feat_type": "node", "quality_categories": "disjointed_geometries, improper_keys", "issue_ids": "[0, 1]", "osm_url": "https://www.openstreetmap.org/node/5630224601", "josm_url": "http://127.0.0.1:8111/load_object?new_layer=false&objects=n5630224601", "id_url": "https://www.openstreetmap.org/edit?editor=id&node=5630224601#map=20/59.9032542/10.834951"}}, {"type": "Feature", "geometry": {"type": "Point", "coordinates": [10.8351698, 59.9033437]}, "properties": {"id": 9764450361, "feat_type": "node", "quality_categories": "disjointed_geometries, improper_keys", "issue_ids": "[0, 1]", "osm_url": "https://www.openstreetmap.org/node/9764450361", "josm_url": "http://127.0.0.1:8111/load_object?new_layer=false&objects=n9764450361", "id_url": "https://www.openstreetmap.org/edit?editor=id&node=9764450361#map=20/59.9033437/10.8351698"}}, {"type": "Feature", "geometry": {"type": "Point", "coordinates": [10.6807816, 59.9545573]}, "properties": {"id": 1329325750, "feat_type": "node", "quality_categories": "disjointed_geometries", "issue_ids": "[1]", "osm_url": "https://www.openstreetmap.org/node/1329325750", "josm_url": "http://127.0.0.1:8111/load_object?new_layer=false&objects=n1329325750", "id_url": "https://www.openstreetmap.org/edit?editor=id&node=1329325750#map=20/59.9545573/10.6807816"}}, {"type": "Feature", "geometry": {"type": "Point", "coordinates": [10.7910779, 59.8323445]}, "properties": {"id": 1401510215, "feat_type": "node", "quality_categories": "disjointed_geometries", "issue_ids": "[1]", "osm_url": "https://www.openstreetmap.org/node/1401510215", "josm_url": "http://127.0.0.1:8111/load_object?new_layer=false&objects=n1401510215", "id_url": "https://www.openstreetmap.org/edit?editor=id&node=1401510215#map=20/59.8323445/10.7910779"}}, {"type": "Feature", "geometry": {"type": "Point", "coordinates": [10.6639622, 59.9210859]}, "properties": {"id": 2304107914, "feat_type": "node", "quality_categories": "disjointed_geometries", "issue_ids": "[1]", "osm_url": "https://www.openstreetmap.org/node/2304107914", "josm_url": "http://127.0.0.1:8111/load_object?new_layer=false&objects=n2304107914", "id_url": "https://www.openstreetmap.org/edit?editor=id&node=2304107914#map=20/59.9210859/10.6639622"}}, {"type": "Feature", "geometry": {"type": "Point", "coordinates": [10.868382, 59.9307853]}, "properties": {"id": 2441969016, "feat_type": "node", "quality_categories": "disjointed_geometries", "issue_ids": "[1]", "osm_url": "https://www.openstreetmap.org/node/2441969016", "josm_url": "http://127.0.0.1:8111/load_object?new_layer=false&objects=n2441969016", "id_url": "https://www.openstreetmap.org/edit?editor=id&node=2441969016#map=20/59.9307853/10.868382"}}, {"type": "Feature", "geometry": {"type": "Point", "coordinates": [10.8006868, 59.9126789]}, "properties": {"id": 8086161980, "feat_type": "node", "quality_categories": "disjointed_geometries", "issue_ids": "[1]", "osm_url": "https://www.openstreetmap.org/node/8086161980", "josm_url": "http://127.0.0.1:8111/load_object?new_layer=false&objects=n8086161980", "id_url": "https://www.openstreetmap.org/edit?editor=id&node=8086161980#map=20/59.9126789/10.8006868"}}, {"type": "Feature", "geometry": {"type": "Point", "coordinates": [10.790986, 59.8324562]}, "properties": {"id": 8706286661, "feat_type": "node", "quality_categories": "disjointed_geometries", "issue_ids": "[1]", "osm_url": "https://www.openstreetmap.org/node/8706286661", "josm_url": "http://127.0.0.1:8111/load_object?new_layer=false&objects=n8706286661", "id_url": "https://www.openstreetmap.org/edit?editor=id&node=8706286661#map=20/59.8324562/10.790986"}}, {"type": "Feature", "geometry": {"type": "Point", "coordinates": [10.787025, 59.8332039]}, "properties": {"id": 8706287033, "feat_type": "node", "quality_categories": "disjointed_geometries", "issue_ids": "[1]", "osm_url": "https://www.openstreetmap.org/node/8706287033", "josm_url": "http://127.0.0.1:8111/load_object?new_layer=false&objects=n8706287033", "id_url": "https://www.openstreetmap.org/edit?editor=id&node=8706287033#map=20/59.8332039/10.787025"}}, {"type": "Feature", "geometry": {"type": "Point", "coordinates": [10.8919078, 59.9679397]}, "properties": {"id": 9021410234, "feat_type": "node", "quality_categories": "disjointed_geometries", "issue_ids": "[1]", "osm_url": "https://www.openstreetmap.org/node/9021410234", "josm_url": "http://127.0.0.1:8111/load_object?new_layer=false&objects=n9021410234", "id_url": "https://www.openstreetmap.org/edit?editor=id&node=9021410234#map=20/59.9679397/10.8919078"}}, {"type": "Feature", "geometry": {"type": "Point", "coordinates": [10.8980912, 59.9703428]}, "properties": {"id": 9036510601, "feat_type": "node", "quality_categories": "disjointed_geometries", "issue_ids": "[1]", "osm_url": "https://www.openstreetmap.org/node/9036510601", "josm_url": "http://127.0.0.1:8111/load_object?new_layer=false&objects=n9036510601", "id_url": "https://www.openstreetmap.org/edit?editor=id&node=9036510601#map=20/59.9703428/10.8980912"}}, {"type": "Feature", "geometry": {"type": "Point", "coordinates": [10.8979361, 59.9703057]}, "properties": {"id": 9036517288, "feat_type": "node", "quality_categories": "disjointed_geometries", "issue_ids": "[1]", "osm_url": "https://www.openstreetmap.org/node/9036517288", "josm_url": "http://127.0.0.1:8111/load_object?new_layer=false&objects=n9036517288", "id_url": "https://www.openstreetmap.org/edit?editor=id&node=9036517288#map=20/59.9703057/10.8979361"}}, {"type": "Feature", "geometry": {"type": "Point", "coordinates": [10.6477274, 59.9678972]}, "properties": {"id": 10774238797, "feat_type": "node", "quality_categories": "disjointed_geometries", "issue_ids": "[1]", "osm_url": "https://www.openstreetmap.org/node/10774238797", "josm_url": "http://127.0.0.1:8111/load_object?new_layer=false&objects=n10774238797", "id_url": "https://www.openstreetmap.org/edit?editor=id&node=10774238797#map=20/59.9678972/10.6477274"}}, {"type": "Feature", "geometry": {"type": "Point", "coordinates": [10.9135258, 59.9511968]}, "properties": {"id": 11881180810, "feat_type": "node", "quality_categories": "disjointed_geometries", "issue_ids": "[1]", "osm_url": "https://www.openstreetmap.org/node/11881180810", "josm_url": "http://127.0.0.1:8111/load_object?new_layer=false&objects=n11881180810", "id_url": "https://www.openstreetmap.org/edit?editor=id&node=11881180810#map=20/59.9511968/10.9135258"}}, {"type": "Feature", "geometry": {"type": "Point", "coordinates": [10.8965392, 59.9703433]}, "properties": {"id": 711814540, "feat_type": "way", "quality_categories": "disjointed_geometries", "issue_ids": "[1]", "osm_url": "https://www.openstreetmap.org/way/711814540", "josm_url": "http://127.0.0.1:8111/load_object?new_layer=false&objects=w711814540", "id_url": "https://www.openstreetmap.org/edit?editor=id&way=711814540#map=20/59.9703433/10.8965392"}}, {"type": "Feature", "geometry": {"type": "Point", "coordinates": [10.8961094, 59.9703802]}, "properties": {"id": 711814549, "feat_type": "way", "quality_categories": "disjointed_geometries", "issue_ids": "[1]", "osm_url": "https://www.openstreetmap.org/way/711814549", "josm_url": "http://127.0.0.1:8111/load_object?new_layer=false&objects=w711814549", "id_url": "https://www.openstreetmap.org/edit?editor=id&way=711814549#map=20/59.9703802/10.8961094"}}, {"type": "Feature", "geometry": {"type": "Point", "coordinates": [10.8969167, 59.9704249]}, "properties": {"id": 711814563, "feat_type": "way", "quality_categories": "disjointed_geometries", "issue_ids": "[1]", "osm_url": "https://www.openstreetmap.org/way/711814563", "josm_url": "http://127.0.0.1:8111/load_object?new_layer=false&objects=w711814563", "id_url": "https://www.openstreetmap.org/edit?editor=id&way=711814563#map=20/59.9704249/10.8969167"}}, {"type": "Feature", "geometry": {"type": "Point", "coordinates": [10.8984757, 59.9704137]}, "properties": {"id": 711851442, "feat_type": "way", "quality_categories": "disjointed_geometries", "issue_ids": "[1]", "osm_url": "https://www.openstreetmap.org/way/711851442", "josm_url": "http://127.0.0.1:8111/load_object?new_layer=false&objects=w711851442", "id_url": "https://www.openstreetmap.org/edit?editor=id&way=711851442#map=20/59.9704137/10.8984757"}}, {"type": "Feature", "geometry": {"type": "Point", "coordinates": [10.8985617, 59.9701879]}, "properties": {"id": 711851444, "feat_type": "way", "quality_categories": "disjointed_geometries", "issue_ids": "[1]", "osm_url": "https://www.openstreetmap.org/way/711851444", "josm_url": "http://127.0.0.1:8111/load_object?new_layer=false&objects=w711851444", "id_url": "https://www.openstreetmap.org/edit?editor=id&way=711851444#map=20/59.9701879/10.8985617"}}, {"type": "Feature", "geometry": {"type": "Point", "coordinates": [10.8988412, 59.9701838]}, "properties": {"id": 711851446, "feat_type": "way", "quality_categories": "disjointed_geometries", "issue_ids": "[1]", "osm_url": "https://www.openstreetmap.org/way/711851446", "josm_url": "http://127.0.0.1:8111/load_object?new_layer=false&objects=w711851446", "id_url": "https://www.openstreetmap.org/edit?editor=id&way=711851446#map=20/59.9701838/10.8988412"}}, {"type": "Feature", "geometry": {"type": "Point", "coordinates": [10.8989402, 59.97016]}, "properties": {"id": 711851450, "feat_type": "way", "quality_categories": "disjointed_geometries", "issue_ids": "[1]", "osm_url": "https://www.openstreetmap.org/way/711851450", "josm_url": "http://127.0.0.1:8111/load_object?new_layer=false&objects=w711851450", "id_url": "https://www.openstreetmap.org/edit?editor=id&way=711851450#map=20/59.97016/10.8989402"}}, {"type": "Feature", "geometry": {"type": "Point", "coordinates": [10.8989567, 59.9702125]}, "properties": {"id": 711851452, "feat_type": "way", "quality_categories": "disjointed_geometries", "issue_ids": "[1]", "osm_url": "https://www.openstreetmap.org/way/711851452", "josm_url": "http://127.0.0.1:8111/load_object?new_layer=false&objects=w711851452", "id_url": "https://www.openstreetmap.org/edit?editor=id&way=711851452#map=20/59.9702125/10.8989567"}}, {"type": "Feature", "geometry": {"type": "Point", "coordinates": [10.8959388, 59.9704118]}, "properties": {"id": 711851480, "feat_type": "way", "quality_categories": "disjointed_geometries", "issue_ids": "[1]", "osm_url": "https://www.openstreetmap.org/way/711851480", "josm_url": "http://127.0.0.1:8111/load_object?new_layer=false&objects=w711851480", "id_url": "https://www.openstreetmap.org/edit?editor=id&way=711851480#map=20/59.9704118/10.8959388"}}, {"type": "Feature", "geometry": {"type": "Point", "coordinates": [10.8960718, 59.970413]}, "properties": {"id": 711851481, "feat_type": "way", "quality_categories": "disjointed_geometries", "issue_ids": "[1]", "osm_url": "https://www.openstreetmap.org/way/711851481", "josm_url": "http://127.0.0.1:8111/load_object?new_layer=false&objects=w711851481", "id_url": "https://www.openstreetmap.org/edit?editor=id&way=711851481#map=20/59.970413/10.8960718"}}, {"type": "Feature", "geometry": {"type": "Point", "coordinates": [10.8962819, 59.9702625]}, "properties": {"id": 711854267, "feat_type": "way", "quality_categories": "disjointed_geometries", "issue_ids": "[1]", "osm_url": "https://www.openstreetmap.org/way/711854267", "josm_url": "http://127.0.0.1:8111/load_object?new_layer=false&objects=w711854267", "id_url": "https://www.openstreetmap.org/edit?editor=id&way=711854267#map=20/59.9702625/10.8962819"}}, {"type": "Feature", "geometry": {"type": "Point", "coordinates": [10.896476, 59.9700714]}, "properties": {"id": 711854269, "feat_type": "way", "quality_categories": "disjointed_geometries", "issue_ids": "[1]", "osm_url": "https://www.openstreetmap.org/way/711854269", "josm_url": "http://127.0.0.1:8111/load_object?new_layer=false&objects=w711854269", "id_url": "https://www.openstreetmap.org/edit?editor=id&way=711854269#map=20/59.9700714/10.896476"}}, {"type": "Feature", "geometry": {"type": "Point", "coordinates": [10.8970659, 59.9706998]}, "properties": {"id": 711858400, "feat_type": "way", "quality_categories": "disjointed_geometries", "issue_ids": "[1]", "osm_url": "https://www.openstreetmap.org/way/711858400", "josm_url": "http://127.0.0.1:8111/load_object?new_layer=false&objects=w711858400", "id_url": "https://www.openstreetmap.org/edit?editor=id&way=711858400#map=20/59.9706998/10.8970659"}}, {"type": "Feature", "geometry": {"type": "Point", "coordinates": [10.8971717, 59.9708081]}, "properties": {"id": 711858402, "feat_type": "way", "quality_categories": "disjointed_geometries", "issue_ids": "[1]", "osm_url": "https://www.openstreetmap.org/way/711858402", "josm_url": "http://127.0.0.1:8111/load_object?new_layer=false&objects=w711858402", "id_url": "https://www.openstreetmap.org/edit?editor=id&way=711858402#map=20/59.9708081/10.8971717"}}, {"type": "Feature", "geometry": {"type": "Point", "coordinates": [10.8975901, 59.9708292]}, "properties": {"id": 711858404, "feat_type": "way", "quality_categories": "disjointed_geometries", "issue_ids": "[1]", "osm_url": "https://www.openstreetmap.org/way/711858404", "josm_url": "http://127.0.0.1:8111/load_object?new_layer=false&objects=w711858404", "id_url": "https://www.openstreetmap.org/edit?editor=id&way=711858404#map=20/59.9708292/10.8975901"}}, {"type": "Feature", "geometry": {"type": "Point", "coordinates": [10.8979204, 59.9707623]}, "properties": {"id": 711858406, "feat_type": "way", "quality_categories": "disjointed_geometries", "issue_ids": "[1]", "osm_url": "https://www.openstreetmap.org/way/711858406", "josm_url": "http://127.0.0.1:8111/load_object?new_layer=false&objects=w711858406", "id_url": "https://www.openstreetmap.org/edit?editor=id&way=711858406#map=20/59.9707623/10.8979204"}}, {"type": "Feature", "geometry": {"type": "Point", "coordinates": [10.8979138, 59.9707949]}, "properties": {"id": 711858408, "feat_type": "way", "quality_categories": "disjointed_geometries", "issue_ids": "[1]", "osm_url": "https://www.openstreetmap.org/way/711858408", "josm_url": "http://127.0.0.1:8111/load_object?new_layer=false&objects=w711858408", "id_url": "https://www.openstreetmap.org/edit?editor=id&way=711858408#map=20/59.9707949/10.8979138"}}, {"type": "Feature", "geometry": {"type": "Point", "coordinates": [10.8987414, 59.9711141]}, "properties": {"id": 711858414, "feat_type": "way", "quality_categories": "disjointed_geometries", "issue_ids": "[1]", "osm_url": "https://www.openstreetmap.org/way/711858414", "josm_url": "http://127.0.0.1:8111/load_object?new_layer=false&objects=w711858414", "id_url": "https://www.openstreetmap.org/edit?editor=id&way=711858414#map=20/59.9711141/10.8987414"}}, {"type": "Feature", "geometry": {"type": "Point", "coordinates": [10.8993871, 59.9711561]}, "properties": {"id": 711858419, "feat_type": "way", "quality_categories": "disjointed_geometries", "issue_ids": "[1]", "osm_url": "https://www.openstreetmap.org/way/711858419", "josm_url": "http://127.0.0.1:8111/load_object?new_layer=false&objects=w711858419", "id_url": "https://www.openstreetmap.org/edit?editor=id&way=711858419#map=20/59.9711561/10.8993871"}}, {"type": "Feature", "geometry": {"type": "Point", "coordinates": [10.8982297, 59.9703761]}, "properties": {"id": 711858426, "feat_type": "way", "quality_categories": "disjointed_geometries", "issue_ids": "[1]", "osm_url": "https://www.openstreetmap.org/way/711858426", "josm_url": "http://127.0.0.1:8111/load_object?new_layer=false&objects=w711858426", "id_url": "https://www.openstreetmap.org/edit?editor=id&way=711858426#map=20/59.9703761/10.8982297"}}, {"type": "Feature", "geometry": {"type": "Point", "coordinates": [10.8968598, 59.9702731]}, "properties": {"id": 711860629, "feat_type": "way", "quality_categories": "disjointed_geometries", "issue_ids": "[1]", "osm_url": "https://www.openstreetmap.org/way/711860629", "josm_url": "http://127.0.0.1:8111/load_object?new_layer=false&objects=w711860629", "id_url": "https://www.openstreetmap.org/edit?editor=id&way=711860629#map=20/59.9702731/10.8968598"}}, {"type": "Feature", "geometry": {"type": "Point", "coordinates": [10.8971268, 59.9703283]}, "properties": {"id": 711860632, "feat_type": "way", "quality_categories": "disjointed_geometries", "issue_ids": "[1]", "osm_url": "https://www.openstreetmap.org/way/711860632", "josm_url": "http://127.0.0.1:8111/load_object?new_layer=false&objects=w711860632", "id_url": "https://www.openstreetmap.org/edit?editor=id&way=711860632#map=20/59.9703283/10.8971268"}}, {"type": "Feature", "geometry": {"type": "Point", "coordinates": [10.8974586, 59.9703301]}, "properties": {"id": 711860635, "feat_type": "way", "quality_categories": "disjointed_geometries", "issue_ids": "[1]", "osm_url": "https://www.openstreetmap.org/way/711860635", "josm_url": "http://127.0.0.1:8111/load_object?new_layer=false&objects=w711860635", "id_url": "https://www.openstreetmap.org/edit?editor=id&way=711860635#map=20/59.9703301/10.8974586"}}, {"type": "Feature", "geometry": {"type": "Point", "coordinates": [10.8977635, 59.9703127]}, "properties": {"id": 711860638, "feat_type": "way", "quality_categories": "disjointed_geometries", "issue_ids": "[1]", "osm_url": "https://www.openstreetmap.org/way/711860638", "josm_url": "http://127.0.0.1:8111/load_object?new_layer=false&objects=w711860638", "id_url": "https://www.openstreetmap.org/edit?editor=id&way=711860638#map=20/59.9703127/10.8977635"}}, {"type": "Feature", "geometry": {"type": "Point", "coordinates": [10.8980912, 59.9703428]}, "properties": {"id": 711860641, "feat_type": "way", "quality_categories": "disjointed_geometries", "issue_ids": "[1]", "osm_url": "https://www.openstreetmap.org/way/711860641", "josm_url": "http://127.0.0.1:8111/load_object?new_layer=false&objects=w711860641", "id_url": "https://www.openstreetmap.org/edit?editor=id&way=711860641#map=20/59.9703428/10.8980912"}}, {"type": "Feature", "geometry": {"type": "Point", "coordinates": [10.8983645, 59.97066]}, "properties": {"id": 711860643, "feat_type": "way", "quality_categories": "disjointed_geometries", "issue_ids": "[1]", "osm_url": "https://www.openstreetmap.org/way/711860643", "josm_url": "http://127.0.0.1:8111/load_object?new_layer=false&objects=w711860643", "id_url": "https://www.openstreetmap.org/edit?editor=id&way=711860643#map=20/59.97066/10.8983645"}}, {"type": "Feature", "geometry": {"type": "Point", "coordinates": [10.8917615, 59.9679105]}, "properties": {"id": 711990604, "feat_type": "way", "quality_categories": "disjointed_geometries", "issue_ids": "[1]", "osm_url": "https://www.openstreetmap.org/way/711990604", "josm_url": "http://127.0.0.1:8111/load_object?new_layer=false&objects=w711990604", "id_url": "https://www.openstreetmap.org/edit?editor=id&way=711990604#map=20/59.9679105/10.8917615"}}, {"type": "Feature", "geometry": {"type": "Point", "coordinates": [10.8917125, 59.9678816]}, "properties": {"id": 711990607, "feat_type": "way", "quality_categories": "disjointed_geometries", "issue_ids": "[1]", "osm_url": "https://www.openstreetmap.org/way/711990607", "josm_url": "http://127.0.0.1:8111/load_object?new_layer=false&objects=w711990607", "id_url": "https://www.openstreetmap.org/edit?editor=id&way=711990607#map=20/59.9678816/10.8917125"}}, {"type": "Feature", "geometry": {"type": "Point", "coordinates": [10.8916266, 59.9676078]}, "properties": {"id": 711990609, "feat_type": "way", "quality_categories": "disjointed_geometries", "issue_ids": "[1]", "osm_url": "https://www.openstreetmap.org/way/711990609", "josm_url": "http://127.0.0.1:8111/load_object?new_layer=false&objects=w711990609", "id_url": "https://www.openstreetmap.org/edit?editor=id&way=711990609#map=20/59.9676078/10.8916266"}}, {"type": "Feature", "geometry": {"type": "Point", "coordinates": [10.7011402, 59.9270634]}, "properties": {"id": 807787571, "feat_type": "way", "quality_categories": "disjointed_geometries", "issue_ids": "[1]", "osm_url": "https://www.openstreetmap.org/way/807787571", "josm_url": "http://127.0.0.1:8111/load_object?new_layer=false&objects=w807787571", "id_url": "https://www.openstreetmap.org/edit?editor=id&way=807787571#map=20/59.9270634/10.7011402"}}, {"type": "Feature", "geometry": {"type": "Point", "coordinates": [10.655501, 59.9217165]}, "properties": {"id": 864968257, "feat_type": "way", "quality_categories": "disjointed_geometries", "issue_ids": "[1]", "osm_url": "https://www.openstreetmap.org/way/864968257", "josm_url": "http://127.0.0.1:8111/load_object?new_layer=false&objects=w864968257", "id_url": "https://www.openstreetmap.org/edit?editor=id&way=864968257#map=20/59.9217165/10.655501"}}, {"type": "Feature", "geometry": {"type": "Point", "coordinates": [10.6633723, 59.9244076]}, "properties": {"id": 864968301, "feat_type": "way", "quality_categories": "disjointed_geometries", "issue_ids": "[1]", "osm_url": "https://www.openstreetmap.org/way/864968301", "josm_url": "http://127.0.0.1:8111/load_object?new_layer=false&objects=w864968301", "id_url": "https://www.openstreetmap.org/edit?editor=id&way=864968301#map=20/59.9244076/10.6633723"}}, {"type": "Feature", "geometry": {"type": "Point", "coordinates": [10.6640169, 59.9244418]}, "properties": {"id": 864968303, "feat_type": "way", "quality_categories": "disjointed_geometries", "issue_ids": "[1]", "osm_url": "https://www.openstreetmap.org/way/864968303", "josm_url": "http://127.0.0.1:8111/load_object?new_layer=false&objects=w864968303", "id_url": "https://www.openstreetmap.org/edit?editor=id&way=864968303#map=20/59.9244418/10.6640169"}}, {"type": "Feature", "geometry": {"type": "Point", "coordinates": [10.6646031, 59.9244545]}, "properties": {"id": 864968304, "feat_type": "way", "quality_categories": "disjointed_geometries", "issue_ids": "[1]", "osm_url": "https://www.openstreetmap.org/way/864968304", "josm_url": "http://127.0.0.1:8111/load_object?new_layer=false&objects=w864968304", "id_url": "https://www.openstreetmap.org/edit?editor=id&way=864968304#map=20/59.9244545/10.6646031"}}, {"type": "Feature", "geometry": {"type": "Point", "coordinates": [10.6646897, 59.9245823]}, "properties": {"id": 864968305, "feat_type": "way", "quality_categories": "disjointed_geometries", "issue_ids": "[1]", "osm_url": "https://www.openstreetmap.org/way/864968305", "josm_url": "http://127.0.0.1:8111/load_object?new_layer=false&objects=w864968305", "id_url": "https://www.openstreetmap.org/edit?editor=id&way=864968305#map=20/59.9245823/10.6646897"}}, {"type": "Feature", "geometry": {"type": "Point", "coordinates": [10.7981777, 59.9297442]}, "properties": {"id": 888474555, "feat_type": "way", "quality_categories": "disjointed_geometries", "issue_ids": "[1]", "osm_url": "https://www.openstreetmap.org/way/888474555", "josm_url": "http://127.0.0.1:8111/load_object?new_layer=false&objects=w888474555", "id_url": "https://www.openstreetmap.org/edit?editor=id&way=888474555#map=20/59.9297442/10.7981777"}}, {"type": "Feature", "geometry": {"type": "Point", "coordinates": [10.7972672, 59.9301282]}, "properties": {"id": 888474556, "feat_type": "way", "quality_categories": "disjointed_geometries", "issue_ids": "[1]", "osm_url": "https://www.openstreetmap.org/way/888474556", "josm_url": "http://127.0.0.1:8111/load_object?new_layer=false&objects=w888474556", "id_url": "https://www.openstreetmap.org/edit?editor=id&way=888474556#map=20/59.9301282/10.7972672"}}, {"type": "Feature", "geometry": {"type": "Point", "coordinates": [10.7973286, 59.9301016]}, "properties": {"id": 888474557, "feat_type": "way", "quality_categories": "disjointed_geometries", "issue_ids": "[1]", "osm_url": "https://www.openstreetmap.org/way/888474557", "josm_url": "http://127.0.0.1:8111/load_object?new_layer=false&objects=w888474557", "id_url": "https://www.openstreetmap.org/edit?editor=id&way=888474557#map=20/59.9301016/10.7973286"}}, {"type": "Feature", "geometry": {"type": "Point", "coordinates": [10.7972713, 59.9300636]}, "properties": {"id": 888474558, "feat_type": "way", "quality_categories": "disjointed_geometries", "issue_ids": "[1]", "osm_url": "https://www.openstreetmap.org/way/888474558", "josm_url": "http://127.0.0.1:8111/load_object?new_layer=false&objects=w888474558", "id_url": "https://www.openstreetmap.org/edit?editor=id&way=888474558#map=20/59.9300636/10.7972713"}}, {"type": "Feature", "geometry": {"type": "Point", "coordinates": [10.80155, 59.9282378]}, "properties": {"id": 888590179, "feat_type": "way", "quality_categories": "disjointed_geometries", "issue_ids": "[1]", "osm_url": "https://www.openstreetmap.org/way/888590179", "josm_url": "http://127.0.0.1:8111/load_object?new_layer=false&objects=w888590179", "id_url": "https://www.openstreetmap.org/edit?editor=id&way=888590179#map=20/59.9282378/10.80155"}}, {"type": "Feature", "geometry": {"type": "Point", "coordinates": [10.8016668, 59.9283827]}, "properties": {"id": 888590180, "feat_type": "way", "quality_categories": "disjointed_geometries", "issue_ids": "[1]", "osm_url": "https://www.openstreetmap.org/way/888590180", "josm_url": "http://127.0.0.1:8111/load_object?new_layer=false&objects=w888590180", "id_url": "https://www.openstreetmap.org/edit?editor=id&way=888590180#map=20/59.9283827/10.8016668"}}, {"type": "Feature", "geometry": {"type": "Point", "coordinates": [10.8005707, 59.927035]}, "properties": {"id": 888590181, "feat_type": "way", "quality_categories": "disjointed_geometries", "issue_ids": "[1]", "osm_url": "https://www.openstreetmap.org/way/888590181", "josm_url": "http://127.0.0.1:8111/load_object?new_layer=false&objects=w888590181", "id_url": "https://www.openstreetmap.org/edit?editor=id&way=888590181#map=20/59.927035/10.8005707"}}, {"type": "Feature", "geometry": {"type": "Point", "coordinates": [10.8027929, 59.9262977]}, "properties": {"id": 888590194, "feat_type": "way", "quality_categories": "disjointed_geometries", "issue_ids": "[1]", "osm_url": "https://www.openstreetmap.org/way/888590194", "josm_url": "http://127.0.0.1:8111/load_object?new_layer=false&objects=w888590194", "id_url": "https://www.openstreetmap.org/edit?editor=id&way=888590194#map=20/59.9262977/10.8027929"}}, {"type": "Feature", "geometry": {"type": "Point", "coordinates": [10.8018799, 59.9296629]}, "properties": {"id": 888590200, "feat_type": "way", "quality_categories": "disjointed_geometries", "issue_ids": "[1]", "osm_url": "https://www.openstreetmap.org/way/888590200", "josm_url": "http://127.0.0.1:8111/load_object?new_layer=false&objects=w888590200", "id_url": "https://www.openstreetmap.org/edit?editor=id&way=888590200#map=20/59.9296629/10.8018799"}}, {"type": "Feature", "geometry": {"type": "Point", "coordinates": [10.8018667, 59.9299483]}, "properties": {"id": 888590201, "feat_type": "way", "quality_categories": "disjointed_geometries", "issue_ids": "[1]", "osm_url": "https://www.openstreetmap.org/way/888590201", "josm_url": "http://127.0.0.1:8111/load_object?new_layer=false&objects=w888590201", "id_url": "https://www.openstreetmap.org/edit?editor=id&way=888590201#map=20/59.9299483/10.8018667"}}, {"type": "Feature", "geometry": {"type": "Point", "coordinates": [10.8018377, 59.9300404]}, "properties": {"id": 888590202, "feat_type": "way", "quality_categories": "disjointed_geometries", "issue_ids": "[1]", "osm_url": "https://www.openstreetmap.org/way/888590202", "josm_url": "http://127.0.0.1:8111/load_object?new_layer=false&objects=w888590202", "id_url": "https://www.openstreetmap.org/edit?editor=id&way=888590202#map=20/59.9300404/10.8018377"}}, {"type": "Feature", "geometry": {"type": "Point", "coordinates": [10.7902211, 59.8322612]}, "properties": {"id": 939950232, "feat_type": "way", "quality_categories": "disjointed_geometries", "issue_ids": "[1]", "osm_url": "https://www.openstreetmap.org/way/939950232", "josm_url": "http://127.0.0.1:8111/load_object?new_layer=false&objects=w939950232", "id_url": "https://www.openstreetmap.org/edit?editor=id&way=939950232#map=20/59.8322612/10.7902211"}}, {"type": "Feature", "geometry": {"type": "Point", "coordinates": [10.7901185, 59.8322843]}, "properties": {"id": 939950233, "feat_type": "way", "quality_categories": "disjointed_geometries", "issue_ids": "[1]", "osm_url": "https://www.openstreetmap.org/way/939950233", "josm_url": "http://127.0.0.1:8111/load_object?new_layer=false&objects=w939950233", "id_url": "https://www.openstreetmap.org/edit?editor=id&way=939950233#map=20/59.8322843/10.7901185"}}, {"type": "Feature", "geometry": {"type": "Point", "coordinates": [10.7912967, 59.8323028]}, "properties": {"id": 939950234, "feat_type": "way", "quality_categories": "disjointed_geometries", "issue_ids": "[1]", "osm_url": "https://www.openstreetmap.org/way/939950234", "josm_url": "http://127.0.0.1:8111/load_object?new_layer=false&objects=w939950234", "id_url": "https://www.openstreetmap.org/edit?editor=id&way=939950234#map=20/59.8323028/10.7912967"}}, {"type": "Feature", "geometry": {"type": "Point", "coordinates": [10.7911243, 59.8324016]}, "properties": {"id": 939950235, "feat_type": "way", "quality_categories": "disjointed_geometries", "issue_ids": "[1]", "osm_url": "https://www.openstreetmap.org/way/939950235", "josm_url": "http://127.0.0.1:8111/load_object?new_layer=false&objects=w939950235", "id_url": "https://www.openstreetmap.org/edit?editor=id&way=939950235#map=20/59.8324016/10.7911243"}}, {"type": "Feature", "geometry": {"type": "Point", "coordinates": [10.7956461, 59.8320272]}, "properties": {"id": 941089827, "feat_type": "way", "quality_categories": "disjointed_geometries", "issue_ids": "[1]", "osm_url": "https://www.openstreetmap.org/way/941089827", "josm_url": "http://127.0.0.1:8111/load_object?new_layer=false&objects=w941089827", "id_url": "https://www.openstreetmap.org/edit?editor=id&way=941089827#map=20/59.8320272/10.7956461"}}, {"type": "Feature", "geometry": {"type": "Point", "coordinates": [10.7956014, 59.8320005]}, "properties": {"id": 941089828, "feat_type": "way", "quality_categories": "disjointed_geometries", "issue_ids": "[1]", "osm_url": "https://www.openstreetmap.org/way/941089828", "josm_url": "http://127.0.0.1:8111/load_object?new_layer=false&objects=w941089828", "id_url": "https://www.openstreetmap.org/edit?editor=id&way=941089828#map=20/59.8320005/10.7956014"}}, {"type": "Feature", "geometry": {"type": "Point", "coordinates": [10.7960762, 59.8322164]}, "properties": {"id": 941089829, "feat_type": "way", "quality_categories": "disjointed_geometries", "issue_ids": "[1]", "osm_url": "https://www.openstreetmap.org/way/941089829", "josm_url": "http://127.0.0.1:8111/load_object?new_layer=false&objects=w941089829", "id_url": "https://www.openstreetmap.org/edit?editor=id&way=941089829#map=20/59.8322164/10.7960762"}}, {"type": "Feature", "geometry": {"type": "Point", "coordinates": [10.795329, 59.8316139]}, "properties": {"id": 941089830, "feat_type": "way", "quality_categories": "disjointed_geometries", "issue_ids": "[1]", "osm_url": "https://www.openstreetmap.org/way/941089830", "josm_url": "http://127.0.0.1:8111/load_object?new_layer=false&objects=w941089830", "id_url": "https://www.openstreetmap.org/edit?editor=id&way=941089830#map=20/59.8316139/10.795329"}}, {"type": "Feature", "geometry": {"type": "Point", "coordinates": [10.7960108, 59.8322268]}, "properties": {"id": 941089831, "feat_type": "way", "quality_categories": "disjointed_geometries", "issue_ids": "[1]", "osm_url": "https://www.openstreetmap.org/way/941089831", "josm_url": "http://127.0.0.1:8111/load_object?new_layer=false&objects=w941089831", "id_url": "https://www.openstreetmap.org/edit?editor=id&way=941089831#map=20/59.8322268/10.7960108"}}, {"type": "Feature", "geometry": {"type": "Point", "coordinates": [10.7956123, 59.8320513]}, "properties": {"id": 941089832, "feat_type": "way", "quality_categories": "disjointed_geometries", "issue_ids": "[1]", "osm_url": "https://www.openstreetmap.org/way/941089832", "josm_url": "http://127.0.0.1:8111/load_object?new_layer=false&objects=w941089832", "id_url": "https://www.openstreetmap.org/edit?editor=id&way=941089832#map=20/59.8320513/10.7956123"}}, {"type": "Feature", "geometry": {"type": "Point", "coordinates": [10.7952199, 59.8318868]}, "properties": {"id": 941089833, "feat_type": "way", "quality_categories": "disjointed_geometries", "issue_ids": "[1]", "osm_url": "https://www.openstreetmap.org/way/941089833", "josm_url": "http://127.0.0.1:8111/load_object?new_layer=false&objects=w941089833", "id_url": "https://www.openstreetmap.org/edit?editor=id&way=941089833#map=20/59.8318868/10.7952199"}}, {"type": "Feature", "geometry": {"type": "Point", "coordinates": [10.8955136, 59.9703809]}, "properties": {"id": 976500220, "feat_type": "way", "quality_categories": "disjointed_geometries", "issue_ids": "[1]", "osm_url": "https://www.openstreetmap.org/way/976500220", "josm_url": "http://127.0.0.1:8111/load_object?new_layer=false&objects=w976500220", "id_url": "https://www.openstreetmap.org/edit?editor=id&way=976500220#map=20/59.9703809/10.8955136"}}, {"type": "Feature", "geometry": {"type": "Point", "coordinates": [10.8971468, 59.9704492]}, "properties": {"id": 976500221, "feat_type": "way", "quality_categories": "disjointed_geometries", "issue_ids": "[1]", "osm_url": "https://www.openstreetmap.org/way/976500221", "josm_url": "http://127.0.0.1:8111/load_object?new_layer=false&objects=w976500221", "id_url": "https://www.openstreetmap.org/edit?editor=id&way=976500221#map=20/59.9704492/10.8971468"}}, {"type": "Feature", "geometry": {"type": "Point", "coordinates": [10.8968204, 59.9703615]}, "properties": {"id": 976500222, "feat_type": "way", "quality_categories": "disjointed_geometries", "issue_ids": "[1]", "osm_url": "https://www.openstreetmap.org/way/976500222", "josm_url": "http://127.0.0.1:8111/load_object?new_layer=false&objects=w976500222", "id_url": "https://www.openstreetmap.org/edit?editor=id&way=976500222#map=20/59.9703615/10.8968204"}}, {"type": "Feature", "geometry": {"type": "Point", "coordinates": [10.7851392, 59.8291586]}, "properties": {"id": 979876407, "feat_type": "way", "quality_categories": "disjointed_geometries", "issue_ids": "[1]", "osm_url": "https://www.openstreetmap.org/way/979876407", "josm_url": "http://127.0.0.1:8111/load_object?new_layer=false&objects=w979876407", "id_url": "https://www.openstreetmap.org/edit?editor=id&way=979876407#map=20/59.8291586/10.7851392"}}, {"type": "Feature", "geometry": {"type": "Point", "coordinates": [10.784861, 59.8291881]}, "properties": {"id": 979876408, "feat_type": "way", "quality_categories": "disjointed_geometries", "issue_ids": "[1]", "osm_url": "https://www.openstreetmap.org/way/979876408", "josm_url": "http://127.0.0.1:8111/load_object?new_layer=false&objects=w979876408", "id_url": "https://www.openstreetmap.org/edit?editor=id&way=979876408#map=20/59.8291881/10.784861"}}, {"type": "Feature", "geometry": {"type": "Point", "coordinates": [10.7891128, 59.8282988]}, "properties": {"id": 979876423, "feat_type": "way", "quality_categories": "disjointed_geometries", "issue_ids": "[1]", "osm_url": "https://www.openstreetmap.org/way/979876423", "josm_url": "http://127.0.0.1:8111/load_object?new_layer=false&objects=w979876423", "id_url": "https://www.openstreetmap.org/edit?editor=id&way=979876423#map=20/59.8282988/10.7891128"}}, {"type": "Feature", "geometry": {"type": "Point", "coordinates": [10.7944545, 59.8348038]}, "properties": {"id": 984505132, "feat_type": "way", "quality_categories": "disjointed_geometries", "issue_ids": "[1]", "osm_url": "https://www.openstreetmap.org/way/984505132", "josm_url": "http://127.0.0.1:8111/load_object?new_layer=false&objects=w984505132", "id_url": "https://www.openstreetmap.org/edit?editor=id&way=984505132#map=20/59.8348038/10.7944545"}}, {"type": "Feature", "geometry": {"type": "Point", "coordinates": [10.794474731071187, 59.834447749999995]}, "properties": {"id": 984505133, "feat_type": "way", "quality_categories": "disjointed_geometries", "issue_ids": "[1]", "osm_url": "https://www.openstreetmap.org/way/984505133", "josm_url": "http://127.0.0.1:8111/load_object?new_layer=false&objects=w984505133", "id_url": "https://www.openstreetmap.org/edit?editor=id&way=984505133#map=20/59.834447749999995/10.794474731071187"}}, {"type": "Feature", "geometry": {"type": "Point", "coordinates": [10.794473477503402, 59.83462075]}, "properties": {"id": 984505134, "feat_type": "way", "quality_categories": "disjointed_geometries", "issue_ids": "[1]", "osm_url": "https://www.openstreetmap.org/way/984505134", "josm_url": "http://127.0.0.1:8111/load_object?new_layer=false&objects=w984505134", "id_url": "https://www.openstreetmap.org/edit?editor=id&way=984505134#map=20/59.83462075/10.794473477503402"}}, {"type": "Feature", "geometry": {"type": "Point", "coordinates": [10.7862802, 59.8310685]}, "properties": {"id": 995913369, "feat_type": "way", "quality_categories": "disjointed_geometries", "issue_ids": "[1]", "osm_url": "https://www.openstreetmap.org/way/995913369", "josm_url": "http://127.0.0.1:8111/load_object?new_layer=false&objects=w995913369", "id_url": "https://www.openstreetmap.org/edit?editor=id&way=995913369#map=20/59.8310685/10.7862802"}}, {"type": "Feature", "geometry": {"type": "Point", "coordinates": [10.7861143, 59.8310811]}, "properties": {"id": 995913370, "feat_type": "way", "quality_categories": "disjointed_geometries", "issue_ids": "[1]", "osm_url": "https://www.openstreetmap.org/way/995913370", "josm_url": "http://127.0.0.1:8111/load_object?new_layer=false&objects=w995913370", "id_url": "https://www.openstreetmap.org/edit?editor=id&way=995913370#map=20/59.8310811/10.7861143"}}, {"type": "Feature", "geometry": {"type": "Point", "coordinates": [10.78912, 59.9286282]}, "properties": {"id": 1057909456, "feat_type": "way", "quality_categories": "disjointed_geometries", "issue_ids": "[1]", "osm_url": "https://www.openstreetmap.org/way/1057909456", "josm_url": "http://127.0.0.1:8111/load_object?new_layer=false&objects=w1057909456", "id_url": "https://www.openstreetmap.org/edit?editor=id&way=1057909456#map=20/59.9286282/10.78912"}}, {"type": "Feature", "geometry": {"type": "Point", "coordinates": [10.686659, 59.9192987]}, "properties": {"id": 1090510265, "feat_type": "way", "quality_categories": "disjointed_geometries", "issue_ids": "[1]", "osm_url": "https://www.openstreetmap.org/way/1090510265", "josm_url": "http://127.0.0.1:8111/load_object?new_layer=false&objects=w1090510265", "id_url": "https://www.openstreetmap.org/edit?editor=id&way=1090510265#map=20/59.9192987/10.686659"}}, {"type": "Feature", "geometry": {"type": "Point", "coordinates": [10.725265, 59.9098935]}, "properties": {"id": 1232733533, "feat_type": "way", "quality_categories": "disjointed_geometries", "issue_ids": "[1]", "osm_url": "https://www.openstreetmap.org/way/1232733533", "josm_url": "http://127.0.0.1:8111/load_object?new_layer=false&objects=w1232733533", "id_url": "https://www.openstreetmap.org/edit?editor=id&way=1232733533#map=20/59.9098935/10.725265"}}, {"type": "Feature", "geometry": {"type": "Point", "coordinates": [10.7979172, 59.930533]}, "properties": {"id": 1243454363, "feat_type": "way", "quality_categories": "disjointed_geometries", "issue_ids": "[1]", "osm_url": "https://www.openstreetmap.org/way/1243454363", "josm_url": "http://127.0.0.1:8111/load_object?new_layer=false&objects=w1243454363", "id_url": "https://www.openstreetmap.org/edit?editor=id&way=1243454363#map=20/59.930533/10.7979172"}}]}