{"type": "FeatureCollection", "features": [{"type": "Feature", "geometry": {"type": "Point", "coordinates": [10.7484664, 59.9114307]}, "properties": {"id": 1281, "feat_type": "node", "quality_categories": "improper_keys, uncanny_keys", "issue_ids": "[0, 1]", "osm_url": "https://www.openstreetmap.org/node/1281", "josm_url": "http://127.0.0.1:8111/load_object?new_layer=false&objects=n1281", "id_url": "https://www.openstreetmap.org/edit?editor=id&node=1281#map=20/59.9114307/10.7484664"}}, {"type": "Feature", "geometry": {"type": "Point", "coordinates": [10.7390467, 59.9129103]}, "properties": {"id": 659536, "feat_type": "node", "quality_categories": "improper_keys, kerb_on_top_of_non_crossing", "issue_ids": "[2, 3]", "osm_url": "https://www.openstreetmap.org/node/659536", "josm_url": "http://127.0.0.1:8111/load_object?new_layer=false&objects=n659536", "id_url": "https://www.openstreetmap.org/edit?editor=id&node=659536#map=20/59.9129103/10.7390467"}}, {"type": "Feature", "geometry": {"type": "Point", "coordinates": [10.7392949, 59.9172378]}, "properties": {"id": 659865, "feat_type": "node", "quality_categories": "improper_keys, uncanny_keys", "issue_ids": "[0, 4]", "osm_url": "https://www.openstreetmap.org/node/659865", "josm_url": "http://127.0.0.1:8111/load_object?new_layer=false&objects=n659865", "id_url": "https://www.openstreetmap.org/edit?editor=id&node=659865#map=20/59.9172378/10.7392949"}}, {"type": "Feature", "geometry": {"type": "Point", "coordinates": [10.7406351, 59.9112856]}, "properties": {"id": 25339165, "feat_type": "node", "quality_categories": "improper_keys", "issue_ids": "[5]", "osm_url": "https://www.openstreetmap.org/node/25339165", "josm_url": "http://127.0.0.1:8111/load_object?new_layer=false&objects=n25339165", "id_url": "https://www.openstreetmap.org/edit?editor=id&node=25339165#map=20/59.9112856/10.7406351"}}, {"type": "Feature", "geometry": {"type": "Point", "coordinates": [10.7393764, 59.9173068]}, "properties": {"id": 25525130, "feat_type": "node", "quality_categories": "improper_keys, uncanny_keys", "issue_ids": "[0, 4]", "osm_url": "https://www.openstreetmap.org/node/25525130", "josm_url": "http://127.0.0.1:8111/load_object?new_layer=false&objects=n25525130", "id_url": "https://www.openstreetmap.org/edit?editor=id&node=25525130#map=20/59.9173068/10.7393764"}}, {"type": "Feature", "geometry": {"type": "Point", "coordinates": [10.7425107, 59.9160005]}, "properties": {"id": 31307533, "feat_type": "node", "quality_categories": "improper_keys, kerb_on_top_of_non_crossing", "issue_ids": "[5, 3]", "osm_url": "https://www.openstreetmap.org/node/31307533", "josm_url": "http://127.0.0.1:8111/load_object?new_layer=false&objects=n31307533", "id_url": "https://www.openstreetmap.org/edit?editor=id&node=31307533#map=20/59.9160005/10.7425107"}}, {"type": "Feature", "geometry": {"type": "Point", "coordinates": [10.8282158, 59.8502799]}, "properties": {"id": 256096213, "feat_type": "node", "quality_categories": "improper_keys, kerb_on_top_of_non_crossing", "issue_ids": "[2, 3]", "osm_url": "https://www.openstreetmap.org/node/256096213", "josm_url": "http://127.0.0.1:8111/load_object?new_layer=false&objects=n256096213", "id_url": "https://www.openstreetmap.org/edit?editor=id&node=256096213#map=20/59.8502799/10.8282158"}}, {"type": "Feature", "geometry": {"type": "Point", "coordinates": [10.641406, 59.9129048]}, "properties": {"id": 487371749, "feat_type": "node", "quality_categories": "improper_keys, kerb_on_top_of_non_crossing", "issue_ids": "[6, 3]", "osm_url": "https://www.openstreetmap.org/node/487371749", "josm_url": "http://127.0.0.1:8111/load_object?new_layer=false&objects=n487371749", "id_url": "https://www.openstreetmap.org/edit?editor=id&node=487371749#map=20/59.9129048/10.641406"}}, {"type": "Feature", "geometry": {"type": "Point", "coordinates": [10.6598428, 59.9246525]}, "properties": {"id": 1075461640, "feat_type": "node", "quality_categories": "improper_keys, kerb_on_top_of_non_crossing", "issue_ids": "[5, 3]", "osm_url": "https://www.openstreetmap.org/node/1075461640", "josm_url": "http://127.0.0.1:8111/load_object?new_layer=false&objects=n1075461640", "id_url": "https://www.openstreetmap.org/edit?editor=id&node=1075461640#map=20/59.9246525/10.6598428"}}, {"type": "Feature", "geometry": {"type": "Point", "coordinates": [10.7185417, 59.9472378]}, "properties": {"id": 1334088023, "feat_type": "node", "quality_categories": "improper_keys, kerb_on_top_of_non_crossing", "issue_ids": "[5, 3]", "osm_url": "https://www.openstreetmap.org/node/1334088023", "josm_url": "http://127.0.0.1:8111/load_object?new_layer=false&objects=n1334088023", "id_url": "https://www.openstreetmap.org/edit?editor=id&node=1334088023#map=20/59.9472378/10.7185417"}}, {"type": "Feature", "geometry": {"type": "Point", "coordinates": [10.6926649, 59.9507483]}, "properties": {"id": 1422621450, "feat_type": "node", "quality_categories": "improper_keys, uncanny_keys", "issue_ids": "[0, 4]", "osm_url": "https://www.openstreetmap.org/node/1422621450", "josm_url": "http://127.0.0.1:8111/load_object?new_layer=false&objects=n1422621450", "id_url": "https://www.openstreetmap.org/edit?editor=id&node=1422621450#map=20/59.9507483/10.6926649"}}, {"type": "Feature", "geometry": {"type": "Point", "coordinates": [10.7708159, 59.9209273]}, "properties": {"id": 1472592606, "feat_type": "node", "quality_categories": "improper_keys", "issue_ids": "[7]", "osm_url": "https://www.openstreetmap.org/node/1472592606", "josm_url": "http://127.0.0.1:8111/load_object?new_layer=false&objects=n1472592606", "id_url": "https://www.openstreetmap.org/edit?editor=id&node=1472592606#map=20/59.9209273/10.7708159"}}, {"type": "Feature", "geometry": {"type": "Point", "coordinates": [10.7775059, 59.9091649]}, "properties": {"id": 1485390112, "feat_type": "node", "quality_categories": "improper_keys, uncanny_keys", "issue_ids": "[0, 4]", "osm_url": "https://www.openstreetmap.org/node/1485390112", "josm_url": "http://127.0.0.1:8111/load_object?new_layer=false&objects=n1485390112", "id_url": "https://www.openstreetmap.org/edit?editor=id&node=1485390112#map=20/59.9091649/10.7775059"}}, {"type": "Feature", "geometry": {"type": "Point", "coordinates": [10.7708731, 59.9271435]}, "properties": {"id": 1608323086, "feat_type": "node", "quality_categories": "improper_keys, kerb_on_top_of_non_crossing", "issue_ids": "[7, 3]", "osm_url": "https://www.openstreetmap.org/node/1608323086", "josm_url": "http://127.0.0.1:8111/load_object?new_layer=false&objects=n1608323086", "id_url": "https://www.openstreetmap.org/edit?editor=id&node=1608323086#map=20/59.9271435/10.7708731"}}, {"type": "Feature", "geometry": {"type": "Point", "coordinates": [10.773146, 59.9165774]}, "properties": {"id": 1635824254, "feat_type": "node", "quality_categories": "improper_keys, kerb_on_top_of_non_crossing", "issue_ids": "[7, 3]", "osm_url": "https://www.openstreetmap.org/node/1635824254", "josm_url": "http://127.0.0.1:8111/load_object?new_layer=false&objects=n1635824254", "id_url": "https://www.openstreetmap.org/edit?editor=id&node=1635824254#map=20/59.9165774/10.773146"}}, {"type": "Feature", "geometry": {"type": "Point", "coordinates": [10.6487448, 59.9194115]}, "properties": {"id": 1642083315, "feat_type": "node", "quality_categories": "disjointed_geometries, improper_keys", "issue_ids": "[5, 8]", "osm_url": "https://www.openstreetmap.org/node/1642083315", "josm_url": "http://127.0.0.1:8111/load_object?new_layer=false&objects=n1642083315", "id_url": "https://www.openstreetmap.org/edit?editor=id&node=1642083315#map=20/59.9194115/10.6487448"}}, {"type": "Feature", "geometry": {"type": "Point", "coordinates": [10.6706858, 59.9244965]}, "properties": {"id": 2302995734, "feat_type": "node", "quality_categories": "disjointed_geometries, improper_keys", "issue_ids": "[5, 8]", "osm_url": "https://www.openstreetmap.org/node/2302995734", "josm_url": "http://127.0.0.1:8111/load_object?new_layer=false&objects=n2302995734", "id_url": "https://www.openstreetmap.org/edit?editor=id&node=2302995734#map=20/59.9244965/10.6706858"}}, {"type": "Feature", "geometry": {"type": "Point", "coordinates": [10.6636151, 59.9211652]}, "properties": {"id": 2304107917, "feat_type": "node", "quality_categories": "disjointed_geometries, improper_keys", "issue_ids": "[5, 8]", "osm_url": "https://www.openstreetmap.org/node/2304107917", "josm_url": "http://127.0.0.1:8111/load_object?new_layer=false&objects=n2304107917", "id_url": "https://www.openstreetmap.org/edit?editor=id&node=2304107917#map=20/59.9211652/10.6636151"}}, {"type": "Feature", "geometry": {"type": "Point", "coordinates": [10.838576, 59.9127041]}, "properties": {"id": 2497623111, "feat_type": "node", "quality_categories": "improper_keys, kerb_on_top_of_non_crossing", "issue_ids": "[7, 3]", "osm_url": "https://www.openstreetmap.org/node/2497623111", "josm_url": "http://127.0.0.1:8111/load_object?new_layer=false&objects=n2497623111", "id_url": "https://www.openstreetmap.org/edit?editor=id&node=2497623111#map=20/59.9127041/10.838576"}}, {"type": "Feature", "geometry": {"type": "Point", "coordinates": [10.746062, 59.9126321]}, "properties": {"id": 2726958716, "feat_type": "node", "quality_categories": "improper_keys, uncanny_keys", "issue_ids": "[0, 4]", "osm_url": "https://www.openstreetmap.org/node/2726958716", "josm_url": "http://127.0.0.1:8111/load_object?new_layer=false&objects=n2726958716", "id_url": "https://www.openstreetmap.org/edit?editor=id&node=2726958716#map=20/59.9126321/10.746062"}}, {"type": "Feature", "geometry": {"type": "Point", "coordinates": [10.7344871, 59.9139097]}, "properties": {"id": 2734190010, "feat_type": "node", "quality_categories": "improper_keys", "issue_ids": "[7]", "osm_url": "https://www.openstreetmap.org/node/2734190010", "josm_url": "http://127.0.0.1:8111/load_object?new_layer=false&objects=n2734190010", "id_url": "https://www.openstreetmap.org/edit?editor=id&node=2734190010#map=20/59.9139097/10.7344871"}}, {"type": "Feature", "geometry": {"type": "Point", "coordinates": [10.8443292, 59.8678263]}, "properties": {"id": 2849106323, "feat_type": "node", "quality_categories": "improper_keys", "issue_ids": "[7]", "osm_url": "https://www.openstreetmap.org/node/2849106323", "josm_url": "http://127.0.0.1:8111/load_object?new_layer=false&objects=n2849106323", "id_url": "https://www.openstreetmap.org/edit?editor=id&node=2849106323#map=20/59.8678263/10.8443292"}}, {"type": "Feature", "geometry": {"type": "Point", "coordinates": [10.7622115, 59.9117455]}, "properties": {"id": 3605560667, "feat_type": "node", "quality_categories": "improper_keys", "issue_ids": "[2]", "osm_url": "https://www.openstreetmap.org/node/3605560667", "josm_url": "http://127.0.0.1:8111/load_object?new_layer=false&objects=n3605560667", "id_url": "https://www.openstreetmap.org/edit?editor=id&node=3605560667#map=20/59.9117455/10.7622115"}}, {"type": "Feature", "geometry": {"type": "Point", "coordinates": [10.7881834, 59.931758]}, "properties": {"id": 3782417019, "feat_type": "node", "quality_categories": "improper_keys, kerb_on_top_of_non_crossing", "issue_ids": "[7, 3]", "osm_url": "https://www.openstreetmap.org/node/3782417019", "josm_url": "http://127.0.0.1:8111/load_object?new_layer=false&objects=n3782417019", "id_url": "https://www.openstreetmap.org/edit?editor=id&node=3782417019#map=20/59.931758/10.7881834"}}, {"type": "Feature", "geometry": {"type": "Point", "coordinates": [10.682104, 59.9209564]}, "properties": {"id": 5236963282, "feat_type": "node", "quality_categories": "improper_keys", "issue_ids": "[7]", "osm_url": "https://www.openstreetmap.org/node/5236963282", "josm_url": "http://127.0.0.1:8111/load_object?new_layer=false&objects=n5236963282", "id_url": "https://www.openstreetmap.org/edit?editor=id&node=5236963282#map=20/59.9209564/10.682104"}}, {"type": "Feature", "geometry": {"type": "Point", "coordinates": [10.8374362, 59.8919081]}, "properties": {"id": 5248636568, "feat_type": "node", "quality_categories": "disjointed_geometries, improper_keys", "issue_ids": "[5, 8]", "osm_url": "https://www.openstreetmap.org/node/5248636568", "josm_url": "http://127.0.0.1:8111/load_object?new_layer=false&objects=n5248636568", "id_url": "https://www.openstreetmap.org/edit?editor=id&node=5248636568#map=20/59.8919081/10.8374362"}}, {"type": "Feature", "geometry": {"type": "Point", "coordinates": [10.8350811, 59.9031527]}, "properties": {"id": 5629984722, "feat_type": "node", "quality_categories": "disjointed_geometries, improper_keys", "issue_ids": "[5, 8]", "osm_url": "https://www.openstreetmap.org/node/5629984722", "josm_url": "http://127.0.0.1:8111/load_object?new_layer=false&objects=n5629984722", "id_url": "https://www.openstreetmap.org/edit?editor=id&node=5629984722#map=20/59.9031527/10.8350811"}}, {"type": "Feature", "geometry": {"type": "Point", "coordinates": [10.835299, 59.9032477]}, "properties": {"id": 5630047075, "feat_type": "node", "quality_categories": "disjointed_geometries, improper_keys", "issue_ids": "[5, 8]", "osm_url": "https://www.openstreetmap.org/node/5630047075", "josm_url": "http://127.0.0.1:8111/load_object?new_layer=false&objects=n5630047075", "id_url": "https://www.openstreetmap.org/edit?editor=id&node=5630047075#map=20/59.9032477/10.835299"}}, {"type": "Feature", "geometry": {"type": "Point", "coordinates": [10.834951, 59.9032542]}, "properties": {"id": 5630224601, "feat_type": "node", "quality_categories": "disjointed_geometries, improper_keys", "issue_ids": "[5, 8]", "osm_url": "https://www.openstreetmap.org/node/5630224601", "josm_url": "http://127.0.0.1:8111/load_object?new_layer=false&objects=n5630224601", "id_url": "https://www.openstreetmap.org/edit?editor=id&node=5630224601#map=20/59.9032542/10.834951"}}, {"type": "Feature", "geometry": {"type": "Point", "coordinates": [10.8482311, 59.9161089]}, "properties": {"id": 6127656338, "feat_type": "node", "quality_categories": "improper_keys, kerb_on_top_of_non_crossing", "issue_ids": "[7, 3]", "osm_url": "https://www.openstreetmap.org/node/6127656338", "josm_url": "http://127.0.0.1:8111/load_object?new_layer=false&objects=n6127656338", "id_url": "https://www.openstreetmap.org/edit?editor=id&node=6127656338#map=20/59.9161089/10.8482311"}}, {"type": "Feature", "geometry": {"type": "Point", "coordinates": [10.8482876, 59.9161597]}, "properties": {"id": 6127656339, "feat_type": "node", "quality_categories": "improper_keys, kerb_on_top_of_non_crossing", "issue_ids": "[7, 3]", "osm_url": "https://www.openstreetmap.org/node/6127656339", "josm_url": "http://127.0.0.1:8111/load_object?new_layer=false&objects=n6127656339", "id_url": "https://www.openstreetmap.org/edit?editor=id&node=6127656339#map=20/59.9161597/10.8482876"}}, {"type": "Feature", "geometry": {"type": "Point", "coordinates": [10.8448067, 59.9141069]}, "properties": {"id": 6128770485, "feat_type": "node", "quality_categories": "improper_keys, kerb_on_top_of_non_crossing, uncanny_keys", "issue_ids": "[0, 1, 3]", "osm_url": "https://www.openstreetmap.org/node/6128770485", "josm_url": "http://127.0.0.1:8111/load_object?new_layer=false&objects=n6128770485", "id_url": "https://www.openstreetmap.org/edit?editor=id&node=6128770485#map=20/59.9141069/10.8448067"}}, {"type": "Feature", "geometry": {"type": "Point", "coordinates": [10.8446844, 59.9140297]}, "properties": {"id": 6128770486, "feat_type": "node", "quality_categories": "improper_keys, kerb_on_top_of_non_crossing, uncanny_keys", "issue_ids": "[0, 1, 3]", "osm_url": "https://www.openstreetmap.org/node/6128770486", "josm_url": "http://127.0.0.1:8111/load_object?new_layer=false&objects=n6128770486", "id_url": "https://www.openstreetmap.org/edit?editor=id&node=6128770486#map=20/59.9140297/10.8446844"}}, {"type": "Feature", "geometry": {"type": "Point", "coordinates": [10.8386826, 59.9127617]}, "properties": {"id": 6129366084, "feat_type": "node", "quality_categories": "improper_keys, kerb_on_top_of_non_crossing", "issue_ids": "[7, 3]", "osm_url": "https://www.openstreetmap.org/node/6129366084", "josm_url": "http://127.0.0.1:8111/load_object?new_layer=false&objects=n6129366084", "id_url": "https://www.openstreetmap.org/edit?editor=id&node=6129366084#map=20/59.9127617/10.8386826"}}, {"type": "Feature", "geometry": {"type": "Point", "coordinates": [10.6679498, 59.9253021]}, "properties": {"id": 6425119308, "feat_type": "node", "quality_categories": "improper_keys, kerb_on_top_of_non_crossing", "issue_ids": "[5, 3]", "osm_url": "https://www.openstreetmap.org/node/6425119308", "josm_url": "http://127.0.0.1:8111/load_object?new_layer=false&objects=n6425119308", "id_url": "https://www.openstreetmap.org/edit?editor=id&node=6425119308#map=20/59.9253021/10.6679498"}}, {"type": "Feature", "geometry": {"type": "Point", "coordinates": [10.758969, 59.9114605]}, "properties": {"id": 8231637256, "feat_type": "node", "quality_categories": "improper_keys, kerb_on_top_of_non_crossing", "issue_ids": "[7, 3]", "osm_url": "https://www.openstreetmap.org/node/8231637256", "josm_url": "http://127.0.0.1:8111/load_object?new_layer=false&objects=n8231637256", "id_url": "https://www.openstreetmap.org/edit?editor=id&node=8231637256#map=20/59.9114605/10.758969"}}, {"type": "Feature", "geometry": {"type": "Point", "coordinates": [10.7582505, 59.9172759]}, "properties": {"id": 8431977220, "feat_type": "node", "quality_categories": "improper_keys", "issue_ids": "[7]", "osm_url": "https://www.openstreetmap.org/node/8431977220", "josm_url": "http://127.0.0.1:8111/load_object?new_layer=false&objects=n8431977220", "id_url": "https://www.openstreetmap.org/edit?editor=id&node=8431977220#map=20/59.9172759/10.7582505"}}, {"type": "Feature", "geometry": {"type": "Point", "coordinates": [10.7560908, 59.907502]}, "properties": {"id": 8556633019, "feat_type": "node", "quality_categories": "improper_keys", "issue_ids": "[7]", "osm_url": "https://www.openstreetmap.org/node/8556633019", "josm_url": "http://127.0.0.1:8111/load_object?new_layer=false&objects=n8556633019", "id_url": "https://www.openstreetmap.org/edit?editor=id&node=8556633019#map=20/59.907502/10.7560908"}}, {"type": "Feature", "geometry": {"type": "Point", "coordinates": [10.7486146, 59.9144506]}, "properties": {"id": 8769279439, "feat_type": "node", "quality_categories": "improper_keys, kerb_on_top_of_non_crossing", "issue_ids": "[9, 3]", "osm_url": "https://www.openstreetmap.org/node/8769279439", "josm_url": "http://127.0.0.1:8111/load_object?new_layer=false&objects=n8769279439", "id_url": "https://www.openstreetmap.org/edit?editor=id&node=8769279439#map=20/59.9144506/10.7486146"}}, {"type": "Feature", "geometry": {"type": "Point", "coordinates": [10.7576916, 59.9210946]}, "properties": {"id": 9535901001, "feat_type": "node", "quality_categories": "improper_keys, kerb_on_top_of_non_crossing", "issue_ids": "[7, 3]", "osm_url": "https://www.openstreetmap.org/node/9535901001", "josm_url": "http://127.0.0.1:8111/load_object?new_layer=false&objects=n9535901001", "id_url": "https://www.openstreetmap.org/edit?editor=id&node=9535901001#map=20/59.9210946/10.7576916"}}, {"type": "Feature", "geometry": {"type": "Point", "coordinates": [10.8351698, 59.9033437]}, "properties": {"id": 9764450361, "feat_type": "node", "quality_categories": "disjointed_geometries, improper_keys", "issue_ids": "[5, 8]", "osm_url": "https://www.openstreetmap.org/node/9764450361", "josm_url": "http://127.0.0.1:8111/load_object?new_layer=false&objects=n9764450361", "id_url": "https://www.openstreetmap.org/edit?editor=id&node=9764450361#map=20/59.9033437/10.8351698"}}, {"type": "Feature", "geometry": {"type": "Point", "coordinates": [10.8110275, 59.8753012]}, "properties": {"id": 12043686042, "feat_type": "node", "quality_categories": "improper_keys", "issue_ids": "[7]", "osm_url": "https://www.openstreetmap.org/node/12043686042", "josm_url": "http://127.0.0.1:8111/load_object?new_layer=false&objects=n12043686042", "id_url": "https://www.openstreetmap.org/edit?editor=id&node=12043686042#map=20/59.8753012/10.8110275"}}, {"type": "Feature", "geometry": {"type": "Point", "coordinates": [10.7212526, 59.9263928]}, "properties": {"id": 12178586219, "feat_type": "node", "quality_categories": "improper_keys, kerb_on_top_of_non_crossing", "issue_ids": "[7, 3]", "osm_url": "https://www.openstreetmap.org/node/12178586219", "josm_url": "http://127.0.0.1:8111/load_object?new_layer=false&objects=n12178586219", "id_url": "https://www.openstreetmap.org/edit?editor=id&node=12178586219#map=20/59.9263928/10.7212526"}}, {"type": "Feature", "geometry": {"type": "Point", "coordinates": [10.7220356, 59.9259108]}, "properties": {"id": 12178586220, "feat_type": "node", "quality_categories": "improper_keys, kerb_on_top_of_non_crossing", "issue_ids": "[7, 3]", "osm_url": "https://www.openstreetmap.org/node/12178586220", "josm_url": "http://127.0.0.1:8111/load_object?new_layer=false&objects=n12178586220", "id_url": "https://www.openstreetmap.org/edit?editor=id&node=12178586220#map=20/59.9259108/10.7220356"}}, {"type": "Feature", "geometry": {"type": "Point", "coordinates": [10.7236476, 59.9249348]}, "properties": {"id": 12178586221, "feat_type": "node", "quality_categories": "improper_keys, kerb_on_top_of_non_crossing", "issue_ids": "[7, 3]", "osm_url": "https://www.openstreetmap.org/node/12178586221", "josm_url": "http://127.0.0.1:8111/load_object?new_layer=false&objects=n12178586221", "id_url": "https://www.openstreetmap.org/edit?editor=id&node=12178586221#map=20/59.9249348/10.7236476"}}, {"type": "Feature", "geometry": {"type": "Point", "coordinates": [10.7257346, 59.9238478]}, "properties": {"id": 12178586228, "feat_type": "node", "quality_categories": "improper_keys, kerb_on_top_of_non_crossing", "issue_ids": "[7, 3]", "osm_url": "https://www.openstreetmap.org/node/12178586228", "josm_url": "http://127.0.0.1:8111/load_object?new_layer=false&objects=n12178586228", "id_url": "https://www.openstreetmap.org/edit?editor=id&node=12178586228#map=20/59.9238478/10.7257346"}}, {"type": "Feature", "geometry": {"type": "Point", "coordinates": [10.7200326, 59.9271758]}, "properties": {"id": 12178586230, "feat_type": "node", "quality_categories": "improper_keys, kerb_on_top_of_non_crossing", "issue_ids": "[7, 3]", "osm_url": "https://www.openstreetmap.org/node/12178586230", "josm_url": "http://127.0.0.1:8111/load_object?new_layer=false&objects=n12178586230", "id_url": "https://www.openstreetmap.org/edit?editor=id&node=12178586230#map=20/59.9271758/10.7200326"}}, {"type": "Feature", "geometry": {"type": "Point", "coordinates": [10.7262776, 59.9232158]}, "properties": {"id": 12178586231, "feat_type": "node", "quality_categories": "improper_keys, kerb_on_top_of_non_crossing", "issue_ids": "[7, 3]", "osm_url": "https://www.openstreetmap.org/node/12178586231", "josm_url": "http://127.0.0.1:8111/load_object?new_layer=false&objects=n12178586231", "id_url": "https://www.openstreetmap.org/edit?editor=id&node=12178586231#map=20/59.9232158/10.7262776"}}, {"type": "Feature", "geometry": {"type": "Point", "coordinates": [10.7210276, 59.9265418]}, "properties": {"id": 12178586232, "feat_type": "node", "quality_categories": "improper_keys, kerb_on_top_of_non_crossing", "issue_ids": "[7, 3]", "osm_url": "https://www.openstreetmap.org/node/12178586232", "josm_url": "http://127.0.0.1:8111/load_object?new_layer=false&objects=n12178586232", "id_url": "https://www.openstreetmap.org/edit?editor=id&node=12178586232#map=20/59.9265418/10.7210276"}}, {"type": "Feature", "geometry": {"type": "Point", "coordinates": [10.7696434, 59.9225211]}, "properties": {"id": 12542599759, "feat_type": "node", "quality_categories": "improper_keys", "issue_ids": "[7]", "osm_url": "https://www.openstreetmap.org/node/12542599759", "josm_url": "http://127.0.0.1:8111/load_object?new_layer=false&objects=n12542599759", "id_url": "https://www.openstreetmap.org/edit?editor=id&node=12542599759#map=20/59.9225211/10.7696434"}}, {"type": "Feature", "geometry": {"type": "Point", "coordinates": [10.6552103, 59.9248952]}, "properties": {"id": 12758305383, "feat_type": "node", "quality_categories": "improper_keys, kerb_on_top_of_non_crossing", "issue_ids": "[7, 3]", "osm_url": "https://www.openstreetmap.org/node/12758305383", "josm_url": "http://127.0.0.1:8111/load_object?new_layer=false&objects=n12758305383", "id_url": "https://www.openstreetmap.org/edit?editor=id&node=12758305383#map=20/59.9248952/10.6552103"}}, {"type": "Feature", "geometry": {"type": "Point", "coordinates": [10.747488, 59.911662]}, "properties": {"id": 13846775969, "feat_type": "node", "quality_categories": "improper_keys, uncanny_keys", "issue_ids": "[0, 4]", "osm_url": "https://www.openstreetmap.org/node/13846775969", "josm_url": "http://127.0.0.1:8111/load_object?new_layer=false&objects=n13846775969", "id_url": "https://www.openstreetmap.org/edit?editor=id&node=13846775969#map=20/59.911662/10.747488"}}, {"type": "Feature", "geometry": {"type": "Point", "coordinates": [10.795600499999987, 59.910069199999995]}, "properties": {"id": 343722829, "feat_type": "way", "quality_categories": "improper_geometries, improper_keys", "issue_ids": "[10, 11]", "osm_url": "https://www.openstreetmap.org/way/343722829", "josm_url": "http://127.0.0.1:8111/load_object?new_layer=false&objects=w343722829", "id_url": "https://www.openstreetmap.org/edit?editor=id&way=343722829#map=20/59.910069199999995/10.795600499999987"}}, {"type": "Feature", "geometry": {"type": "Point", "coordinates": [10.746342215290806, 59.912430400000005]}, "properties": {"id": 810225567, "feat_type": "way", "quality_categories": "improper_geometries, improper_keys", "issue_ids": "[12, 11]", "osm_url": "https://www.openstreetmap.org/way/810225567", "josm_url": "http://127.0.0.1:8111/load_object?new_layer=false&objects=w810225567", "id_url": "https://www.openstreetmap.org/edit?editor=id&way=810225567#map=20/59.912430400000005/10.746342215290806"}}]}