{"type": "FeatureCollection", "features": [{"type": "Feature", "geometry": {"type": "Point", "coordinates": [10.7333706, 59.9145353]}, "properties": {"id": 26629965, "feat_type": "node", "quality_categories": "older_than_five_years", "issue_ids": "[0]", "osm_url": "https://www.openstreetmap.org/node/26629965", "josm_url": "http://127.0.0.1:8111/load_object?new_layer=false&objects=n26629965", "id_url": "https://www.openstreetmap.org/edit?editor=id&node=26629965#map=20/59.9145353/10.7333706"}}, {"type": "Feature", "geometry": {"type": "Point", "coordinates": [10.715207, 59.9289339]}, "properties": {"id": 1122428132, "feat_type": "node", "quality_categories": "older_than_five_years", "issue_ids": "[1]", "osm_url": "https://www.openstreetmap.org/node/1122428132", "josm_url": "http://127.0.0.1:8111/load_object?new_layer=false&objects=n1122428132", "id_url": "https://www.openstreetmap.org/edit?editor=id&node=1122428132#map=20/59.9289339/10.715207"}}, {"type": "Feature", "geometry": {"type": "Point", "coordinates": [10.7283281, 59.9207071]}, "properties": {"id": 1239355579, "feat_type": "node", "quality_categories": "older_than_five_years", "issue_ids": "[2]", "osm_url": "https://www.openstreetmap.org/node/1239355579", "josm_url": "http://127.0.0.1:8111/load_object?new_layer=false&objects=n1239355579", "id_url": "https://www.openstreetmap.org/edit?editor=id&node=1239355579#map=20/59.9207071/10.7283281"}}, {"type": "Feature", "geometry": {"type": "Point", "coordinates": [10.7167125, 59.9284283]}, "properties": {"id": 1347324312, "feat_type": "node", "quality_categories": "older_than_five_years", "issue_ids": "[3]", "osm_url": "https://www.openstreetmap.org/node/1347324312", "josm_url": "http://127.0.0.1:8111/load_object?new_layer=false&objects=n1347324312", "id_url": "https://www.openstreetmap.org/edit?editor=id&node=1347324312#map=20/59.9284283/10.7167125"}}, {"type": "Feature", "geometry": {"type": "Point", "coordinates": [10.7109502, 59.9468797]}, "properties": {"id": 1347436730, "feat_type": "node", "quality_categories": "older_than_five_years", "issue_ids": "[4]", "osm_url": "https://www.openstreetmap.org/node/1347436730", "josm_url": "http://127.0.0.1:8111/load_object?new_layer=false&objects=n1347436730", "id_url": "https://www.openstreetmap.org/edit?editor=id&node=1347436730#map=20/59.9468797/10.7109502"}}, {"type": "Feature", "geometry": {"type": "Point", "coordinates": [10.7109588, 59.9467079]}, "properties": {"id": 1347436763, "feat_type": "node", "quality_categories": "older_than_five_years", "issue_ids": "[4]", "osm_url": "https://www.openstreetmap.org/node/1347436763", "josm_url": "http://127.0.0.1:8111/load_object?new_layer=false&objects=n1347436763", "id_url": "https://www.openstreetmap.org/edit?editor=id&node=1347436763#map=20/59.9467079/10.7109588"}}, {"type": "Feature", "geometry": {"type": "Point", "coordinates": [10.8005709, 59.9127147]}, "properties": {"id": 2305536268, "feat_type": "node", "quality_categories": "kerb_on_top_of_non_crossing, older_than_five_years", "issue_ids": "[5, 6]", "osm_url": "https://www.openstreetmap.org/node/2305536268", "josm_url": "http://127.0.0.1:8111/load_object?new_layer=false&objects=n2305536268", "id_url": "https://www.openstreetmap.org/edit?editor=id&node=2305536268#map=20/59.9127147/10.8005709"}}, {"type": "Feature", "geometry": {"type": "Point", "coordinates": [10.8023664, 59.9306979]}, "properties": {"id": 2503187204, "feat_type": "node", "quality_categories": "older_than_five_years", "issue_ids": "[7]", "osm_url": "https://www.openstreetmap.org/node/2503187204", "josm_url": "http://127.0.0.1:8111/load_object?new_layer=false&objects=n2503187204", "id_url": "https://www.openstreetmap.org/edit?editor=id&node=2503187204#map=20/59.9306979/10.8023664"}}, {"type": "Feature", "geometry": {"type": "Point", "coordinates": [10.8024692, 59.9307453]}, "properties": {"id": 2503187239, "feat_type": "node", "quality_categories": "older_than_five_years", "issue_ids": "[8]", "osm_url": "https://www.openstreetmap.org/node/2503187239", "josm_url": "http://127.0.0.1:8111/load_object?new_layer=false&objects=n2503187239", "id_url": "https://www.openstreetmap.org/edit?editor=id&node=2503187239#map=20/59.9307453/10.8024692"}}, {"type": "Feature", "geometry": {"type": "Point", "coordinates": [10.802527, 59.9307721]}, "properties": {"id": 2503187265, "feat_type": "node", "quality_categories": "older_than_five_years", "issue_ids": "[8]", "osm_url": "https://www.openstreetmap.org/node/2503187265", "josm_url": "http://127.0.0.1:8111/load_object?new_layer=false&objects=n2503187265", "id_url": "https://www.openstreetmap.org/edit?editor=id&node=2503187265#map=20/59.9307721/10.802527"}}, {"type": "Feature", "geometry": {"type": "Point", "coordinates": [10.7986924, 59.9324073]}, "properties": {"id": 2503187495, "feat_type": "node", "quality_categories": "older_than_five_years", "issue_ids": "[7]", "osm_url": "https://www.openstreetmap.org/node/2503187495", "josm_url": "http://127.0.0.1:8111/load_object?new_layer=false&objects=n2503187495", "id_url": "https://www.openstreetmap.org/edit?editor=id&node=2503187495#map=20/59.9324073/10.7986924"}}, {"type": "Feature", "geometry": {"type": "Point", "coordinates": [10.7985794, 59.9324438]}, "properties": {"id": 2503187508, "feat_type": "node", "quality_categories": "older_than_five_years", "issue_ids": "[7]", "osm_url": "https://www.openstreetmap.org/node/2503187508", "josm_url": "http://127.0.0.1:8111/load_object?new_layer=false&objects=n2503187508", "id_url": "https://www.openstreetmap.org/edit?editor=id&node=2503187508#map=20/59.9324438/10.7985794"}}, {"type": "Feature", "geometry": {"type": "Point", "coordinates": [10.798789, 59.9326051]}, "properties": {"id": 2503187612, "feat_type": "node", "quality_categories": "older_than_five_years", "issue_ids": "[7]", "osm_url": "https://www.openstreetmap.org/node/2503187612", "josm_url": "http://127.0.0.1:8111/load_object?new_layer=false&objects=n2503187612", "id_url": "https://www.openstreetmap.org/edit?editor=id&node=2503187612#map=20/59.9326051/10.798789"}}, {"type": "Feature", "geometry": {"type": "Point", "coordinates": [10.7911967, 59.9347138]}, "properties": {"id": 2503188020, "feat_type": "node", "quality_categories": "older_than_five_years", "issue_ids": "[7]", "osm_url": "https://www.openstreetmap.org/node/2503188020", "josm_url": "http://127.0.0.1:8111/load_object?new_layer=false&objects=n2503188020", "id_url": "https://www.openstreetmap.org/edit?editor=id&node=2503188020#map=20/59.9347138/10.7911967"}}, {"type": "Feature", "geometry": {"type": "Point", "coordinates": [10.7911159, 59.9347458]}, "properties": {"id": 2503188063, "feat_type": "node", "quality_categories": "older_than_five_years", "issue_ids": "[7]", "osm_url": "https://www.openstreetmap.org/node/2503188063", "josm_url": "http://127.0.0.1:8111/load_object?new_layer=false&objects=n2503188063", "id_url": "https://www.openstreetmap.org/edit?editor=id&node=2503188063#map=20/59.9347458/10.7911159"}}, {"type": "Feature", "geometry": {"type": "Point", "coordinates": [10.7910868, 59.9347573]}, "properties": {"id": 2503188079, "feat_type": "node", "quality_categories": "older_than_five_years", "issue_ids": "[7]", "osm_url": "https://www.openstreetmap.org/node/2503188079", "josm_url": "http://127.0.0.1:8111/load_object?new_layer=false&objects=n2503188079", "id_url": "https://www.openstreetmap.org/edit?editor=id&node=2503188079#map=20/59.9347573/10.7910868"}}, {"type": "Feature", "geometry": {"type": "Point", "coordinates": [10.7910268, 59.9347811]}, "properties": {"id": 2503188109, "feat_type": "node", "quality_categories": "older_than_five_years", "issue_ids": "[7]", "osm_url": "https://www.openstreetmap.org/node/2503188109", "josm_url": "http://127.0.0.1:8111/load_object?new_layer=false&objects=n2503188109", "id_url": "https://www.openstreetmap.org/edit?editor=id&node=2503188109#map=20/59.9347811/10.7910268"}}, {"type": "Feature", "geometry": {"type": "Point", "coordinates": [10.7917058, 59.9351287]}, "properties": {"id": 2503188492, "feat_type": "node", "quality_categories": "older_than_five_years", "issue_ids": "[7]", "osm_url": "https://www.openstreetmap.org/node/2503188492", "josm_url": "http://127.0.0.1:8111/load_object?new_layer=false&objects=n2503188492", "id_url": "https://www.openstreetmap.org/edit?editor=id&node=2503188492#map=20/59.9351287/10.7917058"}}, {"type": "Feature", "geometry": {"type": "Point", "coordinates": [10.7916756, 59.9351397]}, "properties": {"id": 2503188504, "feat_type": "node", "quality_categories": "older_than_five_years", "issue_ids": "[7]", "osm_url": "https://www.openstreetmap.org/node/2503188504", "josm_url": "http://127.0.0.1:8111/load_object?new_layer=false&objects=n2503188504", "id_url": "https://www.openstreetmap.org/edit?editor=id&node=2503188504#map=20/59.9351397/10.7916756"}}, {"type": "Feature", "geometry": {"type": "Point", "coordinates": [10.7910656, 59.9351351]}, "properties": {"id": 2503188589, "feat_type": "node", "quality_categories": "older_than_five_years", "issue_ids": "[7]", "osm_url": "https://www.openstreetmap.org/node/2503188589", "josm_url": "http://127.0.0.1:8111/load_object?new_layer=false&objects=n2503188589", "id_url": "https://www.openstreetmap.org/edit?editor=id&node=2503188589#map=20/59.9351351/10.7910656"}}, {"type": "Feature", "geometry": {"type": "Point", "coordinates": [10.7330667, 59.914389]}, "properties": {"id": 2717669602, "feat_type": "node", "quality_categories": "older_than_five_years", "issue_ids": "[0]", "osm_url": "https://www.openstreetmap.org/node/2717669602", "josm_url": "http://127.0.0.1:8111/load_object?new_layer=false&objects=n2717669602", "id_url": "https://www.openstreetmap.org/edit?editor=id&node=2717669602#map=20/59.914389/10.7330667"}}, {"type": "Feature", "geometry": {"type": "Point", "coordinates": [10.7331428, 59.9144256]}, "properties": {"id": 2717669611, "feat_type": "node", "quality_categories": "older_than_five_years", "issue_ids": "[0]", "osm_url": "https://www.openstreetmap.org/node/2717669611", "josm_url": "http://127.0.0.1:8111/load_object?new_layer=false&objects=n2717669611", "id_url": "https://www.openstreetmap.org/edit?editor=id&node=2717669611#map=20/59.9144256/10.7331428"}}, {"type": "Feature", "geometry": {"type": "Point", "coordinates": [10.7331848, 59.9144459]}, "properties": {"id": 2717669619, "feat_type": "node", "quality_categories": "older_than_five_years", "issue_ids": "[0]", "osm_url": "https://www.openstreetmap.org/node/2717669619", "josm_url": "http://127.0.0.1:8111/load_object?new_layer=false&objects=n2717669619", "id_url": "https://www.openstreetmap.org/edit?editor=id&node=2717669619#map=20/59.9144459/10.7331848"}}, {"type": "Feature", "geometry": {"type": "Point", "coordinates": [10.733259, 59.9144816]}, "properties": {"id": 2717669640, "feat_type": "node", "quality_categories": "older_than_five_years", "issue_ids": "[0]", "osm_url": "https://www.openstreetmap.org/node/2717669640", "josm_url": "http://127.0.0.1:8111/load_object?new_layer=false&objects=n2717669640", "id_url": "https://www.openstreetmap.org/edit?editor=id&node=2717669640#map=20/59.9144816/10.733259"}}, {"type": "Feature", "geometry": {"type": "Point", "coordinates": [10.733296, 59.9144994]}, "properties": {"id": 2717669660, "feat_type": "node", "quality_categories": "older_than_five_years", "issue_ids": "[0]", "osm_url": "https://www.openstreetmap.org/node/2717669660", "josm_url": "http://127.0.0.1:8111/load_object?new_layer=false&objects=n2717669660", "id_url": "https://www.openstreetmap.org/edit?editor=id&node=2717669660#map=20/59.9144994/10.733296"}}, {"type": "Feature", "geometry": {"type": "Point", "coordinates": [10.7325198, 59.9147437]}, "properties": {"id": 2717669728, "feat_type": "node", "quality_categories": "older_than_five_years", "issue_ids": "[0]", "osm_url": "https://www.openstreetmap.org/node/2717669728", "josm_url": "http://127.0.0.1:8111/load_object?new_layer=false&objects=n2717669728", "id_url": "https://www.openstreetmap.org/edit?editor=id&node=2717669728#map=20/59.9147437/10.7325198"}}, {"type": "Feature", "geometry": {"type": "Point", "coordinates": [10.7325579, 59.9147624]}, "properties": {"id": 2717669736, "feat_type": "node", "quality_categories": "older_than_five_years", "issue_ids": "[0]", "osm_url": "https://www.openstreetmap.org/node/2717669736", "josm_url": "http://127.0.0.1:8111/load_object?new_layer=false&objects=n2717669736", "id_url": "https://www.openstreetmap.org/edit?editor=id&node=2717669736#map=20/59.9147624/10.7325579"}}, {"type": "Feature", "geometry": {"type": "Point", "coordinates": [10.7326337, 59.9147995]}, "properties": {"id": 2717669761, "feat_type": "node", "quality_categories": "older_than_five_years", "issue_ids": "[0]", "osm_url": "https://www.openstreetmap.org/node/2717669761", "josm_url": "http://127.0.0.1:8111/load_object?new_layer=false&objects=n2717669761", "id_url": "https://www.openstreetmap.org/edit?editor=id&node=2717669761#map=20/59.9147995/10.7326337"}}, {"type": "Feature", "geometry": {"type": "Point", "coordinates": [10.7326719, 59.9148182]}, "properties": {"id": 2717669776, "feat_type": "node", "quality_categories": "older_than_five_years", "issue_ids": "[0]", "osm_url": "https://www.openstreetmap.org/node/2717669776", "josm_url": "http://127.0.0.1:8111/load_object?new_layer=false&objects=n2717669776", "id_url": "https://www.openstreetmap.org/edit?editor=id&node=2717669776#map=20/59.9148182/10.7326719"}}, {"type": "Feature", "geometry": {"type": "Point", "coordinates": [10.7408, 59.91582]}, "properties": {"id": 2727238305, "feat_type": "node", "quality_categories": "kerb_on_top_of_non_crossing, older_than_five_years", "issue_ids": "[9, 6]", "osm_url": "https://www.openstreetmap.org/node/2727238305", "josm_url": "http://127.0.0.1:8111/load_object?new_layer=false&objects=n2727238305", "id_url": "https://www.openstreetmap.org/edit?editor=id&node=2727238305#map=20/59.91582/10.7408"}}, {"type": "Feature", "geometry": {"type": "Point", "coordinates": [10.734314, 59.9166594]}, "properties": {"id": 2729720390, "feat_type": "node", "quality_categories": "older_than_five_years", "issue_ids": "[2]", "osm_url": "https://www.openstreetmap.org/node/2729720390", "josm_url": "http://127.0.0.1:8111/load_object?new_layer=false&objects=n2729720390", "id_url": "https://www.openstreetmap.org/edit?editor=id&node=2729720390#map=20/59.9166594/10.734314"}}, {"type": "Feature", "geometry": {"type": "Point", "coordinates": [10.7382368, 59.9132305]}, "properties": {"id": 2734189145, "feat_type": "node", "quality_categories": "older_than_five_years", "issue_ids": "[10]", "osm_url": "https://www.openstreetmap.org/node/2734189145", "josm_url": "http://127.0.0.1:8111/load_object?new_layer=false&objects=n2734189145", "id_url": "https://www.openstreetmap.org/edit?editor=id&node=2734189145#map=20/59.9132305/10.7382368"}}, {"type": "Feature", "geometry": {"type": "Point", "coordinates": [10.7176923, 59.9287574]}, "properties": {"id": 2885637787, "feat_type": "node", "quality_categories": "older_than_five_years", "issue_ids": "[1]", "osm_url": "https://www.openstreetmap.org/node/2885637787", "josm_url": "http://127.0.0.1:8111/load_object?new_layer=false&objects=n2885637787", "id_url": "https://www.openstreetmap.org/edit?editor=id&node=2885637787#map=20/59.9287574/10.7176923"}}, {"type": "Feature", "geometry": {"type": "Point", "coordinates": [10.737482, 59.9125964]}, "properties": {"id": 3117234166, "feat_type": "node", "quality_categories": "older_than_five_years", "issue_ids": "[11]", "osm_url": "https://www.openstreetmap.org/node/3117234166", "josm_url": "http://127.0.0.1:8111/load_object?new_layer=false&objects=n3117234166", "id_url": "https://www.openstreetmap.org/edit?editor=id&node=3117234166#map=20/59.9125964/10.737482"}}, {"type": "Feature", "geometry": {"type": "Point", "coordinates": [10.7375704, 59.9126628]}, "properties": {"id": 3117234188, "feat_type": "node", "quality_categories": "older_than_five_years", "issue_ids": "[11]", "osm_url": "https://www.openstreetmap.org/node/3117234188", "josm_url": "http://127.0.0.1:8111/load_object?new_layer=false&objects=n3117234188", "id_url": "https://www.openstreetmap.org/edit?editor=id&node=3117234188#map=20/59.9126628/10.7375704"}}, {"type": "Feature", "geometry": {"type": "Point", "coordinates": [10.7375631, 59.9126711]}, "properties": {"id": 3117234191, "feat_type": "node", "quality_categories": "older_than_five_years", "issue_ids": "[11]", "osm_url": "https://www.openstreetmap.org/node/3117234191", "josm_url": "http://127.0.0.1:8111/load_object?new_layer=false&objects=n3117234191", "id_url": "https://www.openstreetmap.org/edit?editor=id&node=3117234191#map=20/59.9126711/10.7375631"}}, {"type": "Feature", "geometry": {"type": "Point", "coordinates": [10.7150715, 59.9288676]}, "properties": {"id": 3254073386, "feat_type": "node", "quality_categories": "older_than_five_years", "issue_ids": "[1]", "osm_url": "https://www.openstreetmap.org/node/3254073386", "josm_url": "http://127.0.0.1:8111/load_object?new_layer=false&objects=n3254073386", "id_url": "https://www.openstreetmap.org/edit?editor=id&node=3254073386#map=20/59.9288676/10.7150715"}}, {"type": "Feature", "geometry": {"type": "Point", "coordinates": [10.7892906, 59.9244429]}, "properties": {"id": 3255500233, "feat_type": "node", "quality_categories": "older_than_five_years", "issue_ids": "[12]", "osm_url": "https://www.openstreetmap.org/node/3255500233", "josm_url": "http://127.0.0.1:8111/load_object?new_layer=false&objects=n3255500233", "id_url": "https://www.openstreetmap.org/edit?editor=id&node=3255500233#map=20/59.9244429/10.7892906"}}, {"type": "Feature", "geometry": {"type": "Point", "coordinates": [10.728216, 59.9203489]}, "properties": {"id": 3409238225, "feat_type": "node", "quality_categories": "older_than_five_years", "issue_ids": "[2]", "osm_url": "https://www.openstreetmap.org/node/3409238225", "josm_url": "http://127.0.0.1:8111/load_object?new_layer=false&objects=n3409238225", "id_url": "https://www.openstreetmap.org/edit?editor=id&node=3409238225#map=20/59.9203489/10.728216"}}, {"type": "Feature", "geometry": {"type": "Point", "coordinates": [10.728133, 59.9203777]}, "properties": {"id": 3409238234, "feat_type": "node", "quality_categories": "older_than_five_years", "issue_ids": "[2]", "osm_url": "https://www.openstreetmap.org/node/3409238234", "josm_url": "http://127.0.0.1:8111/load_object?new_layer=false&objects=n3409238234", "id_url": "https://www.openstreetmap.org/edit?editor=id&node=3409238234#map=20/59.9203777/10.728133"}}, {"type": "Feature", "geometry": {"type": "Point", "coordinates": [10.7280993, 59.9203894]}, "properties": {"id": 3409238235, "feat_type": "node", "quality_categories": "older_than_five_years", "issue_ids": "[2]", "osm_url": "https://www.openstreetmap.org/node/3409238235", "josm_url": "http://127.0.0.1:8111/load_object?new_layer=false&objects=n3409238235", "id_url": "https://www.openstreetmap.org/edit?editor=id&node=3409238235#map=20/59.9203894/10.7280993"}}, {"type": "Feature", "geometry": {"type": "Point", "coordinates": [10.7280443, 59.9204085]}, "properties": {"id": 3409238238, "feat_type": "node", "quality_categories": "older_than_five_years", "issue_ids": "[2]", "osm_url": "https://www.openstreetmap.org/node/3409238238", "josm_url": "http://127.0.0.1:8111/load_object?new_layer=false&objects=n3409238238", "id_url": "https://www.openstreetmap.org/edit?editor=id&node=3409238238#map=20/59.9204085/10.7280443"}}, {"type": "Feature", "geometry": {"type": "Point", "coordinates": [10.7283656, 59.9207274]}, "properties": {"id": 3409238308, "feat_type": "node", "quality_categories": "older_than_five_years", "issue_ids": "[2]", "osm_url": "https://www.openstreetmap.org/node/3409238308", "josm_url": "http://127.0.0.1:8111/load_object?new_layer=false&objects=n3409238308", "id_url": "https://www.openstreetmap.org/edit?editor=id&node=3409238308#map=20/59.9207274/10.7283656"}}, {"type": "Feature", "geometry": {"type": "Point", "coordinates": [10.7287471, 59.9207716]}, "properties": {"id": 3409238331, "feat_type": "node", "quality_categories": "older_than_five_years", "issue_ids": "[2]", "osm_url": "https://www.openstreetmap.org/node/3409238331", "josm_url": "http://127.0.0.1:8111/load_object?new_layer=false&objects=n3409238331", "id_url": "https://www.openstreetmap.org/edit?editor=id&node=3409238331#map=20/59.9207716/10.7287471"}}, {"type": "Feature", "geometry": {"type": "Point", "coordinates": [10.7278926, 59.9210961]}, "properties": {"id": 3409238390, "feat_type": "node", "quality_categories": "older_than_five_years", "issue_ids": "[2]", "osm_url": "https://www.openstreetmap.org/node/3409238390", "josm_url": "http://127.0.0.1:8111/load_object?new_layer=false&objects=n3409238390", "id_url": "https://www.openstreetmap.org/edit?editor=id&node=3409238390#map=20/59.9210961/10.7278926"}}, {"type": "Feature", "geometry": {"type": "Point", "coordinates": [10.727591, 59.9211387]}, "properties": {"id": 3409238400, "feat_type": "node", "quality_categories": "older_than_five_years", "issue_ids": "[2]", "osm_url": "https://www.openstreetmap.org/node/3409238400", "josm_url": "http://127.0.0.1:8111/load_object?new_layer=false&objects=n3409238400", "id_url": "https://www.openstreetmap.org/edit?editor=id&node=3409238400#map=20/59.9211387/10.727591"}}, {"type": "Feature", "geometry": {"type": "Point", "coordinates": [10.7277799, 59.9211601]}, "properties": {"id": 3409238409, "feat_type": "node", "quality_categories": "older_than_five_years", "issue_ids": "[2]", "osm_url": "https://www.openstreetmap.org/node/3409238409", "josm_url": "http://127.0.0.1:8111/load_object?new_layer=false&objects=n3409238409", "id_url": "https://www.openstreetmap.org/edit?editor=id&node=3409238409#map=20/59.9211601/10.7277799"}}, {"type": "Feature", "geometry": {"type": "Point", "coordinates": [10.7276777, 59.9211783]}, "properties": {"id": 3409238421, "feat_type": "node", "quality_categories": "older_than_five_years", "issue_ids": "[2]", "osm_url": "https://www.openstreetmap.org/node/3409238421", "josm_url": "http://127.0.0.1:8111/load_object?new_layer=false&objects=n3409238421", "id_url": "https://www.openstreetmap.org/edit?editor=id&node=3409238421#map=20/59.9211783/10.7276777"}}, {"type": "Feature", "geometry": {"type": "Point", "coordinates": [10.7269175, 59.9216371]}, "properties": {"id": 3409238492, "feat_type": "node", "quality_categories": "older_than_five_years", "issue_ids": "[2]", "osm_url": "https://www.openstreetmap.org/node/3409238492", "josm_url": "http://127.0.0.1:8111/load_object?new_layer=false&objects=n3409238492", "id_url": "https://www.openstreetmap.org/edit?editor=id&node=3409238492#map=20/59.9216371/10.7269175"}}, {"type": "Feature", "geometry": {"type": "Point", "coordinates": [10.7270339, 59.9216534]}, "properties": {"id": 3409238498, "feat_type": "node", "quality_categories": "older_than_five_years", "issue_ids": "[2]", "osm_url": "https://www.openstreetmap.org/node/3409238498", "josm_url": "http://127.0.0.1:8111/load_object?new_layer=false&objects=n3409238498", "id_url": "https://www.openstreetmap.org/edit?editor=id&node=3409238498#map=20/59.9216534/10.7270339"}}, {"type": "Feature", "geometry": {"type": "Point", "coordinates": [10.7192389, 59.9277244]}, "properties": {"id": 3411908265, "feat_type": "node", "quality_categories": "older_than_five_years", "issue_ids": "[1]", "osm_url": "https://www.openstreetmap.org/node/3411908265", "josm_url": "http://127.0.0.1:8111/load_object?new_layer=false&objects=n3411908265", "id_url": "https://www.openstreetmap.org/edit?editor=id&node=3411908265#map=20/59.9277244/10.7192389"}}, {"type": "Feature", "geometry": {"type": "Point", "coordinates": [10.7171192, 59.9284366]}, "properties": {"id": 3412595359, "feat_type": "node", "quality_categories": "older_than_five_years", "issue_ids": "[3]", "osm_url": "https://www.openstreetmap.org/node/3412595359", "josm_url": "http://127.0.0.1:8111/load_object?new_layer=false&objects=n3412595359", "id_url": "https://www.openstreetmap.org/edit?editor=id&node=3412595359#map=20/59.9284366/10.7171192"}}, {"type": "Feature", "geometry": {"type": "Point", "coordinates": [10.7176544, 59.9286064]}, "properties": {"id": 3412595370, "feat_type": "node", "quality_categories": "older_than_five_years", "issue_ids": "[1]", "osm_url": "https://www.openstreetmap.org/node/3412595370", "josm_url": "http://127.0.0.1:8111/load_object?new_layer=false&objects=n3412595370", "id_url": "https://www.openstreetmap.org/edit?editor=id&node=3412595370#map=20/59.9286064/10.7176544"}}, {"type": "Feature", "geometry": {"type": "Point", "coordinates": [10.7102263, 59.9454496]}, "properties": {"id": 3423698302, "feat_type": "node", "quality_categories": "older_than_five_years", "issue_ids": "[13]", "osm_url": "https://www.openstreetmap.org/node/3423698302", "josm_url": "http://127.0.0.1:8111/load_object?new_layer=false&objects=n3423698302", "id_url": "https://www.openstreetmap.org/edit?editor=id&node=3423698302#map=20/59.9454496/10.7102263"}}, {"type": "Feature", "geometry": {"type": "Point", "coordinates": [10.8585685, 59.9179086]}, "properties": {"id": 3508586552, "feat_type": "node", "quality_categories": "older_than_five_years", "issue_ids": "[14]", "osm_url": "https://www.openstreetmap.org/node/3508586552", "josm_url": "http://127.0.0.1:8111/load_object?new_layer=false&objects=n3508586552", "id_url": "https://www.openstreetmap.org/edit?editor=id&node=3508586552#map=20/59.9179086/10.8585685"}}, {"type": "Feature", "geometry": {"type": "Point", "coordinates": [10.8566503, 59.9132991]}, "properties": {"id": 3510700929, "feat_type": "node", "quality_categories": "older_than_five_years", "issue_ids": "[14]", "osm_url": "https://www.openstreetmap.org/node/3510700929", "josm_url": "http://127.0.0.1:8111/load_object?new_layer=false&objects=n3510700929", "id_url": "https://www.openstreetmap.org/edit?editor=id&node=3510700929#map=20/59.9132991/10.8566503"}}, {"type": "Feature", "geometry": {"type": "Point", "coordinates": [10.8563396, 59.9134306]}, "properties": {"id": 3510700941, "feat_type": "node", "quality_categories": "older_than_five_years", "issue_ids": "[14]", "osm_url": "https://www.openstreetmap.org/node/3510700941", "josm_url": "http://127.0.0.1:8111/load_object?new_layer=false&objects=n3510700941", "id_url": "https://www.openstreetmap.org/edit?editor=id&node=3510700941#map=20/59.9134306/10.8563396"}}, {"type": "Feature", "geometry": {"type": "Point", "coordinates": [10.8582137, 59.9137063]}, "properties": {"id": 3510700980, "feat_type": "node", "quality_categories": "older_than_five_years", "issue_ids": "[14]", "osm_url": "https://www.openstreetmap.org/node/3510700980", "josm_url": "http://127.0.0.1:8111/load_object?new_layer=false&objects=n3510700980", "id_url": "https://www.openstreetmap.org/edit?editor=id&node=3510700980#map=20/59.9137063/10.8582137"}}, {"type": "Feature", "geometry": {"type": "Point", "coordinates": [10.7496626, 59.9606114]}, "properties": {"id": 3536397946, "feat_type": "node", "quality_categories": "older_than_five_years", "issue_ids": "[13]", "osm_url": "https://www.openstreetmap.org/node/3536397946", "josm_url": "http://127.0.0.1:8111/load_object?new_layer=false&objects=n3536397946", "id_url": "https://www.openstreetmap.org/edit?editor=id&node=3536397946#map=20/59.9606114/10.7496626"}}, {"type": "Feature", "geometry": {"type": "Point", "coordinates": [10.7494498, 59.9606605]}, "properties": {"id": 3536397950, "feat_type": "node", "quality_categories": "older_than_five_years", "issue_ids": "[13]", "osm_url": "https://www.openstreetmap.org/node/3536397950", "josm_url": "http://127.0.0.1:8111/load_object?new_layer=false&objects=n3536397950", "id_url": "https://www.openstreetmap.org/edit?editor=id&node=3536397950#map=20/59.9606605/10.7494498"}}, {"type": "Feature", "geometry": {"type": "Point", "coordinates": [10.7478524, 59.9609891]}, "properties": {"id": 3536397978, "feat_type": "node", "quality_categories": "older_than_five_years", "issue_ids": "[13]", "osm_url": "https://www.openstreetmap.org/node/3536397978", "josm_url": "http://127.0.0.1:8111/load_object?new_layer=false&objects=n3536397978", "id_url": "https://www.openstreetmap.org/edit?editor=id&node=3536397978#map=20/59.9609891/10.7478524"}}, {"type": "Feature", "geometry": {"type": "Point", "coordinates": [10.7973161, 59.9526324]}, "properties": {"id": 3682753163, "feat_type": "node", "quality_categories": "older_than_five_years", "issue_ids": "[15]", "osm_url": "https://www.openstreetmap.org/node/3682753163", "josm_url": "http://127.0.0.1:8111/load_object?new_layer=false&objects=n3682753163", "id_url": "https://www.openstreetmap.org/edit?editor=id&node=3682753163#map=20/59.9526324/10.7973161"}}, {"type": "Feature", "geometry": {"type": "Point", "coordinates": [10.7567468, 59.916012]}, "properties": {"id": 3713716242, "feat_type": "node", "quality_categories": "older_than_five_years", "issue_ids": "[16]", "osm_url": "https://www.openstreetmap.org/node/3713716242", "josm_url": "http://127.0.0.1:8111/load_object?new_layer=false&objects=n3713716242", "id_url": "https://www.openstreetmap.org/edit?editor=id&node=3713716242#map=20/59.916012/10.7567468"}}, {"type": "Feature", "geometry": {"type": "Point", "coordinates": [10.7549672, 59.9076874]}, "properties": {"id": 4075385538, "feat_type": "node", "quality_categories": "older_than_five_years", "issue_ids": "[17]", "osm_url": "https://www.openstreetmap.org/node/4075385538", "josm_url": "http://127.0.0.1:8111/load_object?new_layer=false&objects=n4075385538", "id_url": "https://www.openstreetmap.org/edit?editor=id&node=4075385538#map=20/59.9076874/10.7549672"}}, {"type": "Feature", "geometry": {"type": "Point", "coordinates": [10.7169905, 59.9284767]}, "properties": {"id": 4707150915, "feat_type": "node", "quality_categories": "older_than_five_years", "issue_ids": "[3]", "osm_url": "https://www.openstreetmap.org/node/4707150915", "josm_url": "http://127.0.0.1:8111/load_object?new_layer=false&objects=n4707150915", "id_url": "https://www.openstreetmap.org/edit?editor=id&node=4707150915#map=20/59.9284767/10.7169905"}}, {"type": "Feature", "geometry": {"type": "Point", "coordinates": [10.7167301, 59.9283914]}, "properties": {"id": 4707150920, "feat_type": "node", "quality_categories": "older_than_five_years", "issue_ids": "[3]", "osm_url": "https://www.openstreetmap.org/node/4707150920", "josm_url": "http://127.0.0.1:8111/load_object?new_layer=false&objects=n4707150920", "id_url": "https://www.openstreetmap.org/edit?editor=id&node=4707150920#map=20/59.9283914/10.7167301"}}, {"type": "Feature", "geometry": {"type": "Point", "coordinates": [10.7169244, 59.9292134]}, "properties": {"id": 4707150938, "feat_type": "node", "quality_categories": "older_than_five_years", "issue_ids": "[1]", "osm_url": "https://www.openstreetmap.org/node/4707150938", "josm_url": "http://127.0.0.1:8111/load_object?new_layer=false&objects=n4707150938", "id_url": "https://www.openstreetmap.org/edit?editor=id&node=4707150938#map=20/59.9292134/10.7169244"}}, {"type": "Feature", "geometry": {"type": "Point", "coordinates": [10.7223932, 59.9135784]}, "properties": {"id": 4719447432, "feat_type": "node", "quality_categories": "older_than_five_years", "issue_ids": "[11]", "osm_url": "https://www.openstreetmap.org/node/4719447432", "josm_url": "http://127.0.0.1:8111/load_object?new_layer=false&objects=n4719447432", "id_url": "https://www.openstreetmap.org/edit?editor=id&node=4719447432#map=20/59.9135784/10.7223932"}}, {"type": "Feature", "geometry": {"type": "Point", "coordinates": [10.7223941, 59.91359]}, "properties": {"id": 4719447433, "feat_type": "node", "quality_categories": "older_than_five_years", "issue_ids": "[11]", "osm_url": "https://www.openstreetmap.org/node/4719447433", "josm_url": "http://127.0.0.1:8111/load_object?new_layer=false&objects=n4719447433", "id_url": "https://www.openstreetmap.org/edit?editor=id&node=4719447433#map=20/59.91359/10.7223941"}}, {"type": "Feature", "geometry": {"type": "Point", "coordinates": [10.7225078, 59.9136703]}, "properties": {"id": 4719447434, "feat_type": "node", "quality_categories": "older_than_five_years", "issue_ids": "[11]", "osm_url": "https://www.openstreetmap.org/node/4719447434", "josm_url": "http://127.0.0.1:8111/load_object?new_layer=false&objects=n4719447434", "id_url": "https://www.openstreetmap.org/edit?editor=id&node=4719447434#map=20/59.9136703/10.7225078"}}, {"type": "Feature", "geometry": {"type": "Point", "coordinates": [10.7225191, 59.9136719]}, "properties": {"id": 4719447582, "feat_type": "node", "quality_categories": "older_than_five_years", "issue_ids": "[11]", "osm_url": "https://www.openstreetmap.org/node/4719447582", "josm_url": "http://127.0.0.1:8111/load_object?new_layer=false&objects=n4719447582", "id_url": "https://www.openstreetmap.org/edit?editor=id&node=4719447582#map=20/59.9136719/10.7225191"}}, {"type": "Feature", "geometry": {"type": "Point", "coordinates": [10.7226435, 59.9135872]}, "properties": {"id": 4719447594, "feat_type": "node", "quality_categories": "older_than_five_years", "issue_ids": "[11]", "osm_url": "https://www.openstreetmap.org/node/4719447594", "josm_url": "http://127.0.0.1:8111/load_object?new_layer=false&objects=n4719447594", "id_url": "https://www.openstreetmap.org/edit?editor=id&node=4719447594#map=20/59.9135872/10.7226435"}}, {"type": "Feature", "geometry": {"type": "Point", "coordinates": [10.7225336, 59.9135151]}, "properties": {"id": 4719447763, "feat_type": "node", "quality_categories": "older_than_five_years", "issue_ids": "[11]", "osm_url": "https://www.openstreetmap.org/node/4719447763", "josm_url": "http://127.0.0.1:8111/load_object?new_layer=false&objects=n4719447763", "id_url": "https://www.openstreetmap.org/edit?editor=id&node=4719447763#map=20/59.9135151/10.7225336"}}, {"type": "Feature", "geometry": {"type": "Point", "coordinates": [10.764378, 59.9099509]}, "properties": {"id": 6115913526, "feat_type": "node", "quality_categories": "kerb_on_top_of_non_crossing, older_than_five_years", "issue_ids": "[18, 6]", "osm_url": "https://www.openstreetmap.org/node/6115913526", "josm_url": "http://127.0.0.1:8111/load_object?new_layer=false&objects=n6115913526", "id_url": "https://www.openstreetmap.org/edit?editor=id&node=6115913526#map=20/59.9099509/10.764378"}}, {"type": "Feature", "geometry": {"type": "Point", "coordinates": [10.7642124, 59.9097825]}, "properties": {"id": 6115913529, "feat_type": "node", "quality_categories": "older_than_five_years", "issue_ids": "[18]", "osm_url": "https://www.openstreetmap.org/node/6115913529", "josm_url": "http://127.0.0.1:8111/load_object?new_layer=false&objects=n6115913529", "id_url": "https://www.openstreetmap.org/edit?editor=id&node=6115913529#map=20/59.9097825/10.7642124"}}, {"type": "Feature", "geometry": {"type": "Point", "coordinates": [10.7485204, 59.9114194]}, "properties": {"id": 6238835581, "feat_type": "node", "quality_categories": "older_than_five_years", "issue_ids": "[19]", "osm_url": "https://www.openstreetmap.org/node/6238835581", "josm_url": "http://127.0.0.1:8111/load_object?new_layer=false&objects=n6238835581", "id_url": "https://www.openstreetmap.org/edit?editor=id&node=6238835581#map=20/59.9114194/10.7485204"}}, {"type": "Feature", "geometry": {"type": "Point", "coordinates": [10.7941204, 59.8298774]}, "properties": {"id": 6441472473, "feat_type": "node", "quality_categories": "older_than_five_years", "issue_ids": "[20]", "osm_url": "https://www.openstreetmap.org/node/6441472473", "josm_url": "http://127.0.0.1:8111/load_object?new_layer=false&objects=n6441472473", "id_url": "https://www.openstreetmap.org/edit?editor=id&node=6441472473#map=20/59.8298774/10.7941204"}}, {"type": "Feature", "geometry": {"type": "Point", "coordinates": [10.8031943, 59.9305025]}, "properties": {"id": 6695931635, "feat_type": "node", "quality_categories": "older_than_five_years", "issue_ids": "[7]", "osm_url": "https://www.openstreetmap.org/node/6695931635", "josm_url": "http://127.0.0.1:8111/load_object?new_layer=false&objects=n6695931635", "id_url": "https://www.openstreetmap.org/edit?editor=id&node=6695931635#map=20/59.9305025/10.8031943"}}, {"type": "Feature", "geometry": {"type": "Point", "coordinates": [10.8029495, 59.9303903]}, "properties": {"id": 6695931643, "feat_type": "node", "quality_categories": "older_than_five_years", "issue_ids": "[7]", "osm_url": "https://www.openstreetmap.org/node/6695931643", "josm_url": "http://127.0.0.1:8111/load_object?new_layer=false&objects=n6695931643", "id_url": "https://www.openstreetmap.org/edit?editor=id&node=6695931643#map=20/59.9303903/10.8029495"}}, {"type": "Feature", "geometry": {"type": "Point", "coordinates": [10.7910952, 59.9351542]}, "properties": {"id": 6695935871, "feat_type": "node", "quality_categories": "older_than_five_years", "issue_ids": "[7]", "osm_url": "https://www.openstreetmap.org/node/6695935871", "josm_url": "http://127.0.0.1:8111/load_object?new_layer=false&objects=n6695935871", "id_url": "https://www.openstreetmap.org/edit?editor=id&node=6695935871#map=20/59.9351542/10.7910952"}}, {"type": "Feature", "geometry": {"type": "Point", "coordinates": [10.7525363, 59.9142181]}, "properties": {"id": 6770416411, "feat_type": "node", "quality_categories": "kerb_on_top_of_non_crossing, older_than_five_years", "issue_ids": "[21, 6]", "osm_url": "https://www.openstreetmap.org/node/6770416411", "josm_url": "http://127.0.0.1:8111/load_object?new_layer=false&objects=n6770416411", "id_url": "https://www.openstreetmap.org/edit?editor=id&node=6770416411#map=20/59.9142181/10.7525363"}}, {"type": "Feature", "geometry": {"type": "Point", "coordinates": [10.7532481, 59.9089072]}, "properties": {"id": 6810674718, "feat_type": "node", "quality_categories": "older_than_five_years", "issue_ids": "[17]", "osm_url": "https://www.openstreetmap.org/node/6810674718", "josm_url": "http://127.0.0.1:8111/load_object?new_layer=false&objects=n6810674718", "id_url": "https://www.openstreetmap.org/edit?editor=id&node=6810674718#map=20/59.9089072/10.7532481"}}, {"type": "Feature", "geometry": {"type": "Point", "coordinates": [10.7118679, 59.9268871]}, "properties": {"id": 7552572684, "feat_type": "node", "quality_categories": "older_than_five_years", "issue_ids": "[22]", "osm_url": "https://www.openstreetmap.org/node/7552572684", "josm_url": "http://127.0.0.1:8111/load_object?new_layer=false&objects=n7552572684", "id_url": "https://www.openstreetmap.org/edit?editor=id&node=7552572684#map=20/59.9268871/10.7118679"}}, {"type": "Feature", "geometry": {"type": "Point", "coordinates": [10.7121525, 59.9267781]}, "properties": {"id": 7552588685, "feat_type": "node", "quality_categories": "older_than_five_years", "issue_ids": "[22]", "osm_url": "https://www.openstreetmap.org/node/7552588685", "josm_url": "http://127.0.0.1:8111/load_object?new_layer=false&objects=n7552588685", "id_url": "https://www.openstreetmap.org/edit?editor=id&node=7552588685#map=20/59.9267781/10.7121525"}}, {"type": "Feature", "geometry": {"type": "Point", "coordinates": [10.7661178, 59.9125804]}, "properties": {"id": 7595873376, "feat_type": "node", "quality_categories": "older_than_five_years", "issue_ids": "[22]", "osm_url": "https://www.openstreetmap.org/node/7595873376", "josm_url": "http://127.0.0.1:8111/load_object?new_layer=false&objects=n7595873376", "id_url": "https://www.openstreetmap.org/edit?editor=id&node=7595873376#map=20/59.9125804/10.7661178"}}, {"type": "Feature", "geometry": {"type": "Point", "coordinates": [10.7662745, 59.9125308]}, "properties": {"id": 7595873377, "feat_type": "node", "quality_categories": "older_than_five_years", "issue_ids": "[22]", "osm_url": "https://www.openstreetmap.org/node/7595873377", "josm_url": "http://127.0.0.1:8111/load_object?new_layer=false&objects=n7595873377", "id_url": "https://www.openstreetmap.org/edit?editor=id&node=7595873377#map=20/59.9125308/10.7662745"}}, {"type": "Feature", "geometry": {"type": "Point", "coordinates": [10.7650329, 59.9062555]}, "properties": {"id": 7978949425, "feat_type": "node", "quality_categories": "older_than_five_years", "issue_ids": "[23]", "osm_url": "https://www.openstreetmap.org/node/7978949425", "josm_url": "http://127.0.0.1:8111/load_object?new_layer=false&objects=n7978949425", "id_url": "https://www.openstreetmap.org/edit?editor=id&node=7978949425#map=20/59.9062555/10.7650329"}}, {"type": "Feature", "geometry": {"type": "Point", "coordinates": [10.764861, 59.9060484]}, "properties": {"id": 7978949426, "feat_type": "node", "quality_categories": "older_than_five_years", "issue_ids": "[23]", "osm_url": "https://www.openstreetmap.org/node/7978949426", "josm_url": "http://127.0.0.1:8111/load_object?new_layer=false&objects=n7978949426", "id_url": "https://www.openstreetmap.org/edit?editor=id&node=7978949426#map=20/59.9060484/10.764861"}}, {"type": "Feature", "geometry": {"type": "Point", "coordinates": [10.7648915, 59.9060855]}, "properties": {"id": 7978949427, "feat_type": "node", "quality_categories": "older_than_five_years", "issue_ids": "[23]", "osm_url": "https://www.openstreetmap.org/node/7978949427", "josm_url": "http://127.0.0.1:8111/load_object?new_layer=false&objects=n7978949427", "id_url": "https://www.openstreetmap.org/edit?editor=id&node=7978949427#map=20/59.9060855/10.7648915"}}, {"type": "Feature", "geometry": {"type": "Point", "coordinates": [10.7648765, 59.9060674]}, "properties": {"id": 7978949428, "feat_type": "node", "quality_categories": "older_than_five_years", "issue_ids": "[23]", "osm_url": "https://www.openstreetmap.org/node/7978949428", "josm_url": "http://127.0.0.1:8111/load_object?new_layer=false&objects=n7978949428", "id_url": "https://www.openstreetmap.org/edit?editor=id&node=7978949428#map=20/59.9060674/10.7648765"}}, {"type": "Feature", "geometry": {"type": "Point", "coordinates": [10.7641049, 59.9064827]}, "properties": {"id": 7978949434, "feat_type": "node", "quality_categories": "older_than_five_years", "issue_ids": "[23]", "osm_url": "https://www.openstreetmap.org/node/7978949434", "josm_url": "http://127.0.0.1:8111/load_object?new_layer=false&objects=n7978949434", "id_url": "https://www.openstreetmap.org/edit?editor=id&node=7978949434#map=20/59.9064827/10.7641049"}}, {"type": "Feature", "geometry": {"type": "Point", "coordinates": [10.7640707, 59.9064395]}, "properties": {"id": 7978949435, "feat_type": "node", "quality_categories": "older_than_five_years", "issue_ids": "[23]", "osm_url": "https://www.openstreetmap.org/node/7978949435", "josm_url": "http://127.0.0.1:8111/load_object?new_layer=false&objects=n7978949435", "id_url": "https://www.openstreetmap.org/edit?editor=id&node=7978949435#map=20/59.9064395/10.7640707"}}, {"type": "Feature", "geometry": {"type": "Point", "coordinates": [10.7640906, 59.9064646]}, "properties": {"id": 7978949436, "feat_type": "node", "quality_categories": "older_than_five_years", "issue_ids": "[23]", "osm_url": "https://www.openstreetmap.org/node/7978949436", "josm_url": "http://127.0.0.1:8111/load_object?new_layer=false&objects=n7978949436", "id_url": "https://www.openstreetmap.org/edit?editor=id&node=7978949436#map=20/59.9064646/10.7640906"}}, {"type": "Feature", "geometry": {"type": "Point", "coordinates": [10.7640476, 59.9064105]}, "properties": {"id": 7979000312, "feat_type": "node", "quality_categories": "older_than_five_years", "issue_ids": "[23]", "osm_url": "https://www.openstreetmap.org/node/7979000312", "josm_url": "http://127.0.0.1:8111/load_object?new_layer=false&objects=n7979000312", "id_url": "https://www.openstreetmap.org/edit?editor=id&node=7979000312#map=20/59.9064105/10.7640476"}}, {"type": "Feature", "geometry": {"type": "Point", "coordinates": [10.7639675, 59.9063119]}, "properties": {"id": 7979000314, "feat_type": "node", "quality_categories": "older_than_five_years", "issue_ids": "[23]", "osm_url": "https://www.openstreetmap.org/node/7979000314", "josm_url": "http://127.0.0.1:8111/load_object?new_layer=false&objects=n7979000314", "id_url": "https://www.openstreetmap.org/edit?editor=id&node=7979000314#map=20/59.9063119/10.7639675"}}, {"type": "Feature", "geometry": {"type": "Point", "coordinates": [10.7639199, 59.9062577]}, "properties": {"id": 7979000315, "feat_type": "node", "quality_categories": "older_than_five_years", "issue_ids": "[23]", "osm_url": "https://www.openstreetmap.org/node/7979000315", "josm_url": "http://127.0.0.1:8111/load_object?new_layer=false&objects=n7979000315", "id_url": "https://www.openstreetmap.org/edit?editor=id&node=7979000315#map=20/59.9062577/10.7639199"}}, {"type": "Feature", "geometry": {"type": "Point", "coordinates": [10.7639403, 59.906281]}, "properties": {"id": 7979000316, "feat_type": "node", "quality_categories": "older_than_five_years", "issue_ids": "[23]", "osm_url": "https://www.openstreetmap.org/node/7979000316", "josm_url": "http://127.0.0.1:8111/load_object?new_layer=false&objects=n7979000316", "id_url": "https://www.openstreetmap.org/edit?editor=id&node=7979000316#map=20/59.906281/10.7639403"}}, {"type": "Feature", "geometry": {"type": "Point", "coordinates": [10.7650487, 59.9062746]}, "properties": {"id": 7979000393, "feat_type": "node", "quality_categories": "older_than_five_years", "issue_ids": "[23]", "osm_url": "https://www.openstreetmap.org/node/7979000393", "josm_url": "http://127.0.0.1:8111/load_object?new_layer=false&objects=n7979000393", "id_url": "https://www.openstreetmap.org/edit?editor=id&node=7979000393#map=20/59.9062746/10.7650487"}}, {"type": "Feature", "geometry": {"type": "Point", "coordinates": [10.7640653, 59.9063172]}, "properties": {"id": 7979000395, "feat_type": "node", "quality_categories": "older_than_five_years", "issue_ids": "[23]", "osm_url": "https://www.openstreetmap.org/node/7979000395", "josm_url": "http://127.0.0.1:8111/load_object?new_layer=false&objects=n7979000395", "id_url": "https://www.openstreetmap.org/edit?editor=id&node=7979000395#map=20/59.9063172/10.7640653"}}, {"type": "Feature", "geometry": {"type": "Point", "coordinates": [10.7649322, 59.9061344]}, "properties": {"id": 7979000396, "feat_type": "node", "quality_categories": "older_than_five_years", "issue_ids": "[23]", "osm_url": "https://www.openstreetmap.org/node/7979000396", "josm_url": "http://127.0.0.1:8111/load_object?new_layer=false&objects=n7979000396", "id_url": "https://www.openstreetmap.org/edit?editor=id&node=7979000396#map=20/59.9061344/10.7649322"}}, {"type": "Feature", "geometry": {"type": "Point", "coordinates": [10.7649936, 59.9062082]}, "properties": {"id": 7979000397, "feat_type": "node", "quality_categories": "older_than_five_years", "issue_ids": "[23]", "osm_url": "https://www.openstreetmap.org/node/7979000397", "josm_url": "http://127.0.0.1:8111/load_object?new_layer=false&objects=n7979000397", "id_url": "https://www.openstreetmap.org/edit?editor=id&node=7979000397#map=20/59.9062082/10.7649936"}}, {"type": "Feature", "geometry": {"type": "Point", "coordinates": [10.7649772, 59.9061886]}, "properties": {"id": 7979000398, "feat_type": "node", "quality_categories": "older_than_five_years", "issue_ids": "[23]", "osm_url": "https://www.openstreetmap.org/node/7979000398", "josm_url": "http://127.0.0.1:8111/load_object?new_layer=false&objects=n7979000398", "id_url": "https://www.openstreetmap.org/edit?editor=id&node=7979000398#map=20/59.9061886/10.7649772"}}, {"type": "Feature", "geometry": {"type": "Point", "coordinates": [10.7649154, 59.9061142]}, "properties": {"id": 7979000409, "feat_type": "node", "quality_categories": "older_than_five_years", "issue_ids": "[23]", "osm_url": "https://www.openstreetmap.org/node/7979000409", "josm_url": "http://127.0.0.1:8111/load_object?new_layer=false&objects=n7979000409", "id_url": "https://www.openstreetmap.org/edit?editor=id&node=7979000409#map=20/59.9061142/10.7649154"}}, {"type": "Feature", "geometry": {"type": "Point", "coordinates": [10.7641091, 59.9063705]}, "properties": {"id": 7979000427, "feat_type": "node", "quality_categories": "older_than_five_years", "issue_ids": "[23]", "osm_url": "https://www.openstreetmap.org/node/7979000427", "josm_url": "http://127.0.0.1:8111/load_object?new_layer=false&objects=n7979000427", "id_url": "https://www.openstreetmap.org/edit?editor=id&node=7979000427#map=20/59.9063705/10.7641091"}}, {"type": "Feature", "geometry": {"type": "Point", "coordinates": [10.7650179, 59.9062375]}, "properties": {"id": 7979000450, "feat_type": "node", "quality_categories": "older_than_five_years", "issue_ids": "[23]", "osm_url": "https://www.openstreetmap.org/node/7979000450", "josm_url": "http://127.0.0.1:8111/load_object?new_layer=false&objects=n7979000450", "id_url": "https://www.openstreetmap.org/edit?editor=id&node=7979000450#map=20/59.9062375/10.7650179"}}, {"type": "Feature", "geometry": {"type": "Point", "coordinates": [10.7853124, 59.946044]}, "properties": {"id": 8044472406, "feat_type": "node", "quality_categories": "older_than_five_years", "issue_ids": "[24]", "osm_url": "https://www.openstreetmap.org/node/8044472406", "josm_url": "http://127.0.0.1:8111/load_object?new_layer=false&objects=n8044472406", "id_url": "https://www.openstreetmap.org/edit?editor=id&node=8044472406#map=20/59.946044/10.7853124"}}, {"type": "Feature", "geometry": {"type": "Point", "coordinates": [10.7853054, 59.9460607]}, "properties": {"id": 8044472407, "feat_type": "node", "quality_categories": "older_than_five_years", "issue_ids": "[24]", "osm_url": "https://www.openstreetmap.org/node/8044472407", "josm_url": "http://127.0.0.1:8111/load_object?new_layer=false&objects=n8044472407", "id_url": "https://www.openstreetmap.org/edit?editor=id&node=8044472407#map=20/59.9460607/10.7853054"}}, {"type": "Feature", "geometry": {"type": "Point", "coordinates": [10.7821265, 59.9456958]}, "properties": {"id": 8045058352, "feat_type": "node", "quality_categories": "older_than_five_years", "issue_ids": "[25]", "osm_url": "https://www.openstreetmap.org/node/8045058352", "josm_url": "http://127.0.0.1:8111/load_object?new_layer=false&objects=n8045058352", "id_url": "https://www.openstreetmap.org/edit?editor=id&node=8045058352#map=20/59.9456958/10.7821265"}}, {"type": "Feature", "geometry": {"type": "Point", "coordinates": [10.782135, 59.9456783]}, "properties": {"id": 8045058353, "feat_type": "node", "quality_categories": "older_than_five_years", "issue_ids": "[25]", "osm_url": "https://www.openstreetmap.org/node/8045058353", "josm_url": "http://127.0.0.1:8111/load_object?new_layer=false&objects=n8045058353", "id_url": "https://www.openstreetmap.org/edit?editor=id&node=8045058353#map=20/59.9456783/10.782135"}}, {"type": "Feature", "geometry": {"type": "Point", "coordinates": [10.7605236, 59.9070214]}, "properties": {"id": 8063861863, "feat_type": "node", "quality_categories": "older_than_five_years", "issue_ids": "[17]", "osm_url": "https://www.openstreetmap.org/node/8063861863", "josm_url": "http://127.0.0.1:8111/load_object?new_layer=false&objects=n8063861863", "id_url": "https://www.openstreetmap.org/edit?editor=id&node=8063861863#map=20/59.9070214/10.7605236"}}, {"type": "Feature", "geometry": {"type": "Point", "coordinates": [10.7619623, 59.9066567]}, "properties": {"id": 8063878712, "feat_type": "node", "quality_categories": "older_than_five_years", "issue_ids": "[17]", "osm_url": "https://www.openstreetmap.org/node/8063878712", "josm_url": "http://127.0.0.1:8111/load_object?new_layer=false&objects=n8063878712", "id_url": "https://www.openstreetmap.org/edit?editor=id&node=8063878712#map=20/59.9066567/10.7619623"}}, {"type": "Feature", "geometry": {"type": "Point", "coordinates": [10.7618913, 59.9066721]}, "properties": {"id": 8063878713, "feat_type": "node", "quality_categories": "older_than_five_years", "issue_ids": "[17]", "osm_url": "https://www.openstreetmap.org/node/8063878713", "josm_url": "http://127.0.0.1:8111/load_object?new_layer=false&objects=n8063878713", "id_url": "https://www.openstreetmap.org/edit?editor=id&node=8063878713#map=20/59.9066721/10.7618913"}}, {"type": "Feature", "geometry": {"type": "Point", "coordinates": [10.7616077, 59.906781]}, "properties": {"id": 8063878880, "feat_type": "node", "quality_categories": "older_than_five_years", "issue_ids": "[17]", "osm_url": "https://www.openstreetmap.org/node/8063878880", "josm_url": "http://127.0.0.1:8111/load_object?new_layer=false&objects=n8063878880", "id_url": "https://www.openstreetmap.org/edit?editor=id&node=8063878880#map=20/59.906781/10.7616077"}}, {"type": "Feature", "geometry": {"type": "Point", "coordinates": [10.7617286, 59.9067076]}, "properties": {"id": 8063878884, "feat_type": "node", "quality_categories": "older_than_five_years", "issue_ids": "[17]", "osm_url": "https://www.openstreetmap.org/node/8063878884", "josm_url": "http://127.0.0.1:8111/load_object?new_layer=false&objects=n8063878884", "id_url": "https://www.openstreetmap.org/edit?editor=id&node=8063878884#map=20/59.9067076/10.7617286"}}, {"type": "Feature", "geometry": {"type": "Point", "coordinates": [10.7621398, 59.9066159]}, "properties": {"id": 8063878906, "feat_type": "node", "quality_categories": "older_than_five_years", "issue_ids": "[17]", "osm_url": "https://www.openstreetmap.org/node/8063878906", "josm_url": "http://127.0.0.1:8111/load_object?new_layer=false&objects=n8063878906", "id_url": "https://www.openstreetmap.org/edit?editor=id&node=8063878906#map=20/59.9066159/10.7621398"}}, {"type": "Feature", "geometry": {"type": "Point", "coordinates": [10.7392596, 59.9128952]}, "properties": {"id": 8068615695, "feat_type": "node", "quality_categories": "older_than_five_years", "issue_ids": "[26]", "osm_url": "https://www.openstreetmap.org/node/8068615695", "josm_url": "http://127.0.0.1:8111/load_object?new_layer=false&objects=n8068615695", "id_url": "https://www.openstreetmap.org/edit?editor=id&node=8068615695#map=20/59.9128952/10.7392596"}}, {"type": "Feature", "geometry": {"type": "Point", "coordinates": [10.7391889, 59.9128205]}, "properties": {"id": 8068615696, "feat_type": "node", "quality_categories": "older_than_five_years", "issue_ids": "[26]", "osm_url": "https://www.openstreetmap.org/node/8068615696", "josm_url": "http://127.0.0.1:8111/load_object?new_layer=false&objects=n8068615696", "id_url": "https://www.openstreetmap.org/edit?editor=id&node=8068615696#map=20/59.9128205/10.7391889"}}, {"type": "Feature", "geometry": {"type": "Point", "coordinates": [10.7396401, 59.912636]}, "properties": {"id": 8068615748, "feat_type": "node", "quality_categories": "older_than_five_years", "issue_ids": "[27]", "osm_url": "https://www.openstreetmap.org/node/8068615748", "josm_url": "http://127.0.0.1:8111/load_object?new_layer=false&objects=n8068615748", "id_url": "https://www.openstreetmap.org/edit?editor=id&node=8068615748#map=20/59.912636/10.7396401"}}, {"type": "Feature", "geometry": {"type": "Point", "coordinates": [10.739794, 59.9126683]}, "properties": {"id": 8068625538, "feat_type": "node", "quality_categories": "older_than_five_years", "issue_ids": "[27]", "osm_url": "https://www.openstreetmap.org/node/8068625538", "josm_url": "http://127.0.0.1:8111/load_object?new_layer=false&objects=n8068625538", "id_url": "https://www.openstreetmap.org/edit?editor=id&node=8068625538#map=20/59.9126683/10.739794"}}, {"type": "Feature", "geometry": {"type": "Point", "coordinates": [10.7568544, 59.907927]}, "properties": {"id": 8069410280, "feat_type": "node", "quality_categories": "older_than_five_years", "issue_ids": "[27]", "osm_url": "https://www.openstreetmap.org/node/8069410280", "josm_url": "http://127.0.0.1:8111/load_object?new_layer=false&objects=n8069410280", "id_url": "https://www.openstreetmap.org/edit?editor=id&node=8069410280#map=20/59.907927/10.7568544"}}, {"type": "Feature", "geometry": {"type": "Point", "coordinates": [10.756381, 59.9080424]}, "properties": {"id": 8069410285, "feat_type": "node", "quality_categories": "older_than_five_years", "issue_ids": "[27]", "osm_url": "https://www.openstreetmap.org/node/8069410285", "josm_url": "http://127.0.0.1:8111/load_object?new_layer=false&objects=n8069410285", "id_url": "https://www.openstreetmap.org/edit?editor=id&node=8069410285#map=20/59.9080424/10.756381"}}, {"type": "Feature", "geometry": {"type": "Point", "coordinates": [10.7563921, 59.9080533]}, "properties": {"id": 8069410286, "feat_type": "node", "quality_categories": "older_than_five_years", "issue_ids": "[27]", "osm_url": "https://www.openstreetmap.org/node/8069410286", "josm_url": "http://127.0.0.1:8111/load_object?new_layer=false&objects=n8069410286", "id_url": "https://www.openstreetmap.org/edit?editor=id&node=8069410286#map=20/59.9080533/10.7563921"}}, {"type": "Feature", "geometry": {"type": "Point", "coordinates": [10.7568663, 59.9079379]}, "properties": {"id": 8069410287, "feat_type": "node", "quality_categories": "older_than_five_years", "issue_ids": "[27]", "osm_url": "https://www.openstreetmap.org/node/8069410287", "josm_url": "http://127.0.0.1:8111/load_object?new_layer=false&objects=n8069410287", "id_url": "https://www.openstreetmap.org/edit?editor=id&node=8069410287#map=20/59.9079379/10.7568663"}}, {"type": "Feature", "geometry": {"type": "Point", "coordinates": [10.7568711, 59.9082392]}, "properties": {"id": 8069410356, "feat_type": "node", "quality_categories": "older_than_five_years", "issue_ids": "[27]", "osm_url": "https://www.openstreetmap.org/node/8069410356", "josm_url": "http://127.0.0.1:8111/load_object?new_layer=false&objects=n8069410356", "id_url": "https://www.openstreetmap.org/edit?editor=id&node=8069410356#map=20/59.9082392/10.7568711"}}, {"type": "Feature", "geometry": {"type": "Point", "coordinates": [10.7568876, 59.9082557]}, "properties": {"id": 8069410357, "feat_type": "node", "quality_categories": "older_than_five_years", "issue_ids": "[27]", "osm_url": "https://www.openstreetmap.org/node/8069410357", "josm_url": "http://127.0.0.1:8111/load_object?new_layer=false&objects=n8069410357", "id_url": "https://www.openstreetmap.org/edit?editor=id&node=8069410357#map=20/59.9082557/10.7568876"}}, {"type": "Feature", "geometry": {"type": "Point", "coordinates": [10.757265, 59.9081437]}, "properties": {"id": 8069410359, "feat_type": "node", "quality_categories": "older_than_five_years", "issue_ids": "[27]", "osm_url": "https://www.openstreetmap.org/node/8069410359", "josm_url": "http://127.0.0.1:8111/load_object?new_layer=false&objects=n8069410359", "id_url": "https://www.openstreetmap.org/edit?editor=id&node=8069410359#map=20/59.9081437/10.757265"}}, {"type": "Feature", "geometry": {"type": "Point", "coordinates": [10.7572823, 59.9081603]}, "properties": {"id": 8069410360, "feat_type": "node", "quality_categories": "older_than_five_years", "issue_ids": "[27]", "osm_url": "https://www.openstreetmap.org/node/8069410360", "josm_url": "http://127.0.0.1:8111/load_object?new_layer=false&objects=n8069410360", "id_url": "https://www.openstreetmap.org/edit?editor=id&node=8069410360#map=20/59.9081603/10.7572823"}}, {"type": "Feature", "geometry": {"type": "Point", "coordinates": [10.7818417, 59.9078613]}, "properties": {"id": 8165290590, "feat_type": "node", "quality_categories": "older_than_five_years", "issue_ids": "[28]", "osm_url": "https://www.openstreetmap.org/node/8165290590", "josm_url": "http://127.0.0.1:8111/load_object?new_layer=false&objects=n8165290590", "id_url": "https://www.openstreetmap.org/edit?editor=id&node=8165290590#map=20/59.9078613/10.7818417"}}, {"type": "Feature", "geometry": {"type": "Point", "coordinates": [10.7819261, 59.907774]}, "properties": {"id": 8165290591, "feat_type": "node", "quality_categories": "older_than_five_years", "issue_ids": "[29]", "osm_url": "https://www.openstreetmap.org/node/8165290591", "josm_url": "http://127.0.0.1:8111/load_object?new_layer=false&objects=n8165290591", "id_url": "https://www.openstreetmap.org/edit?editor=id&node=8165290591#map=20/59.907774/10.7819261"}}, {"type": "Feature", "geometry": {"type": "Point", "coordinates": [10.7811859, 59.9076921]}, "properties": {"id": 8165290592, "feat_type": "node", "quality_categories": "older_than_five_years", "issue_ids": "[30]", "osm_url": "https://www.openstreetmap.org/node/8165290592", "josm_url": "http://127.0.0.1:8111/load_object?new_layer=false&objects=n8165290592", "id_url": "https://www.openstreetmap.org/edit?editor=id&node=8165290592#map=20/59.9076921/10.7811859"}}, {"type": "Feature", "geometry": {"type": "Point", "coordinates": [10.7812035, 59.9076762]}, "properties": {"id": 8165290594, "feat_type": "node", "quality_categories": "older_than_five_years", "issue_ids": "[30]", "osm_url": "https://www.openstreetmap.org/node/8165290594", "josm_url": "http://127.0.0.1:8111/load_object?new_layer=false&objects=n8165290594", "id_url": "https://www.openstreetmap.org/edit?editor=id&node=8165290594#map=20/59.9076762/10.7812035"}}, {"type": "Feature", "geometry": {"type": "Point", "coordinates": [10.7815431, 59.9077951]}, "properties": {"id": 8165290610, "feat_type": "node", "quality_categories": "older_than_five_years", "issue_ids": "[30]", "osm_url": "https://www.openstreetmap.org/node/8165290610", "josm_url": "http://127.0.0.1:8111/load_object?new_layer=false&objects=n8165290610", "id_url": "https://www.openstreetmap.org/edit?editor=id&node=8165290610#map=20/59.9077951/10.7815431"}}, {"type": "Feature", "geometry": {"type": "Point", "coordinates": [10.7815556, 59.9077778]}, "properties": {"id": 8165343768, "feat_type": "node", "quality_categories": "older_than_five_years", "issue_ids": "[30]", "osm_url": "https://www.openstreetmap.org/node/8165343768", "josm_url": "http://127.0.0.1:8111/load_object?new_layer=false&objects=n8165343768", "id_url": "https://www.openstreetmap.org/edit?editor=id&node=8165343768#map=20/59.9077778/10.7815556"}}, {"type": "Feature", "geometry": {"type": "Point", "coordinates": [10.7812078, 59.9075044]}, "properties": {"id": 8165343791, "feat_type": "node", "quality_categories": "older_than_five_years", "issue_ids": "[28]", "osm_url": "https://www.openstreetmap.org/node/8165343791", "josm_url": "http://127.0.0.1:8111/load_object?new_layer=false&objects=n8165343791", "id_url": "https://www.openstreetmap.org/edit?editor=id&node=8165343791#map=20/59.9075044/10.7812078"}}, {"type": "Feature", "geometry": {"type": "Point", "coordinates": [10.7731169, 59.9108263]}, "properties": {"id": 8188504449, "feat_type": "node", "quality_categories": "older_than_five_years", "issue_ids": "[31]", "osm_url": "https://www.openstreetmap.org/node/8188504449", "josm_url": "http://127.0.0.1:8111/load_object?new_layer=false&objects=n8188504449", "id_url": "https://www.openstreetmap.org/edit?editor=id&node=8188504449#map=20/59.9108263/10.7731169"}}, {"type": "Feature", "geometry": {"type": "Point", "coordinates": [10.7730099, 59.9108669]}, "properties": {"id": 8188504450, "feat_type": "node", "quality_categories": "older_than_five_years", "issue_ids": "[31]", "osm_url": "https://www.openstreetmap.org/node/8188504450", "josm_url": "http://127.0.0.1:8111/load_object?new_layer=false&objects=n8188504450", "id_url": "https://www.openstreetmap.org/edit?editor=id&node=8188504450#map=20/59.9108669/10.7730099"}}, {"type": "Feature", "geometry": {"type": "Point", "coordinates": [10.7745148, 59.9102931]}, "properties": {"id": 8188504459, "feat_type": "node", "quality_categories": "older_than_five_years", "issue_ids": "[31]", "osm_url": "https://www.openstreetmap.org/node/8188504459", "josm_url": "http://127.0.0.1:8111/load_object?new_layer=false&objects=n8188504459", "id_url": "https://www.openstreetmap.org/edit?editor=id&node=8188504459#map=20/59.9102931/10.7745148"}}, {"type": "Feature", "geometry": {"type": "Point", "coordinates": [10.7746219, 59.9102525]}, "properties": {"id": 8188504460, "feat_type": "node", "quality_categories": "older_than_five_years", "issue_ids": "[31]", "osm_url": "https://www.openstreetmap.org/node/8188504460", "josm_url": "http://127.0.0.1:8111/load_object?new_layer=false&objects=n8188504460", "id_url": "https://www.openstreetmap.org/edit?editor=id&node=8188504460#map=20/59.9102525/10.7746219"}}, {"type": "Feature", "geometry": {"type": "Point", "coordinates": [10.7760018, 59.9097253]}, "properties": {"id": 8188504469, "feat_type": "node", "quality_categories": "older_than_five_years", "issue_ids": "[31]", "osm_url": "https://www.openstreetmap.org/node/8188504469", "josm_url": "http://127.0.0.1:8111/load_object?new_layer=false&objects=n8188504469", "id_url": "https://www.openstreetmap.org/edit?editor=id&node=8188504469#map=20/59.9097253/10.7760018"}}, {"type": "Feature", "geometry": {"type": "Point", "coordinates": [10.7761439, 59.9096757]}, "properties": {"id": 8188504470, "feat_type": "node", "quality_categories": "older_than_five_years", "issue_ids": "[31]", "osm_url": "https://www.openstreetmap.org/node/8188504470", "josm_url": "http://127.0.0.1:8111/load_object?new_layer=false&objects=n8188504470", "id_url": "https://www.openstreetmap.org/edit?editor=id&node=8188504470#map=20/59.9096757/10.7761439"}}, {"type": "Feature", "geometry": {"type": "Point", "coordinates": [10.7696474, 59.9116725]}, "properties": {"id": 8188504500, "feat_type": "node", "quality_categories": "older_than_five_years", "issue_ids": "[31]", "osm_url": "https://www.openstreetmap.org/node/8188504500", "josm_url": "http://127.0.0.1:8111/load_object?new_layer=false&objects=n8188504500", "id_url": "https://www.openstreetmap.org/edit?editor=id&node=8188504500#map=20/59.9116725/10.7696474"}}, {"type": "Feature", "geometry": {"type": "Point", "coordinates": [10.7696494, 59.9116544]}, "properties": {"id": 8188504501, "feat_type": "node", "quality_categories": "older_than_five_years", "issue_ids": "[31]", "osm_url": "https://www.openstreetmap.org/node/8188504501", "josm_url": "http://127.0.0.1:8111/load_object?new_layer=false&objects=n8188504501", "id_url": "https://www.openstreetmap.org/edit?editor=id&node=8188504501#map=20/59.9116544/10.7696494"}}, {"type": "Feature", "geometry": {"type": "Point", "coordinates": [10.7696562, 59.9115899]}, "properties": {"id": 8188504502, "feat_type": "node", "quality_categories": "older_than_five_years", "issue_ids": "[31]", "osm_url": "https://www.openstreetmap.org/node/8188504502", "josm_url": "http://127.0.0.1:8111/load_object?new_layer=false&objects=n8188504502", "id_url": "https://www.openstreetmap.org/edit?editor=id&node=8188504502#map=20/59.9115899/10.7696562"}}, {"type": "Feature", "geometry": {"type": "Point", "coordinates": [10.7696581, 59.9115701]}, "properties": {"id": 8188504503, "feat_type": "node", "quality_categories": "older_than_five_years", "issue_ids": "[31]", "osm_url": "https://www.openstreetmap.org/node/8188504503", "josm_url": "http://127.0.0.1:8111/load_object?new_layer=false&objects=n8188504503", "id_url": "https://www.openstreetmap.org/edit?editor=id&node=8188504503#map=20/59.9115701/10.7696581"}}, {"type": "Feature", "geometry": {"type": "Point", "coordinates": [10.7728335, 59.9109003]}, "properties": {"id": 8188504506, "feat_type": "node", "quality_categories": "older_than_five_years", "issue_ids": "[31]", "osm_url": "https://www.openstreetmap.org/node/8188504506", "josm_url": "http://127.0.0.1:8111/load_object?new_layer=false&objects=n8188504506", "id_url": "https://www.openstreetmap.org/edit?editor=id&node=8188504506#map=20/59.9109003/10.7728335"}}, {"type": "Feature", "geometry": {"type": "Point", "coordinates": [10.7727166, 59.9108242]}, "properties": {"id": 8188504507, "feat_type": "node", "quality_categories": "older_than_five_years", "issue_ids": "[31]", "osm_url": "https://www.openstreetmap.org/node/8188504507", "josm_url": "http://127.0.0.1:8111/load_object?new_layer=false&objects=n8188504507", "id_url": "https://www.openstreetmap.org/edit?editor=id&node=8188504507#map=20/59.9108242/10.7727166"}}, {"type": "Feature", "geometry": {"type": "Point", "coordinates": [10.772741, 59.9108401]}, "properties": {"id": 8188504509, "feat_type": "node", "quality_categories": "older_than_five_years", "issue_ids": "[31]", "osm_url": "https://www.openstreetmap.org/node/8188504509", "josm_url": "http://127.0.0.1:8111/load_object?new_layer=false&objects=n8188504509", "id_url": "https://www.openstreetmap.org/edit?editor=id&node=8188504509#map=20/59.9108401/10.772741"}}, {"type": "Feature", "geometry": {"type": "Point", "coordinates": [10.7561876, 59.9335643]}, "properties": {"id": 8190057218, "feat_type": "node", "quality_categories": "kerb_on_top_of_non_crossing, older_than_five_years", "issue_ids": "[32, 6]", "osm_url": "https://www.openstreetmap.org/node/8190057218", "josm_url": "http://127.0.0.1:8111/load_object?new_layer=false&objects=n8190057218", "id_url": "https://www.openstreetmap.org/edit?editor=id&node=8190057218#map=20/59.9335643/10.7561876"}}, {"type": "Feature", "geometry": {"type": "Point", "coordinates": [10.7302379, 59.9377517]}, "properties": {"id": 8206780517, "feat_type": "node", "quality_categories": "kerb_on_top_of_non_crossing, older_than_five_years", "issue_ids": "[33, 6]", "osm_url": "https://www.openstreetmap.org/node/8206780517", "josm_url": "http://127.0.0.1:8111/load_object?new_layer=false&objects=n8206780517", "id_url": "https://www.openstreetmap.org/edit?editor=id&node=8206780517#map=20/59.9377517/10.7302379"}}, {"type": "Feature", "geometry": {"type": "Point", "coordinates": [10.7303637, 59.9377694]}, "properties": {"id": 8206780518, "feat_type": "node", "quality_categories": "kerb_on_top_of_non_crossing, older_than_five_years", "issue_ids": "[33, 6]", "osm_url": "https://www.openstreetmap.org/node/8206780518", "josm_url": "http://127.0.0.1:8111/load_object?new_layer=false&objects=n8206780518", "id_url": "https://www.openstreetmap.org/edit?editor=id&node=8206780518#map=20/59.9377694/10.7303637"}}, {"type": "Feature", "geometry": {"type": "Point", "coordinates": [10.8414582, 59.9202772]}, "properties": {"id": 8467227950, "feat_type": "node", "quality_categories": "older_than_five_years", "issue_ids": "[34]", "osm_url": "https://www.openstreetmap.org/node/8467227950", "josm_url": "http://127.0.0.1:8111/load_object?new_layer=false&objects=n8467227950", "id_url": "https://www.openstreetmap.org/edit?editor=id&node=8467227950#map=20/59.9202772/10.8414582"}}, {"type": "Feature", "geometry": {"type": "Point", "coordinates": [10.8415602, 59.9203134]}, "properties": {"id": 8467227951, "feat_type": "node", "quality_categories": "older_than_five_years", "issue_ids": "[34]", "osm_url": "https://www.openstreetmap.org/node/8467227951", "josm_url": "http://127.0.0.1:8111/load_object?new_layer=false&objects=n8467227951", "id_url": "https://www.openstreetmap.org/edit?editor=id&node=8467227951#map=20/59.9203134/10.8415602"}}, {"type": "Feature", "geometry": {"type": "Point", "coordinates": [10.7951108, 59.866031]}, "properties": {"id": 8486426722, "feat_type": "node", "quality_categories": "older_than_five_years", "issue_ids": "[35]", "osm_url": "https://www.openstreetmap.org/node/8486426722", "josm_url": "http://127.0.0.1:8111/load_object?new_layer=false&objects=n8486426722", "id_url": "https://www.openstreetmap.org/edit?editor=id&node=8486426722#map=20/59.866031/10.7951108"}}, {"type": "Feature", "geometry": {"type": "Point", "coordinates": [10.7951309, 59.8660373]}, "properties": {"id": 8486426723, "feat_type": "node", "quality_categories": "older_than_five_years", "issue_ids": "[35]", "osm_url": "https://www.openstreetmap.org/node/8486426723", "josm_url": "http://127.0.0.1:8111/load_object?new_layer=false&objects=n8486426723", "id_url": "https://www.openstreetmap.org/edit?editor=id&node=8486426723#map=20/59.8660373/10.7951309"}}, {"type": "Feature", "geometry": {"type": "Point", "coordinates": [10.793285, 59.8301603]}, "properties": {"id": 8706271140, "feat_type": "node", "quality_categories": "older_than_five_years", "issue_ids": "[20]", "osm_url": "https://www.openstreetmap.org/node/8706271140", "josm_url": "http://127.0.0.1:8111/load_object?new_layer=false&objects=n8706271140", "id_url": "https://www.openstreetmap.org/edit?editor=id&node=8706271140#map=20/59.8301603/10.793285"}}, {"type": "Feature", "geometry": {"type": "Point", "coordinates": [10.7568816, 59.9159664]}, "properties": {"id": 8852164507, "feat_type": "node", "quality_categories": "older_than_five_years", "issue_ids": "[16]", "osm_url": "https://www.openstreetmap.org/node/8852164507", "josm_url": "http://127.0.0.1:8111/load_object?new_layer=false&objects=n8852164507", "id_url": "https://www.openstreetmap.org/edit?editor=id&node=8852164507#map=20/59.9159664/10.7568816"}}, {"type": "Feature", "geometry": {"type": "Point", "coordinates": [10.7499809, 59.934767]}, "properties": {"id": 8914713396, "feat_type": "node", "quality_categories": "older_than_five_years", "issue_ids": "[36]", "osm_url": "https://www.openstreetmap.org/node/8914713396", "josm_url": "http://127.0.0.1:8111/load_object?new_layer=false&objects=n8914713396", "id_url": "https://www.openstreetmap.org/edit?editor=id&node=8914713396#map=20/59.934767/10.7499809"}}, {"type": "Feature", "geometry": {"type": "Point", "coordinates": [10.7499052, 59.9345558]}, "properties": {"id": 8914713406, "feat_type": "node", "quality_categories": "older_than_five_years", "issue_ids": "[36]", "osm_url": "https://www.openstreetmap.org/node/8914713406", "josm_url": "http://127.0.0.1:8111/load_object?new_layer=false&objects=n8914713406", "id_url": "https://www.openstreetmap.org/edit?editor=id&node=8914713406#map=20/59.9345558/10.7499052"}}, {"type": "Feature", "geometry": {"type": "Point", "coordinates": [10.7500287, 59.9349786]}, "properties": {"id": 8914718529, "feat_type": "node", "quality_categories": "older_than_five_years", "issue_ids": "[36]", "osm_url": "https://www.openstreetmap.org/node/8914718529", "josm_url": "http://127.0.0.1:8111/load_object?new_layer=false&objects=n8914718529", "id_url": "https://www.openstreetmap.org/edit?editor=id&node=8914718529#map=20/59.9349786/10.7500287"}}, {"type": "Feature", "geometry": {"type": "Point", "coordinates": [10.7499524, 59.934767]}, "properties": {"id": 8914718546, "feat_type": "node", "quality_categories": "older_than_five_years", "issue_ids": "[36]", "osm_url": "https://www.openstreetmap.org/node/8914718546", "josm_url": "http://127.0.0.1:8111/load_object?new_layer=false&objects=n8914718546", "id_url": "https://www.openstreetmap.org/edit?editor=id&node=8914718546#map=20/59.934767/10.7499524"}}]}