{"type": "FeatureCollection", "features": [{"type": "Feature", "geometry": {"type": "Point", "coordinates": [10.7484664, 59.9114307]}, "properties": {"id": 1281, "feat_type": "node", "quality_categories": "improper_keys, uncanny_keys", "issue_ids": "[0, 1]", "osm_url": "https://www.openstreetmap.org/node/1281", "josm_url": "http://127.0.0.1:8111/load_object?new_layer=false&objects=n1281", "id_url": "https://www.openstreetmap.org/edit?editor=id&node=1281#map=20/59.9114307/10.7484664"}}, {"type": "Feature", "geometry": {"type": "Point", "coordinates": [10.7392949, 59.9172378]}, "properties": {"id": 659865, "feat_type": "node", "quality_categories": "improper_keys, uncanny_keys", "issue_ids": "[0, 2]", "osm_url": "https://www.openstreetmap.org/node/659865", "josm_url": "http://127.0.0.1:8111/load_object?new_layer=false&objects=n659865", "id_url": "https://www.openstreetmap.org/edit?editor=id&node=659865#map=20/59.9172378/10.7392949"}}, {"type": "Feature", "geometry": {"type": "Point", "coordinates": [10.7393764, 59.9173068]}, "properties": {"id": 25525130, "feat_type": "node", "quality_categories": "improper_keys, uncanny_keys", "issue_ids": "[0, 2]", "osm_url": "https://www.openstreetmap.org/node/25525130", "josm_url": "http://127.0.0.1:8111/load_object?new_layer=false&objects=n25525130", "id_url": "https://www.openstreetmap.org/edit?editor=id&node=25525130#map=20/59.9173068/10.7393764"}}, {"type": "Feature", "geometry": {"type": "Point", "coordinates": [10.6926649, 59.9507483]}, "properties": {"id": 1422621450, "feat_type": "node", "quality_categories": "improper_keys, uncanny_keys", "issue_ids": "[0, 2]", "osm_url": "https://www.openstreetmap.org/node/1422621450", "josm_url": "http://127.0.0.1:8111/load_object?new_layer=false&objects=n1422621450", "id_url": "https://www.openstreetmap.org/edit?editor=id&node=1422621450#map=20/59.9507483/10.6926649"}}, {"type": "Feature", "geometry": {"type": "Point", "coordinates": [10.7775059, 59.9091649]}, "properties": {"id": 1485390112, "feat_type": "node", "quality_categories": "improper_keys, uncanny_keys", "issue_ids": "[0, 2]", "osm_url": "https://www.openstreetmap.org/node/1485390112", "josm_url": "http://127.0.0.1:8111/load_object?new_layer=false&objects=n1485390112", "id_url": "https://www.openstreetmap.org/edit?editor=id&node=1485390112#map=20/59.9091649/10.7775059"}}, {"type": "Feature", "geometry": {"type": "Point", "coordinates": [10.746062, 59.9126321]}, "properties": {"id": 2726958716, "feat_type": "node", "quality_categories": "improper_keys, uncanny_keys", "issue_ids": "[0, 2]", "osm_url": "https://www.openstreetmap.org/node/2726958716", "josm_url": "http://127.0.0.1:8111/load_object?new_layer=false&objects=n2726958716", "id_url": "https://www.openstreetmap.org/edit?editor=id&node=2726958716#map=20/59.9126321/10.746062"}}, {"type": "Feature", "geometry": {"type": "Point", "coordinates": [10.8448067, 59.9141069]}, "properties": {"id": 6128770485, "feat_type": "node", "quality_categories": "improper_keys, kerb_on_top_of_non_crossing, uncanny_keys", "issue_ids": "[0, 1, 3]", "osm_url": "https://www.openstreetmap.org/node/6128770485", "josm_url": "http://127.0.0.1:8111/load_object?new_layer=false&objects=n6128770485", "id_url": "https://www.openstreetmap.org/edit?editor=id&node=6128770485#map=20/59.9141069/10.8448067"}}, {"type": "Feature", "geometry": {"type": "Point", "coordinates": [10.8446844, 59.9140297]}, "properties": {"id": 6128770486, "feat_type": "node", "quality_categories": "improper_keys, kerb_on_top_of_non_crossing, uncanny_keys", "issue_ids": "[0, 1, 3]", "osm_url": "https://www.openstreetmap.org/node/6128770486", "josm_url": "http://127.0.0.1:8111/load_object?new_layer=false&objects=n6128770486", "id_url": "https://www.openstreetmap.org/edit?editor=id&node=6128770486#map=20/59.9140297/10.8446844"}}, {"type": "Feature", "geometry": {"type": "Point", "coordinates": [10.7770084, 59.9129353]}, "properties": {"id": 8296953191, "feat_type": "node", "quality_categories": "kerb_on_top_of_non_crossing, uncanny_keys", "issue_ids": "[2, 3]", "osm_url": "https://www.openstreetmap.org/node/8296953191", "josm_url": "http://127.0.0.1:8111/load_object?new_layer=false&objects=n8296953191", "id_url": "https://www.openstreetmap.org/edit?editor=id&node=8296953191#map=20/59.9129353/10.7770084"}}, {"type": "Feature", "geometry": {"type": "Point", "coordinates": [10.747488, 59.911662]}, "properties": {"id": 13846775969, "feat_type": "node", "quality_categories": "improper_keys, uncanny_keys", "issue_ids": "[0, 2]", "osm_url": "https://www.openstreetmap.org/node/13846775969", "josm_url": "http://127.0.0.1:8111/load_object?new_layer=false&objects=n13846775969", "id_url": "https://www.openstreetmap.org/edit?editor=id&node=13846775969#map=20/59.911662/10.747488"}}]}