{"type": "FeatureCollection", "features": [{"type": "Feature", "geometry": {"type": "Point", "coordinates": [10.7913901, 59.9347712]}, "properties": {"id": 242870869, "feat_type": "way", "quality_categories": "improper_geometries, wrong_mispelled_or_unlisted_values", "issue_ids": "[0, 1]", "osm_url": "https://www.openstreetmap.org/way/242870869", "josm_url": "http://127.0.0.1:8111/load_object?new_layer=false&objects=w242870869", "id_url": "https://www.openstreetmap.org/edit?editor=id&way=242870869#map=20/59.9347712/10.7913901"}}, {"type": "Feature", "geometry": {"type": "Point", "coordinates": [10.8009624, 59.931721]}, "properties": {"id": 712153045, "feat_type": "way", "quality_categories": "improper_geometries, wrong_mispelled_or_unlisted_values", "issue_ids": "[0, 1]", "osm_url": "https://www.openstreetmap.org/way/712153045", "josm_url": "http://127.0.0.1:8111/load_object?new_layer=false&objects=w712153045", "id_url": "https://www.openstreetmap.org/edit?editor=id&way=712153045#map=20/59.931721/10.8009624"}}]}